{
    "locations": [
        {
            "city": "Roma",
            "state": "Lazio",
            "state_abbr": "RM",
            "postcode": "00100",
            "postcode_prefix": "00",
            "lat_min": 41.8,
            "lat_max": 42.0,
            "lon_min": 12.35,
            "lon_max": 12.65
        },
        {
            "city": "Milano",
            "state": "Lombardia",
            "state_abbr": "MI",
            "postcode": "20100",
            "postcode_prefix": "20",
            "lat_min": 45.4,
            "lat_max": 45.55,
            "lon_min": 9.1,
            "lon_max": 9.3
        },
        {
            "city": "Napoli",
            "state": "Campania",
            "state_abbr": "NA",
            "postcode": "80100",
            "postcode_prefix": "80",
            "lat_min": 40.8,
            "lat_max": 40.95,
            "lon_min": 14.15,
            "lon_max": 14.35
        },
        {
            "city": "Torino",
            "state": "Piemonte",
            "state_abbr": "TO",
            "postcode": "10100",
            "postcode_prefix": "10",
            "lat_min": 45.0,
            "lat_max": 45.15,
            "lon_min": 7.6,
            "lon_max": 7.8
        },
        {
            "city": "Palermo",
            "state": "Sicilia",
            "state_abbr": "PA",
            "postcode": "90100",
            "postcode_prefix": "90",
            "lat_min": 38.05,
            "lat_max": 38.2,
            "lon_min": 13.3,
            "lon_max": 13.45
        },
        {
            "city": "Genova",
            "state": "Liguria",
            "state_abbr": "GE",
            "postcode": "16100",
            "postcode_prefix": "16",
            "lat_min": 44.35,
            "lat_max": 44.5,
            "lon_min": 8.85,
            "lon_max": 9.0
        },
        {
            "city": "Bologna",
            "state": "Emilia-Romagna",
            "state_abbr": "BO",
            "postcode": "40100",
            "postcode_prefix": "40",
            "lat_min": 44.45,
            "lat_max": 44.55,
            "lon_min": 11.3,
            "lon_max": 11.45
        },
        {
            "city": "Firenze",
            "state": "Toscana",
            "state_abbr": "FI",
            "postcode": "50100",
            "postcode_prefix": "50",
            "lat_min": 43.75,
            "lat_max": 43.85,
            "lon_min": 11.2,
            "lon_max": 11.35
        },
        {
            "city": "Bari",
            "state": "Puglia",
            "state_abbr": "BA",
            "postcode": "70100",
            "postcode_prefix": "70",
            "lat_min": 41.1,
            "lat_max": 41.2,
            "lon_min": 16.8,
            "lon_max": 16.95
        },
        {
            "city": "Catania",
            "state": "Sicilia",
            "state_abbr": "CT",
            "postcode": "95100",
            "postcode_prefix": "95",
            "lat_min": 37.45,
            "lat_max": 37.55,
            "lon_min": 15.05,
            "lon_max": 15.15
        },
        {
            "city": "Venezia",
            "state": "Veneto",
            "state_abbr": "VE",
            "postcode": "30100",
            "postcode_prefix": "30",
            "lat_min": 45.4,
            "lat_max": 45.5,
            "lon_min": 12.3,
            "lon_max": 12.45
        },
        {
            "city": "Verona",
            "state": "Veneto",
            "state_abbr": "VR",
            "postcode": "37100",
            "postcode_prefix": "37",
            "lat_min": 45.4,
            "lat_max": 45.5,
            "lon_min": 10.95,
            "lon_max": 11.1
        },
        {
            "city": "Messina",
            "state": "Sicilia",
            "state_abbr": "ME",
            "postcode": "98100",
            "postcode_prefix": "98",
            "lat_min": 38.15,
            "lat_max": 38.25,
            "lon_min": 15.5,
            "lon_max": 15.6
        },
        {
            "city": "Padova",
            "state": "Veneto",
            "state_abbr": "PD",
            "postcode": "35100",
            "postcode_prefix": "35",
            "lat_min": 45.35,
            "lat_max": 45.45,
            "lon_min": 11.85,
            "lon_max": 11.95
        },
        {
            "city": "Trieste",
            "state": "Friuli-Venezia Giulia",
            "state_abbr": "TS",
            "postcode": "34100",
            "postcode_prefix": "34",
            "lat_min": 45.6,
            "lat_max": 45.7,
            "lon_min": 13.75,
            "lon_max": 13.85
        },
        {
            "city": "Taranto",
            "state": "Puglia",
            "state_abbr": "TA",
            "postcode": "74100",
            "postcode_prefix": "74",
            "lat_min": 40.45,
            "lat_max": 40.55,
            "lon_min": 17.2,
            "lon_max": 17.3
        },
        {
            "city": "Brescia",
            "state": "Lombardia",
            "state_abbr": "BS",
            "postcode": "25100",
            "postcode_prefix": "25",
            "lat_min": 45.5,
            "lat_max": 45.6,
            "lon_min": 10.2,
            "lon_max": 10.3
        },
        {
            "city": "Prato",
            "state": "Toscana",
            "state_abbr": "PO",
            "postcode": "59100",
            "postcode_prefix": "59",
            "lat_min": 43.85,
            "lat_max": 43.95,
            "lon_min": 11.05,
            "lon_max": 11.15
        },
        {
            "city": "Reggio Calabria",
            "state": "Calabria",
            "state_abbr": "RC",
            "postcode": "89100",
            "postcode_prefix": "89",
            "lat_min": 38.05,
            "lat_max": 38.15,
            "lon_min": 15.6,
            "lon_max": 15.7
        },
        {
            "city": "Modena",
            "state": "Emilia-Romagna",
            "state_abbr": "MO",
            "postcode": "41100",
            "postcode_prefix": "41",
            "lat_min": 44.6,
            "lat_max": 44.7,
            "lon_min": 10.9,
            "lon_max": 11.0
        },
        {
            "city": "Parma",
            "state": "Emilia-Romagna",
            "state_abbr": "PR",
            "postcode": "43100",
            "postcode_prefix": "43",
            "lat_min": 44.75,
            "lat_max": 44.85,
            "lon_min": 10.3,
            "lon_max": 10.4
        },
        {
            "city": "Reggio Emilia",
            "state": "Emilia-Romagna",
            "state_abbr": "RE",
            "postcode": "42100",
            "postcode_prefix": "42",
            "lat_min": 44.65,
            "lat_max": 44.75,
            "lon_min": 10.6,
            "lon_max": 10.7
        },
        {
            "city": "Perugia",
            "state": "Umbria",
            "state_abbr": "PG",
            "postcode": "06100",
            "postcode_prefix": "06",
            "lat_min": 43.05,
            "lat_max": 43.15,
            "lon_min": 12.35,
            "lon_max": 12.45
        },
        {
            "city": "Livorno",
            "state": "Toscana",
            "state_abbr": "LI",
            "postcode": "57100",
            "postcode_prefix": "57",
            "lat_min": 43.5,
            "lat_max": 43.6,
            "lon_min": 10.3,
            "lon_max": 10.4
        },
        {
            "city": "Ravenna",
            "state": "Emilia-Romagna",
            "state_abbr": "RA",
            "postcode": "48100",
            "postcode_prefix": "48",
            "lat_min": 44.4,
            "lat_max": 44.5,
            "lon_min": 12.15,
            "lon_max": 12.25
        },
        {
            "city": "Cagliari",
            "state": "Sardegna",
            "state_abbr": "CA",
            "postcode": "09100",
            "postcode_prefix": "09",
            "lat_min": 39.2,
            "lat_max": 39.3,
            "lon_min": 9.1,
            "lon_max": 9.2
        },
        {
            "city": "Foggia",
            "state": "Puglia",
            "state_abbr": "FG",
            "postcode": "71100",
            "postcode_prefix": "71",
            "lat_min": 41.45,
            "lat_max": 41.55,
            "lon_min": 15.5,
            "lon_max": 15.6
        },
        {
            "city": "Rimini",
            "state": "Emilia-Romagna",
            "state_abbr": "RN",
            "postcode": "47900",
            "postcode_prefix": "47",
            "lat_min": 44.05,
            "lat_max": 44.1,
            "lon_min": 12.55,
            "lon_max": 12.6
        },
        {
            "city": "Salerno",
            "state": "Campania",
            "state_abbr": "SA",
            "postcode": "84100",
            "postcode_prefix": "84",
            "lat_min": 40.65,
            "lat_max": 40.75,
            "lon_min": 14.75,
            "lon_max": 14.85
        },
        {
            "city": "Ferrara",
            "state": "Emilia-Romagna",
            "state_abbr": "FE",
            "postcode": "44100",
            "postcode_prefix": "44",
            "lat_min": 44.8,
            "lat_max": 44.9,
            "lon_min": 11.6,
            "lon_max": 11.7
        },
        {
            "city": "Sassari",
            "state": "Sardegna",
            "state_abbr": "SS",
            "postcode": "07100",
            "postcode_prefix": "07",
            "lat_min": 40.7,
            "lat_max": 40.8,
            "lon_min": 8.55,
            "lon_max": 8.65
        },
        {
            "city": "Latina",
            "state": "Lazio",
            "state_abbr": "LT",
            "postcode": "04100",
            "postcode_prefix": "04",
            "lat_min": 41.45,
            "lat_max": 41.55,
            "lon_min": 12.85,
            "lon_max": 12.95
        },
        {
            "city": "Giugliano in Campania",
            "state": "Campania",
            "state_abbr": "NA",
            "postcode": "80014",
            "postcode_prefix": "80",
            "lat_min": 40.9,
            "lat_max": 41.0,
            "lon_min": 14.05,
            "lon_max": 14.15
        },
        {
            "city": "Monza",
            "state": "Lombardia",
            "state_abbr": "MB",
            "postcode": "20900",
            "postcode_prefix": "20",
            "lat_min": 45.55,
            "lat_max": 45.65,
            "lon_min": 9.25,
            "lon_max": 9.35
        },
        {
            "city": "Siracusa",
            "state": "Sicilia",
            "state_abbr": "SR",
            "postcode": "96100",
            "postcode_prefix": "96",
            "lat_min": 37.05,
            "lat_max": 37.15,
            "lon_min": 15.25,
            "lon_max": 15.35
        },
        {
            "city": "Pescara",
            "state": "Abruzzo",
            "state_abbr": "PE",
            "postcode": "65100",
            "postcode_prefix": "65",
            "lat_min": 42.45,
            "lat_max": 42.5,
            "lon_min": 14.2,
            "lon_max": 14.25
        },
        {
            "city": "Bergamo",
            "state": "Lombardia",
            "state_abbr": "BG",
            "postcode": "24100",
            "postcode_prefix": "24",
            "lat_min": 45.65,
            "lat_max": 45.75,
            "lon_min": 9.65,
            "lon_max": 9.75
        },
        {
            "city": "Forlì",
            "state": "Emilia-Romagna",
            "state_abbr": "FC",
            "postcode": "47100",
            "postcode_prefix": "47",
            "lat_min": 44.2,
            "lat_max": 44.3,
            "lon_min": 12.05,
            "lon_max": 12.15
        },
        {
            "city": "Trento",
            "state": "Trentino-Alto Adige",
            "state_abbr": "TN",
            "postcode": "38100",
            "postcode_prefix": "38",
            "lat_min": 46.05,
            "lat_max": 46.15,
            "lon_min": 11.1,
            "lon_max": 11.2
        },
        {
            "city": "Vicenza",
            "state": "Veneto",
            "state_abbr": "VI",
            "postcode": "36100",
            "postcode_prefix": "36",
            "lat_min": 45.5,
            "lat_max": 45.6,
            "lon_min": 11.5,
            "lon_max": 11.6
        },
        {
            "city": "Terni",
            "state": "Umbria",
            "state_abbr": "TR",
            "postcode": "05100",
            "postcode_prefix": "05",
            "lat_min": 42.55,
            "lat_max": 42.65,
            "lon_min": 12.6,
            "lon_max": 12.7
        },
        {
            "city": "Bolzano",
            "state": "Trentino-Alto Adige",
            "state_abbr": "BZ",
            "postcode": "39100",
            "postcode_prefix": "39",
            "lat_min": 46.45,
            "lat_max": 46.55,
            "lon_min": 11.3,
            "lon_max": 11.4
        },
        {
            "city": "Novara",
            "state": "Piemonte",
            "state_abbr": "NO",
            "postcode": "28100",
            "postcode_prefix": "28",
            "lat_min": 45.4,
            "lat_max": 45.5,
            "lon_min": 8.6,
            "lon_max": 8.7
        },
        {
            "city": "Piacenza",
            "state": "Emilia-Romagna",
            "state_abbr": "PC",
            "postcode": "29100",
            "postcode_prefix": "29",
            "lat_min": 45.0,
            "lat_max": 45.1,
            "lon_min": 9.65,
            "lon_max": 9.75
        },
        {
            "city": "Ancona",
            "state": "Marche",
            "state_abbr": "AN",
            "postcode": "60100",
            "postcode_prefix": "60",
            "lat_min": 43.6,
            "lat_max": 43.65,
            "lon_min": 13.5,
            "lon_max": 13.55
        },
        {
            "city": "Andria",
            "state": "Puglia",
            "state_abbr": "BT",
            "postcode": "76123",
            "postcode_prefix": "76",
            "lat_min": 41.2,
            "lat_max": 41.3,
            "lon_min": 16.25,
            "lon_max": 16.35
        },
        {
            "city": "Arezzo",
            "state": "Toscana",
            "state_abbr": "AR",
            "postcode": "52100",
            "postcode_prefix": "52",
            "lat_min": 43.45,
            "lat_max": 43.55,
            "lon_min": 11.85,
            "lon_max": 11.95
        },
        {
            "city": "Udine",
            "state": "Friuli-Venezia Giulia",
            "state_abbr": "UD",
            "postcode": "33100",
            "postcode_prefix": "33",
            "lat_min": 46.05,
            "lat_max": 46.1,
            "lon_min": 13.2,
            "lon_max": 13.3
        },
        {
            "city": "Cesena",
            "state": "Emilia-Romagna",
            "state_abbr": "FC",
            "postcode": "47521",
            "postcode_prefix": "47",
            "lat_min": 44.1,
            "lat_max": 44.2,
            "lon_min": 12.2,
            "lon_max": 12.3
        },
        {
            "city": "Lecce",
            "state": "Puglia",
            "state_abbr": "LE",
            "postcode": "73100",
            "postcode_prefix": "73",
            "lat_min": 40.3,
            "lat_max": 40.4,
            "lon_min": 18.15,
            "lon_max": 18.25
        },
        {
            "city": "Pesaro",
            "state": "Marche",
            "state_abbr": "PU",
            "postcode": "61100",
            "postcode_prefix": "61",
            "lat_min": 43.9,
            "lat_max": 43.95,
            "lon_min": 12.9,
            "lon_max": 12.95
        },
        {
            "city": "Barletta",
            "state": "Puglia",
            "state_abbr": "BT",
            "postcode": "76121",
            "postcode_prefix": "76",
            "lat_min": 41.3,
            "lat_max": 41.35,
            "lon_min": 16.25,
            "lon_max": 16.3
        },
        {
            "city": "Alessandria",
            "state": "Piemonte",
            "state_abbr": "AL",
            "postcode": "15100",
            "postcode_prefix": "15",
            "lat_min": 44.9,
            "lat_max": 44.95,
            "lon_min": 8.6,
            "lon_max": 8.65
        },
        {
            "city": "La Spezia",
            "state": "Liguria",
            "state_abbr": "SP",
            "postcode": "19100",
            "postcode_prefix": "19",
            "lat_min": 44.1,
            "lat_max": 44.15,
            "lon_min": 9.8,
            "lon_max": 9.85
        },
        {
            "city": "Pisa",
            "state": "Toscana",
            "state_abbr": "PI",
            "postcode": "56100",
            "postcode_prefix": "56",
            "lat_min": 43.7,
            "lat_max": 43.75,
            "lon_min": 10.4,
            "lon_max": 10.45
        },
        {
            "city": "Catanzaro",
            "state": "Calabria",
            "state_abbr": "CZ",
            "postcode": "88100",
            "postcode_prefix": "88",
            "lat_min": 38.9,
            "lat_max": 38.95,
            "lon_min": 16.55,
            "lon_max": 16.65
        },
        {
            "city": "Lucca",
            "state": "Toscana",
            "state_abbr": "LU",
            "postcode": "55100",
            "postcode_prefix": "55",
            "lat_min": 43.83,
            "lat_max": 43.88,
            "lon_min": 10.5,
            "lon_max": 10.55
        },
        {
            "city": "Torre del Greco",
            "state": "Campania",
            "state_abbr": "NA",
            "postcode": "80059",
            "postcode_prefix": "80",
            "lat_min": 40.78,
            "lat_max": 40.82,
            "lon_min": 14.35,
            "lon_max": 14.4
        },
        {
            "city": "Como",
            "state": "Lombardia",
            "state_abbr": "CO",
            "postcode": "22100",
            "postcode_prefix": "22",
            "lat_min": 45.8,
            "lat_max": 45.85,
            "lon_min": 9.05,
            "lon_max": 9.1
        },
        {
            "city": "Potenza",
            "state": "Basilicata",
            "state_abbr": "PZ",
            "postcode": "85100",
            "postcode_prefix": "85",
            "lat_min": 40.63,
            "lat_max": 40.68,
            "lon_min": 15.8,
            "lon_max": 15.85
        },
        {
            "city": "Brindisi",
            "state": "Puglia",
            "state_abbr": "BR",
            "postcode": "72100",
            "postcode_prefix": "72",
            "lat_min": 40.63,
            "lat_max": 40.68,
            "lon_min": 17.93,
            "lon_max": 17.98
        },
        {
            "city": "Busto Arsizio",
            "state": "Lombardia",
            "state_abbr": "VA",
            "postcode": "21052",
            "postcode_prefix": "21",
            "lat_min": 45.6,
            "lat_max": 45.65,
            "lon_min": 8.83,
            "lon_max": 8.88
        },
        {
            "city": "Sesto San Giovanni",
            "state": "Lombardia",
            "state_abbr": "MI",
            "postcode": "20099",
            "postcode_prefix": "20",
            "lat_min": 45.53,
            "lat_max": 45.55,
            "lon_min": 9.22,
            "lon_max": 9.25
        },
        {
            "city": "Cinisello Balsamo",
            "state": "Lombardia",
            "state_abbr": "MI",
            "postcode": "20092",
            "postcode_prefix": "20",
            "lat_min": 45.55,
            "lat_max": 45.58,
            "lon_min": 9.2,
            "lon_max": 9.23
        },
        {
            "city": "Grosseto",
            "state": "Toscana",
            "state_abbr": "GR",
            "postcode": "58100",
            "postcode_prefix": "58",
            "lat_min": 42.75,
            "lat_max": 42.8,
            "lon_min": 11.1,
            "lon_max": 11.15
        },
        {
            "city": "Varese",
            "state": "Lombardia",
            "state_abbr": "VA",
            "postcode": "21100",
            "postcode_prefix": "21",
            "lat_min": 45.8,
            "lat_max": 45.85,
            "lon_min": 8.8,
            "lon_max": 8.85
        },
        {
            "city": "Asti",
            "state": "Piemonte",
            "state_abbr": "AT",
            "postcode": "14100",
            "postcode_prefix": "14",
            "lat_min": 44.9,
            "lat_max": 44.92,
            "lon_min": 8.2,
            "lon_max": 8.22
        },
        {
            "city": "Ragusa",
            "state": "Sicilia",
            "state_abbr": "RG",
            "postcode": "97100",
            "postcode_prefix": "97",
            "lat_min": 36.92,
            "lat_max": 36.95,
            "lon_min": 14.72,
            "lon_max": 14.75
        },
        {
            "city": "Cremona",
            "state": "Lombardia",
            "state_abbr": "CR",
            "postcode": "26100",
            "postcode_prefix": "26",
            "lat_min": 45.13,
            "lat_max": 45.16,
            "lon_min": 10.02,
            "lon_max": 10.05
        },
        {
            "city": "Cosenza",
            "state": "Calabria",
            "state_abbr": "CS",
            "postcode": "87100",
            "postcode_prefix": "87",
            "lat_min": 39.28,
            "lat_max": 39.32,
            "lon_min": 16.25,
            "lon_max": 16.28
        },
        {
            "city": "Massa",
            "state": "Toscana",
            "state_abbr": "MS",
            "postcode": "54100",
            "postcode_prefix": "54",
            "lat_min": 44.02,
            "lat_max": 44.05,
            "lon_min": 10.13,
            "lon_max": 10.16
        },
        {
            "city": "Carrara",
            "state": "Toscana",
            "state_abbr": "MS",
            "postcode": "54033",
            "postcode_prefix": "54",
            "lat_min": 44.07,
            "lat_max": 44.1,
            "lon_min": 10.08,
            "lon_max": 10.12
        },
        {
            "city": "Trapani",
            "state": "Sicilia",
            "state_abbr": "TP",
            "postcode": "91100",
            "postcode_prefix": "91",
            "lat_min": 38.01,
            "lat_max": 38.03,
            "lon_min": 12.5,
            "lon_max": 12.52
        },
        {
            "city": "Viterbo",
            "state": "Lazio",
            "state_abbr": "VT",
            "postcode": "01100",
            "postcode_prefix": "01",
            "lat_min": 42.4,
            "lat_max": 42.45,
            "lon_min": 12.1,
            "lon_max": 12.15
        },
        {
            "city": "Savona",
            "state": "Liguria",
            "state_abbr": "SV",
            "postcode": "17100",
            "postcode_prefix": "17",
            "lat_min": 44.3,
            "lat_max": 44.33,
            "lon_min": 8.47,
            "lon_max": 8.5
        },
        {
            "city": "Crotone",
            "state": "Calabria",
            "state_abbr": "KR",
            "postcode": "88900",
            "postcode_prefix": "88",
            "lat_min": 39.08,
            "lat_max": 39.11,
            "lon_min": 17.12,
            "lon_max": 17.15
        },
        {
            "city": "Caserta",
            "state": "Campania",
            "state_abbr": "CE",
            "postcode": "81100",
            "postcode_prefix": "81",
            "lat_min": 41.07,
            "lat_max": 41.1,
            "lon_min": 14.33,
            "lon_max": 14.36
        },
        {
            "city": "Viareggio",
            "state": "Toscana",
            "state_abbr": "LU",
            "postcode": "55049",
            "postcode_prefix": "55",
            "lat_min": 43.86,
            "lat_max": 43.89,
            "lon_min": 10.25,
            "lon_max": 10.27
        },
        {
            "city": "Matera",
            "state": "Basilicata",
            "state_abbr": "MT",
            "postcode": "75100",
            "postcode_prefix": "75",
            "lat_min": 40.65,
            "lat_max": 40.68,
            "lon_min": 16.6,
            "lon_max": 16.62
        }
    ],
    "streets_by_city": {
        "Roma": [
            "Via del Corso",
            "Via Nazionale",
            "Via Veneto",
            "Via dei Fori Imperiali",
            "Via della Conciliazione",
            "Via Condotti",
            "Via del Babuino",
            "Piazza Navona",
            "Via Giulia",
            "Via dei Coronari",
            "Via Margutta",
            "Via Frattina",
            "Via del Tritone",
            "Via Sistina",
            "Via Cavour",
            "Via Merulana",
            "Via Tiburtina",
            "Via Nomentana",
            "Via Salaria",
            "Via Flaminia",
            "Via Appia Nuova",
            "Via Tuscolana",
            "Via Prenestina",
            "Viale Trastevere",
            "Via Cola di Rienzo",
            "Via Ottaviano",
            "Via della Lungara",
            "Via dei Giubbonari",
            "Piazza di Spagna",
            "Via dei Serpenti"
        ],
        "Milano": [
            "Corso Buenos Aires",
            "Via Montenapoleone",
            "Via della Spiga",
            "Corso Vittorio Emanuele",
            "Via Manzoni",
            "Via Torino",
            "Corso Magenta",
            "Via Dante",
            "Corso Sempione",
            "Via Brera",
            "Corso Como",
            "Via Paolo Sarpi",
            "Corso Garibaldi",
            "Via Solferino",
            "Corso Venezia",
            "Via Borgospesso",
            "Via Sant'Andrea",
            "Corso di Porta Ticinese",
            "Via Vigevano",
            "Via Savona",
            "Via Tortona",
            "Via Washington",
            "Viale Monza",
            "Via Padova",
            "Via Lorenteggio",
            "Via Broletto",
            "Piazza San Babila",
            "Viale Abruzzi",
            "Via Larga",
            "Via Meravigli",
            "Corso Vittorio Emanuele II",
            "Via Mercanti",
            "Via Orefici",
            "Via Fiori Chiari",
            "Viale Papiniano",
            "Corso Genova",
            "Via Cesare Correnti",
            "Via De Amicis",
            "Via San Vittore",
            "Corso Vercelli",
            "Via Marghera",
            "Via Canonica",
            "Viale Certosa",
            "Via Procaccini",
            "Via Cernuschi",
            "Via Moscova",
            "Via Pontaccio",
            "Via Castelfidardo",
            "Via Fatebenefratelli",
            "Via Borgonuovo",
            "Via Bigli",
            "Via Gesù",
            "Via Senato",
            "Via Palestro",
            "Via Marina",
            "Bastioni di Porta Venezia",
            "Corso Concordia",
            "Corso Indipendenza",
            "Viale Piave",
            "Corso XXII Marzo",
            "Via Cadore",
            "Via Bergamo",
            "Via Archimede",
            "Via Spontini",
            "Via Rasori",
            "Viale Tunisia",
            "Via Lazzaretto",
            "Corso Porta Nuova",
            "Via della Moscova",
            "Via Turati",
            "Via Manin",
            "Via Principe Amedeo",
            "Via Vitruvio",
            "Via Pirelli",
            "Via Melchiorre Gioia",
            "Viale Sarca",
            "Viale Fulvio Testi",
            "Via Porpora",
            "Via Teodosio",
            "Via Ripamonti",
            "Via Mecenate",
            "Viale Corsica",
            "Corso Lodi",
            "Via Lombroso",
            "Via Tertulliano",
            "Via Brembo",
            "Viale Umbria",
            "Via Tucidide",
            "Corso San Gottardo",
            "Via Bligny",
            "Via Pavia",
            "Viale Col di Lana",
            "Via Coni Zugna",
            "Viale Crispi",
            "Piazza Wagner",
            "Via Domenico Cimarosa",
            "Via Michelangelo Buonarroti",
            "Via Domodossola",
            "Via Cenisio",
            "Via Monte Rosa"
        ],
        "Napoli": [
            "Via Toledo",
            "Via Chiaia",
            "Via dei Mille",
            "Corso Umberto I",
            "Via Partenope",
            "Via Caracciolo",
            "Spaccanapoli",
            "Via San Gregorio Armeno",
            "Via dei Tribunali",
            "Via Duomo",
            "Piazza del Plebiscito",
            "Via Santa Lucia",
            "Via Posillipo",
            "Via Mergellina",
            "Via Foria",
            "Via Marina",
            "Via Medina",
            "Via Depretis",
            "Corso Vittorio Emanuele",
            "Via Salvator Rosa",
            "Via Mezzocannone",
            "Via San Biagio dei Librai",
            "Via Anticaglia",
            "Via Port'Alba",
            "Via Benedetto Croce",
            "Via Monteoliveto",
            "Via Sanità",
            "Piazza Gesù Nuovo",
            "Via Capodimonte",
            "Via Arenaccia"
        ],
        "Torino": [
            "Via Roma",
            "Via Po",
            "Via Garibaldi",
            "Corso Vittorio Emanuele II",
            "Via Pietro Micca",
            "Corso Francia",
            "Via Lagrange",
            "Via Carlo Alberto",
            "Corso Re Umberto",
            "Via Cernaia",
            "Corso Galileo Ferraris",
            "Via Nizza",
            "Corso Vinzaglio",
            "Via della Consolata",
            "Via San Tommaso",
            "Via Maria Vittoria",
            "Via Barbaroux",
            "Corso Matteotti",
            "Via XX Settembre",
            "Piazza Castello",
            "Corso Cairoli",
            "Via Accademia delle Scienze",
            "Via Principe Amedeo",
            "Via Sant'Agostino",
            "Via Bogino",
            "Via Verdi",
            "Via delle Orfane",
            "Via Alfieri",
            "Piazza Solferino",
            "Via Bertola"
        ],
        "Palermo": [
            "Via Maqueda",
            "Via Roma",
            "Corso Vittorio Emanuele",
            "Via Libertà",
            "Via Ruggero Settimo",
            "Via Cavour",
            "Via Lincoln",
            "Corso Calatafimi",
            "Via Notarbartolo",
            "Via Marchese di Villabianca",
            "Via Dante",
            "Via Catania",
            "Via Messina",
            "Via Siracusa",
            "Via Trapani",
            "Piazza Verdi",
            "Via Isidoro La Lumia",
            "Via Principe di Belmonte",
            "Via XX Settembre",
            "Via Emerico Amari",
            "Via Francesco Crispi",
            "Via Generale Magliocco",
            "Via Marchese Ugo",
            "Via Sciuti",
            "Via Sampolo",
            "Via Garibaldi",
            "Via Principe di Granatelli",
            "Piazza Pretoria",
            "Via Orologio",
            "Via Bara"
        ],
        "Genova": [
            "Via Garibaldi",
            "Via XX Settembre",
            "Via San Lorenzo",
            "Via Balbi",
            "Via Cairoli",
            "Corso Italia",
            "Via Roma",
            "Via Fieschi",
            "Via XXV Aprile",
            "Via Gramsci",
            "Via San Vincenzo",
            "Via Colombo",
            "Via Brigata Liguria",
            "Via Ceccardi",
            "Piazza De Ferrari",
            "Via Assarotti",
            "Corso Buenos Aires",
            "Via Albaro",
            "Via Pré",
            "Via del Campo",
            "Via Ravecca",
            "Via Canneto il Lungo",
            "Via Luccoli",
            "Salita Pollaiuoli",
            "Via Orefici",
            "Via Vernazza",
            "Piazza Banchi",
            "Via Maddalena",
            "Vico degli Indoratori",
            "Via Sottoripa"
        ],
        "Bologna": [
            "Via dell'Indipendenza",
            "Via Rizzoli",
            "Via Ugo Bassi",
            "Via Zamboni",
            "Via Oberdan",
            "Via Marconi",
            "Strada Maggiore",
            "Via Santo Stefano",
            "Via Castiglione",
            "Via D'Azeglio",
            "Via Farini",
            "Piazza Maggiore",
            "Via delle Moline",
            "Via Galliera",
            "Via San Felice",
            "Via Saragozza",
            "Via Irnerio",
            "Via Augusto Righi",
            "Via Belle Arti",
            "Via del Pratello",
            "Via Petroni",
            "Via delle Belle Arti",
            "Via Clavature",
            "Via Pescherie Vecchie",
            "Via Drapperie",
            "Via Saffi",
            "Via Manzoni",
            "Via Piella",
            "Via Mascarella",
            "Via Stalingrado"
        ],
        "Firenze": [
            "Via de' Tornabuoni",
            "Via dei Calzaiuoli",
            "Via della Vigna Nuova",
            "Borgo San Lorenzo",
            "Via Ghibellina",
            "Via dei Servi",
            "Via Maggio",
            "Via Romana",
            "Lungarno Corsini",
            "Lungarno della Zecca Vecchia",
            "Via Porta Rossa",
            "Via dei Cerretani",
            "Via Cavour",
            "Via Nazionale",
            "Via Faenza",
            "Via Panzani",
            "Via dell'Oriuolo",
            "Via dei Pucci",
            "Via dell'Ariento",
            "Via Sant'Antonino",
            "Piazza della Signoria",
            "Via del Proconsolo",
            "Via dei Neri",
            "Via de' Benci",
            "Via San Gallo",
            "Via Calimala",
            "Via Strozzi",
            "Via Pelliceria",
            "Piazza della Repubblica",
            "Via del Campidoglio"
        ],
        "Bari": [
            "Corso Vittorio Emanuele",
            "Via Sparano",
            "Corso Cavour",
            "Via Argiro",
            "Via Melo",
            "Via Putignani",
            "Via Dante",
            "Via Nicolai",
            "Via Cairoli",
            "Via Calefati",
            "Lungomare Nazario Sauro",
            "Via Venezia",
            "Via Abate Gimma",
            "Via Piccinni",
            "Via De Rossi",
            "Via Roberto da Bari",
            "Via Quintino Sella",
            "Via Crisanzio",
            "Corso De Tullio",
            "Via Giulio Petroni",
            "Via Napoli",
            "Via Capruzzi",
            "Via Fanelli",
            "Strada Palazzo di Città",
            "Piazza Ferrarese",
            "Via Trevisani",
            "Via Sagarriga Visconti",
            "Corso Vittorio Veneto",
            "Via Bonomo",
            "Piazza Umberto I"
        ],
        "Catania": [
            "Via Etnea",
            "Corso Italia",
            "Via Umberto",
            "Via Vittorio Emanuele",
            "Via Crociferi",
            "Via Antonino di Sangiuliano",
            "Piazza Duomo",
            "Via Garibaldi",
            "Via Plebiscito",
            "Via Teatro Massimo",
            "Viale XX Settembre",
            "Corso Sicilia",
            "Via Ventimiglia",
            "Via Caronda",
            "Via Lincoln",
            "Via Dusmet",
            "Via Pacini",
            "Via Monsignor Ventimiglia",
            "Via Landolina",
            "Piazza Università",
            "Via Santa Maria del Rosario",
            "Via Museo Biscari",
            "Via Manzoni",
            "Via Sturzo",
            "Via Gabriele D'Annunzio",
            "Corso Martiri della Libertà",
            "Via Coppola",
            "Piazza San Placido",
            "Via Raddusa",
            "Via Orfanelli"
        ],
        "Venezia": [
            "Piazza San Marco",
            "Rialto",
            "Calle Larga XXII Marzo",
            "Mercerie",
            "Fondamenta delle Zattere",
            "Strada Nova",
            "Riva degli Schiavoni",
            "Campo Santa Margherita",
            "Calle dei Fabbri",
            "Salizada San Lio",
            "Fondamenta Nuove",
            "Lista di Spagna",
            "Rio Terà dei Franceschi",
            "Calle del Paradiso",
            "Fondamenta della Misericordia",
            "Calle Lunga San Barnaba",
            "Campo San Polo",
            "Campo Santo Stefano",
            "Fondamenta San Giobbe",
            "Rio Terà San Leonardo",
            "Calle dei Stagneri",
            "Ruga Giuffa",
            "Calle della Mandola",
            "Fondamenta Ormesini",
            "Campo dei Frari",
            "Calle dei Cerchieri",
            "Campo San Barnaba",
            "Fondamenta San Lorenzo",
            "Calle Larga dei Botteri",
            "Rio Terà della Maddalena"
        ],
        "Verona": [
            "Via Mazzini",
            "Corso Porta Nuova",
            "Corso Cavour",
            "Via Cappello",
            "Piazza Bra",
            "Piazza delle Erbe",
            "Via Anfiteatro",
            "Stradone San Fermo",
            "Corso Sant'Anastasia",
            "Via Roma",
            "Via Leoncino",
            "Via Stella",
            "Via Oberdan",
            "Via Dietro Anfiteatro",
            "Via Emilei",
            "Via Sottoriva",
            "Via Pellicciai",
            "Via Scudo di Francia",
            "Via Santa Maria in Chiavica",
            "Corso Porta Borsari",
            "Via Alberto Mario",
            "Via Diaz",
            "Via XX Settembre",
            "Via Carlo Cattaneo",
            "Via Garibaldi",
            "Via Pallone",
            "Via Scrimiari",
            "Piazza Viviani",
            "Via Quattro Spade",
            "Via Nizza"
        ],
        "Messina": [
            "Viale San Martino",
            "Via Garibaldi",
            "Corso Cavour",
            "Via I Settembre",
            "Piazza Cairoli",
            "Via Cesare Battisti",
            "Via XXIV Maggio",
            "Via Tommaso Cannizzaro",
            "Viale Boccetta",
            "Via dei Mille",
            "Via La Farina",
            "Piazza del Duomo",
            "Via Consolato del Mare",
            "Via Santa Maria Alemanna",
            "Via Cardines",
            "Via Placida",
            "Via Argentieri",
            "Via Ghibellina",
            "Via Oratorio della Pace",
            "Via San Giacomo",
            "Via Teatro Greco",
            "Via Università",
            "Via Felice Bisazza",
            "Via Risorgimento",
            "Via Maddalena",
            "Via Santa Cecilia",
            "Via del Vespro",
            "Piazza Lo Sardo",
            "Via San Camillo",
            "Via Centonze"
        ],
        "Padova": [
            "Via Roma",
            "Via San Fermo",
            "Via Altinate",
            "Via Dante",
            "Via Umberto I",
            "Prato della Valle",
            "Via del Santo",
            "Via Eremitani",
            "Piazza delle Erbe",
            "Piazza della Frutta",
            "Via Cavour",
            "Via Zabarella",
            "Riviera dei Ponti Romani",
            "Via Cesare Battisti",
            "Via San Francesco",
            "Via Manin",
            "Via Oberdan",
            "Via VIII Febbraio",
            "Via XX Settembre",
            "Via Marsilio da Padova",
            "Via Beato Pellegrino",
            "Via Gradenigo",
            "Via Gattamelata",
            "Corso Milano",
            "Via Facciolati",
            "Via Rudena",
            "Via Soncin",
            "Via Savonarola",
            "Piazza Petrarca",
            "Via Scrovegni"
        ],
        "Trieste": [
            "Piazza Unità d'Italia",
            "Corso Italia",
            "Via Carducci",
            "Via Dante",
            "Via San Nicolò",
            "Rive",
            "Via Mazzini",
            "Via Roma",
            "Via Valdirivo",
            "Via Battisti",
            "Viale XX Settembre",
            "Via Fabio Severo",
            "Via Ghega",
            "Via Rossini",
            "Via Geppa",
            "Via San Michele",
            "Via della Geppa",
            "Via Cassa di Risparmio",
            "Via San Lazzaro",
            "Via Udine",
            "Via Filzi",
            "Via Coroneo",
            "Via Commerciale",
            "Piazza Goldoni",
            "Via Imbriani",
            "Via Torino",
            "Via Diaz",
            "Piazza Oberdan",
            "Via Carciotti",
            "Via Trenta Ottobre"
        ],
        "Taranto": [
            "Via D'Aquino",
            "Corso Umberto",
            "Corso Due Mari",
            "Via Duomo",
            "Via Cariati",
            "Via Di Palma",
            "Via Anfiteatro",
            "Lungomare Vittorio Emanuele III",
            "Via Pupino",
            "Via Nitti",
            "Via Pitagora",
            "Via Mazzini",
            "Via Regina Elena",
            "Via Berardi",
            "Corso Italia",
            "Via Archita",
            "Via Cavallotti",
            "Via Massari",
            "Piazza Fontana",
            "Via Dante",
            "Via Temenide",
            "Via Leonida",
            "Via Acclavio",
            "Via Mignogna",
            "Via Oberdan",
            "Via Garibaldi",
            "Via Giovinazzi",
            "Via Japigia",
            "Piazza Maria Immacolata",
            "Via Cugini"
        ],
        "Brescia": [
            "Corso Zanardelli",
            "Corso Palestro",
            "Via X Giornate",
            "Corso Mameli",
            "Via San Faustino",
            "Corso Garibaldi",
            "Via dei Musei",
            "Piazza della Loggia",
            "Via Trieste",
            "Corso Magenta",
            "Via Tosio",
            "Via Gramsci",
            "Via Turati",
            "Via Moretto",
            "Via Pace",
            "Via Marsala",
            "Via Milano",
            "Via Vittorio Emanuele II",
            "Contrada del Carmine",
            "Via Gabriele Rosa",
            "Via Beccaria",
            "Piazzale Arnaldo",
            "Via Solferino",
            "Via Mazzini",
            "Via Cremona",
            "Via Crispi",
            "Via San Zeno",
            "Via Capriolo",
            "Via Cavallotti",
            "Piazzetta Tito Speri"
        ],
        "Prato": [
            "Via Garibaldi",
            "Via Mazzoni",
            "Via Ricasoli",
            "Corso Mazzini",
            "Via Santa Trinita",
            "Via Pugliesi",
            "Via Roma",
            "Via dell'Accademia",
            "Via Convenevole",
            "Via Pomeria",
            "Piazza del Comune",
            "Via Magnolfi",
            "Via Cairoli",
            "Via Valentini",
            "Via Ferrucci",
            "Via del Serraglio",
            "Via Banchelli",
            "Via Bologna",
            "Via Firenze",
            "Via Pistoiese",
            "Piazza Mercatale",
            "Via Santa Margherita",
            "Via Carbonaia",
            "Via Tinaia",
            "Via dell'Arco",
            "Via Lippi",
            "Via della Pace",
            "Via Datini",
            "Piazza Lippi",
            "Via Settesoldi"
        ],
        "Reggio Calabria": [
            "Corso Garibaldi",
            "Via Marina",
            "Lungomare Falcomatà",
            "Via Giudecca",
            "Via Aschenez",
            "Via Romeo",
            "Via Torrione",
            "Via Demetrio Tripepi",
            "Via Melacrino",
            "Via Fata Morgana",
            "Viale Zerbi",
            "Via Vollaro",
            "Via De Nava",
            "Piazza Italia",
            "Via Osanna",
            "Via Possidonea",
            "Via XXIV Maggio",
            "Corso Vittorio Emanuele III",
            "Via San Giuseppe",
            "Via Filippini",
            "Via Castello",
            "Via Cattolica dei Greci",
            "Via Cimino",
            "Via Miraglia",
            "Via Aspromonte",
            "Via Argentino",
            "Via Amendola",
            "Via T. Campanella",
            "Piazza Camagna",
            "Corso Matteotti"
        ],
        "Modena": [
            "Corso Canalgrande",
            "Via Emilia",
            "Via Farini",
            "Corso Cavour",
            "Corso Duomo",
            "Via Cesare Battisti",
            "Piazza Grande",
            "Via Selmi",
            "Rue Carteria",
            "Via Taglio",
            "Corso Vittorio Emanuele II",
            "Via Ganaceto",
            "Via Berengario",
            "Via Saragozza",
            "Via Gallucci",
            "Via Fonteraso",
            "Via San Carlo",
            "Via dei Servi",
            "Via Sant'Eufemia",
            "Via Rua Muro",
            "Via Albinelli",
            "Rue Pioppa",
            "Via Scudari",
            "Via Torre",
            "Via Cervetta",
            "Via Canalchiaro",
            "Via Castellaro",
            "Piazza Roma",
            "Via Carteria",
            "Via Blasia"
        ],
        "Parma": [
            "Strada della Repubblica",
            "Via Mazzini",
            "Via Farini",
            "Strada Garibaldi",
            "Borgo XX Marzo",
            "Via D'Azeglio",
            "Piazzale della Pace",
            "Strada Cavour",
            "Via Cavestro",
            "Via Melloni",
            "Borgo Felino",
            "Via Saffi",
            "Via Santa Croce",
            "Via XXII Luglio",
            "Via Pisacane",
            "Strada al Ponte Caprazucca",
            "Via Nazario Sauro",
            "Borgo Palmia",
            "Via Emilia Ovest",
            "Via Emilia Est",
            "Via Langhirano",
            "Via Bixio",
            "Via Gramsci",
            "Borgo del Parmigianino",
            "Via Massimo D'Azeglio",
            "Via della Salina",
            "Strada San Nicolò",
            "Via Verdi",
            "Piazza Garibaldi",
            "Borgo Giacomo Tommasini"
        ],
        "Reggio Emilia": [
            "Via Emilia",
            "Corso Garibaldi",
            "Via Crispi",
            "Via Roma",
            "Via Farini",
            "Piazza Prampolini",
            "Via San Carlo",
            "Via Guasco",
            "Via Toschi",
            "Viale Umberto I",
            "Via Ariosto",
            "Via Secchi",
            "Via San Pietro Martire",
            "Via del Guazzatoio",
            "Via Franzoni",
            "Piazza Fontanesi",
            "Via Campo Marzio",
            "Via Sessi",
            "Via Filippo Re",
            "Viale Montegrappa",
            "Via Emilia Santo Stefano",
            "Via Allegri",
            "Via Squadroni",
            "Via Panciroli",
            "Via dell'Aeronautica",
            "Via Nobili",
            "Via Guidelli",
            "Via Monte Grappa",
            "Piazza della Vittoria",
            "Via Bligny"
        ],
        "Perugia": [
            "Corso Vannucci",
            "Via dei Priori",
            "Via Oberdan",
            "Via Baglioni",
            "Piazza IV Novembre",
            "Via Mazzini",
            "Via Bonazzi",
            "Via Fani",
            "Via della Viola",
            "Via Danzetta",
            "Via Pinturicchio",
            "Corso Cavour",
            "Via Ulisse Rocchi",
            "Via Cesare Battisti",
            "Via del Roscetto",
            "Via Baldeschi",
            "Via della Gabbia",
            "Via Vermiglioli",
            "Via Cartolari",
            "Via Pascoli",
            "Via XIV Settembre",
            "Via del Sole",
            "Via Marzia",
            "Via Deliziosa",
            "Via dell'Aquila",
            "Via San Prospero",
            "Via Fratti",
            "Via Alessi",
            "Piazza Morlacchi",
            "Via Baldo"
        ],
        "Livorno": [
            "Via Grande",
            "Via Ricasoli",
            "Corso Mazzini",
            "Via Cairoli",
            "Piazza Grande",
            "Via Roma",
            "Viale Italia",
            "Via San Marco",
            "Via Marradi",
            "Via della Madonna",
            "Scali Saffi",
            "Scali degli Olandesi",
            "Via Maggi",
            "Via San Giovanni",
            "Via Buontalenti",
            "Via Fiume",
            "Via Micheli",
            "Via Meyer",
            "Piazza Cavour",
            "Via Cogorano",
            "Via Magenta",
            "Via Garibaldi",
            "Via dell'Origine",
            "Via dei Bottini dell'Olio",
            "Scali del Pontino",
            "Via Verdi",
            "Via Borra",
            "Via Goldoni",
            "Piazza della Vittoria",
            "Via Ernesto Rossi"
        ],
        "Ravenna": [
            "Via di Roma",
            "Via Cavour",
            "Via Cairoli",
            "Corso Garibaldi",
            "Via IV Novembre",
            "Piazza del Popolo",
            "Via Mazzini",
            "Via Corrado Ricci",
            "Via Gordini",
            "Via Salara",
            "Via Rasponi",
            "Via Diaz",
            "Via Argentario",
            "Via San Vitale",
            "Via Galla Placidia",
            "Via Paolo Costa",
            "Via Alberoni",
            "Via Guerrini",
            "Via Rialto",
            "Via Guaccimanni",
            "Via Baccarini",
            "Via Ponte Marino",
            "Via Mura di Porta Serrata",
            "Piazza San Francesco",
            "Via Cerchio",
            "Via Oberdan",
            "Via Castel San Pietro",
            "Via D'Azeglio",
            "Piazza Caduti",
            "Via Venezia"
        ],
        "Cagliari": [
            "Via Roma",
            "Corso Vittorio Emanuele",
            "Via Garibaldi",
            "Via Manno",
            "Viale Bonaria",
            "Via Dante",
            "Via Sonnino",
            "Piazza Yenne",
            "Viale Diaz",
            "Via Sassari",
            "Via Barcellona",
            "Via San Benedetto",
            "Viale Trieste",
            "Via Pola",
            "Via Alghero",
            "Via Calamattia",
            "Via Paoli",
            "Via Tuveri",
            "Via Carbonia",
            "Via Is Mirrionis",
            "Via Bacaredda",
            "Via San Giovanni",
            "Via Asproni",
            "Via Mameli",
            "Via Crispi",
            "Via Ferrara",
            "Viale Buoncammino",
            "Via Ospedale",
            "Piazza San Cosimo",
            "Via La Vega"
        ],
        "Foggia": [
            "Corso Vittorio Emanuele",
            "Via Lanza",
            "Via Arpi",
            "Corso Garibaldi",
            "Piazza Cavour",
            "Via della Repubblica",
            "Via Dante",
            "Via Manzoni",
            "Via Oberdan",
            "Via XXIV Maggio",
            "Corso Roma",
            "Via Bari",
            "Via Napoli",
            "Viale Di Vittorio",
            "Via Gramsci",
            "Via Galliani",
            "Via Matteotti",
            "Piazza Giordano",
            "Via Le Maestre",
            "Via Duomo",
            "Via Campanile",
            "Via Guglielmi",
            "Via Scillitani",
            "Via Bruno",
            "Via della Croce",
            "Via Podgora",
            "Via Ciampitti",
            "Via Pistoia",
            "Piazza Federico II",
            "Via dei Tribunali"
        ],
        "Rimini": [
            "Corso d'Augusto",
            "Viale Amerigo Vespucci",
            "Viale Regina Elena",
            "Via Gambalunga",
            "Piazzale Fellini",
            "Via IV Novembre",
            "Via Garibaldi",
            "Viale Principe Amedeo",
            "Via Tempio Malatestiano",
            "Corso Giovanni XXIII",
            "Via Brighenti",
            "Via Bonsi",
            "Via Castelfidardo",
            "Viale Vespucci",
            "Via Bastioni Orientali",
            "Via Dante",
            "Piazzetta San Martino",
            "Borgo San Giuliano",
            "Via Clementini",
            "Piazza Tre Martiri",
            "Via Serpieri",
            "Via Poletti",
            "Viale Ceccarini",
            "Via Chiabrera",
            "Via Pascoli",
            "Via Destra del Porto",
            "Via Sigismondo",
            "Piazza Malatesta",
            "Via Bertola",
            "Via Sozzi"
        ],
        "Salerno": [
            "Corso Vittorio Emanuele",
            "Via Roma",
            "Via dei Mercanti",
            "Lungomare Trieste",
            "Via Duomo",
            "Via Arce",
            "Via Posidonia",
            "Piazza Amendola",
            "Via Diaz",
            "Via Velia",
            "Via San Benedetto",
            "Via Tasso",
            "Corso Garibaldi",
            "Via Lista",
            "Via Canali",
            "Via delle Botteghelle",
            "Via Porta Catena",
            "Via Mercatello",
            "Via Nizza",
            "Piazza Flavio Gioia",
            "Via San Leonardo",
            "Via Trento",
            "Via Mobilio",
            "Via Generale Clark",
            "Corso Vittorio Emanuele II",
            "Via Silvio Baratta",
            "Via Irno",
            "Via Guarna",
            "Piazza Luciani",
            "Corso Giuseppe Garibaldi"
        ],
        "Ferrara": [
            "Corso Ercole I d'Este",
            "Corso Martiri della Libertà",
            "Corso Giovecca",
            "Via San Romano",
            "Corso Porta Reno",
            "Piazza Trento Trieste",
            "Via delle Volte",
            "Via Mazzini",
            "Via Garibaldi",
            "Corso Porta Mare",
            "Via Savonarola",
            "Via Ripagrande",
            "Via Capo delle Volte",
            "Via Voltapaletto",
            "Via Contrari",
            "Via Scienze",
            "Piazza Ariostea",
            "Via Borgo dei Leoni",
            "Corso Isonzo",
            "Via Carlo Mayr",
            "Via Palestro",
            "Via Bersaglieri del Po",
            "Via Armari",
            "Via Ragno",
            "Via Terranuova",
            "Via Madama",
            "Via dei Baluardi",
            "Via Scandiana",
            "Piazza Verdi",
            "Via Piangipane"
        ],
        "Sassari": [
            "Corso Vittorio Emanuele",
            "Via Roma",
            "Piazza d'Italia",
            "Via Brigata Sassari",
            "Viale Italia",
            "Via Cavour",
            "Via Rosello",
            "Piazza Tola",
            "Via Turritana",
            "Via Carlo Alberto",
            "Via Luzzatti",
            "Largo Cavallotti",
            "Via Manno",
            "Via Canopolo",
            "Emiciclo Garibaldi",
            "Via Cagliari",
            "Via Torre Tonda",
            "Corso Margherita di Savoia",
            "Via Duca degli Abruzzi",
            "Via Rockefeller",
            "Piazza Santa Maria",
            "Via Lamarmora",
            "Via Porto Torres",
            "Via XXV Aprile",
            "Via Maddalena",
            "Via Castelsardo",
            "Via Politeama",
            "Via Luna e Sole",
            "Piazza Azuni",
            "Via Zanfarino"
        ],
        "Latina": [
            "Corso della Repubblica",
            "Via Diaz",
            "Piazza del Popolo",
            "Via Umberto I",
            "Via Emanuele Filiberto",
            "Viale XXI Aprile",
            "Via Don Morosini",
            "Via Epitaffio",
            "Via Isonzo",
            "Via Neghelli",
            "Corso Matteotti",
            "Piazza San Marco",
            "Via Volturno",
            "Via Monti Lepini",
            "Via Terracina",
            "Via dei Volsci",
            "Viale Le Corbusier",
            "Via Sezze",
            "Via Cisterna",
            "Via del Lido",
            "Via Picasso",
            "Piazza Dante",
            "Via XXIV Maggio",
            "Via Romagnoli",
            "Viale Mazzini",
            "Via Cicerone",
            "Via Dell'Agora",
            "Via Lombardia",
            "Piazza della Libertà",
            "Viale Pierluigi Nervi"
        ],
        "Giugliano in Campania": [
            "Corso Campano",
            "Via Roma",
            "Via Colonne",
            "Via San Francesco",
            "Via Ripuaria",
            "Via Aniello Palumbo",
            "Via Marchesella",
            "Piazza Matteotti",
            "Via Madonna del Pantano",
            "Via Epitaffio",
            "Piazza Gramsci",
            "Via Staffetta",
            "Via San Rocco",
            "Via Santa Maria a Cubito",
            "Via Sant'Anna",
            "Via Basile",
            "Via Pitagora",
            "Via Paribeni",
            "Via Pigna",
            "Via Domitiana",
            "Via dell'Arco",
            "Via San Marco",
            "Via Reginelle",
            "Via Cupa del Principe",
            "Via Cumana",
            "Via Gramsci",
            "Via Catone",
            "Via Licola",
            "Piazza della Repubblica",
            "Via Oasi Sacra"
        ],
        "Monza": [
            "Corso Milano",
            "Via Vittorio Emanuele",
            "Via Italia",
            "Via Lecco",
            "Piazza Trento e Trieste",
            "Via Manzoni",
            "Via Carlo Alberto",
            "Via Cavallotti",
            "Via Frisi",
            "Via Bergamo",
            "Via Pesa del Lino",
            "Via Zucchi",
            "Via Appiani",
            "Viale Cesare Battisti",
            "Via Enrico da Monza",
            "Viale Elvezia",
            "Via Ramazzotti",
            "Largo Mazzini",
            "Via Cortelonga",
            "Via Gramsci",
            "Viale Libertà",
            "Via San Gerardo",
            "Via Borgazzi",
            "Piazza Citterio",
            "Via De Amicis",
            "Via Marsala",
            "Via Prina",
            "Via Durini",
            "Piazza Garibaldi",
            "Via Mantegazza"
        ],
        "Siracusa": [
            "Corso Gelone",
            "Corso Umberto I",
            "Via Roma",
            "Via Cavour",
            "Piazza Duomo",
            "Via della Maestranza",
            "Corso Matteotti",
            "Via Minerva",
            "Via Landolina",
            "Piazza Archimede",
            "Via Capodieci",
            "Via del Crocifisso",
            "Via Picherali",
            "Via della Giudecca",
            "Via Mirabella",
            "Viale Teocrito",
            "Via Nizza",
            "Via San Sebastiano",
            "Via Ruggero Settimo",
            "Via dei Mille",
            "Via Gargallo",
            "Via Mauceri",
            "Viale Regina Margherita",
            "Via Necropoli del Fusco",
            "Via Tevere",
            "Via Vittorio Veneto",
            "Via Etnea",
            "Via Malta",
            "Piazza Pancali",
            "Via Necropoli Grotticelli"
        ],
        "Pescara": [
            "Corso Umberto",
            "Corso Vittorio Emanuele",
            "Via Roma",
            "Via Milano",
            "Via Firenze",
            "Piazza della Rinascita",
            "Via Nicola Fabrizi",
            "Viale della Riviera",
            "Via Venezia",
            "Via Marconi",
            "Piazza Italia",
            "Corso Manthoné",
            "Via delle Caserme",
            "Via Cesare Battisti",
            "Piazza Sacro Cuore",
            "Via Nazionale Adriatica Nord",
            "Via Nazionale Adriatica Sud",
            "Via Italica",
            "Lungomare Matteotti",
            "Via Regina Elena",
            "Via Chieti",
            "Via Paolucci",
            "Via Palermo",
            "Piazza Garibaldi",
            "Via Conte di Ruvo",
            "Via Castellamare",
            "Via Campobasso",
            "Piazza Unione",
            "Via D'Annunzio",
            "Via Teramo"
        ],
        "Bergamo": [
            "Via XX Settembre",
            "Via Pignolo",
            "Via San Giovanni",
            "Piazza Vecchia",
            "Via Colleoni",
            "Sentierone",
            "Via Torquato Tasso",
            "Borgo Santa Caterina",
            "Via Sant'Alessandro",
            "Via Quarenghi",
            "Via Broseta",
            "Via Angelo Mai",
            "Piazza Pontida",
            "Via Locatelli",
            "Via San Bernardino",
            "Via Masone",
            "Via Paleocapa",
            "Via Camozzi",
            "Via Borgo Palazzo",
            "Via Papa Giovanni XXIII",
            "Largo Porta Nuova",
            "Via Tiraboschi",
            "Via Zambonate",
            "Via Don Bosco",
            "Via Moroni",
            "Via Garibaldi",
            "Via San Lazzaro",
            "Piazza Mercato del Fieno",
            "Via Solata",
            "Via Bartolomeo Colleoni"
        ],
        "Forlì": [
            "Corso della Repubblica",
            "Corso Garibaldi",
            "Via delle Torri",
            "Piazza Saffi",
            "Via Maroncelli",
            "Corso Diaz",
            "Piazzale della Vittoria",
            "Via Giorgio Regnoli",
            "Via Cesare Battisti",
            "Via Flavio Biondo",
            "Via Albicini",
            "Via Oberdan",
            "Viale Bologna",
            "Via Ravegnana",
            "Via Firenze",
            "Via Oriani",
            "Viale Salinatore",
            "Via Roma",
            "Piazza Melozzo",
            "Via Angeloni",
            "Largo De Calboli",
            "Via Mazzini",
            "Via Bertini",
            "Via Dall'Aste",
            "Via Cavour",
            "Via Ravaldino",
            "Via Monte Feltro",
            "Via Melozzo",
            "Piazza Ordelaffi",
            "Via Solferino"
        ],
        "Trento": [
            "Via Belenzani",
            "Corso III Novembre",
            "Via San Pietro",
            "Via Manci",
            "Piazza Duomo",
            "Via Roma",
            "Via Calepina",
            "Via Suffragio",
            "Piazza Fiera",
            "Via Oss Mazzurana",
            "Largo Carducci",
            "Via San Marco",
            "Via Verdi",
            "Via Roggia Grande",
            "Via Torre Vanga",
            "Piazza Venezia",
            "Via Brennero",
            "Via San Martino",
            "Via Galilei",
            "Via del Simonino",
            "Via Diaz",
            "Via Santa Maria Maddalena",
            "Via Alto Adige",
            "Via Prepositura",
            "Piazza Lodron",
            "Via Segantini",
            "Via Zanella",
            "Via Madruzzo",
            "Piazza Santa Maria Maggiore",
            "Corso Buonconsiglio"
        ],
        "Vicenza": [
            "Corso Palladio",
            "Piazza dei Signori",
            "Contra' Porti",
            "Corso Fogazzaro",
            "Via Roma",
            "Viale Roma",
            "Piazzale De Gasperi",
            "Contra' Santa Corona",
            "Corso SS. Felice e Fortunato",
            "Via Giuriolo",
            "Piazza Matteotti",
            "Contra' Gazzolle",
            "Via Cesare Battisti",
            "Contra' Pedemuro San Biagio",
            "Viale Trento",
            "Piazza Castello",
            "Contra' Canove Vecchie",
            "Via Torino",
            "Contra' Pescaria",
            "Viale Milano",
            "Corso San Felice",
            "Via del Commercio",
            "Contra' Santo Stefano",
            "Via Risorgimento",
            "Viale Verona",
            "Via Cattaneo",
            "Via Cabianca",
            "Via Montagna",
            "Piazza Duomo",
            "Contra' San Gaetano da Thiene"
        ],
        "Terni": [
            "Corso Tacito",
            "Via Roma",
            "Corso del Popolo",
            "Piazza della Repubblica",
            "Viale della Stazione",
            "Via Garibaldi",
            "Piazza Europa",
            "Via Cavour",
            "Via Tre Archi",
            "Via Cesare Battisti",
            "Via XXII Settembre",
            "Via Goldoni",
            "Largo Villa Glori",
            "Viale Brin",
            "Via Narni",
            "Via Fratini",
            "Via dell'Arringo",
            "Via Mazzini",
            "Piazza Tacito",
            "Via Leone XIII",
            "Via della Bardesca",
            "Largo Frankl",
            "Via Cassian Bon",
            "Piazza Ridolfi",
            "Via Annio Floriano",
            "Via Mille",
            "Via Fabrizi",
            "Via delle Portelle",
            "Piazza Clai",
            "Via del Tribunale"
        ],
        "Bolzano": [
            "Via dei Portici",
            "Piazza Walther",
            "Via Alto Adige",
            "Corso della Libertà",
            "Via della Mostra",
            "Via Goethe",
            "Via Museo",
            "Via della Roggia",
            "Via dei Bottai",
            "Via dei Conciapelli",
            "Piazza Domenicani",
            "Via Streiter",
            "Via Leonardo da Vinci",
            "Viale Druso",
            "Via Claudia Augusta",
            "Via Rosmini",
            "Ponte Talvera",
            "Via Cassa di Risparmio",
            "Via Brennero",
            "Via Roma",
            "Via Duca d'Aosta",
            "Piazza Mazzini",
            "Viale Europa",
            "Via Vintola",
            "Piazza Erbe",
            "Via Isarco",
            "Via Palermo",
            "Piazza della Vittoria",
            "Via Weggenstein",
            "Viale Trieste"
        ],
        "Novara": [
            "Corso Cavour",
            "Via Rossini",
            "Via Fratelli Rosselli",
            "Corso Italia",
            "Piazza Martiri della Libertà",
            "Corso Risorgimento",
            "Via XXIII Marzo",
            "Via San Gaudenzio",
            "Via Biglieri",
            "Via Dominioni",
            "Via Puccini",
            "Corso Mazzini",
            "Via Canobio",
            "Via Passalacqua",
            "Corso XX Settembre",
            "Via San Francesco d'Assisi",
            "Via Greppi",
            "Largo Don Minzoni",
            "Via Monte Grappa",
            "Via Morera",
            "Via Bellini",
            "Baluardo Quintino Sella",
            "Via Magnani",
            "Via Ravizza",
            "Viale Roma",
            "Via Negroni",
            "Via Solaroli",
            "Via Tornielli",
            "Piazza Gramsci",
            "Via Praga"
        ],
        "Piacenza": [
            "Corso Garibaldi",
            "Via XX Settembre",
            "Corso Vittorio Emanuele II",
            "Piazza Cavalli",
            "Via Mazzini",
            "Via Roma",
            "Piazza Duomo",
            "Via Sant'Antonino",
            "Via Calzolai",
            "Stradone Farnese",
            "Via San Siro",
            "Via Taverna",
            "Via Campagna",
            "Via San Giovanni",
            "Via Carducci",
            "Via Scalabrini",
            "Via Verdi",
            "Via Manfredi",
            "Via Medoro",
            "Corso Europa",
            "Via Borghetto",
            "Piazzale Milano",
            "Via Emilia Parmense",
            "Via Conciliazione",
            "Via Colombo",
            "Via Legnano",
            "Via Poggiali",
            "Via Romagnosi",
            "Piazza Cittadella",
            "Via Sopramuro"
        ],
        "Ancona": [
            "Corso Garibaldi",
            "Corso Stamira",
            "Piazza Roma",
            "Via della Loggia",
            "Corso Mazzini",
            "Via XXIX Settembre",
            "Piazza Cavour",
            "Via Marconi",
            "Piazza del Plebiscito",
            "Via Gramsci",
            "Via Matteotti",
            "Via Marsala",
            "Via Pizzecolli",
            "Via San Martino",
            "Via Cialdini",
            "Piazza della Repubblica",
            "Via Astagno",
            "Corso Carlo Alberto",
            "Banchina Nazario Sauro",
            "Via Giannelli",
            "Viale della Vittoria",
            "Via Vecchini",
            "Via del Traffico",
            "Via Podesti",
            "Piazza Kennedy",
            "Via Pergolesi",
            "Via Piave",
            "Via Castelfidardo",
            "Piazza Pertini",
            "Via Brecce Bianche"
        ],
        "Andria": [
            "Corso Cavour",
            "Via Regina Margherita",
            "Via Flavio Giugno",
            "Piazza Catuma",
            "Via Trani",
            "Via Barletta",
            "Via Vespucci",
            "Via Porta Castello",
            "Via Federico II di Svevia",
            "Via Genova",
            "Via Giovanni Bovio",
            "Piazza Duomo",
            "Via Firenze",
            "Via San Martino",
            "Via Plebiscito",
            "Via De Gasperi",
            "Via Traiana",
            "Largo Grotte",
            "Via Bisceglie",
            "Corso Europa",
            "Via Luigi Longo",
            "Via Monte Pertica",
            "Via Gorizia",
            "Via Terlizzi",
            "Piazza Vittorio Emanuele II",
            "Via Castel del Monte",
            "Corso Torino",
            "Via Crema",
            "Via Boccaccio",
            "Piazza Catuma Nuova"
        ],
        "Arezzo": [
            "Corso Italia",
            "Via Guido Monaco",
            "Piazza Grande",
            "Via Cavour",
            "Via Roma",
            "Piazza San Francesco",
            "Via Cesalpino",
            "Via Bicchieraia",
            "Via Garibaldi",
            "Corso Vittorio Emanuele",
            "Via Borgunto",
            "Via Margaritone",
            "Via Petrarca",
            "Via Sassoverde",
            "Piazza Sant'Agostino",
            "Via degli Albergotti",
            "Largo Giotto",
            "Via Spinello",
            "Via Pellicceria",
            "Via Seteria",
            "Via Madonna del Prato",
            "Via Mecenate",
            "Via Fiorentina",
            "Via Vittorio Veneto",
            "Piazza Guido Monaco",
            "Via Crispi",
            "Via Pier della Francesca",
            "Via Giotto",
            "Viale Giotto",
            "Via Albergotti"
        ],
        "Udine": [
            "Via Mercatovecchio",
            "Piazza della Libertà",
            "Via Cavour",
            "Piazza San Giacomo",
            "Via Rialto",
            "Corso Vittorio Emanuele II",
            "Via Aquileia",
            "Piazza Matteotti",
            "Via Gemona",
            "Via Manin",
            "Via Poscolle",
            "Via Sarpi",
            "Via Crispi",
            "Via Grazzano",
            "Largo del Pecile",
            "Via Carducci",
            "Via Treppo",
            "Piazza Garibaldi",
            "Via Cussignacco",
            "Via del Gelso",
            "Via Castellana",
            "Via Zanon",
            "Piazzetta Marconi",
            "Via Bartolini",
            "Via Gorghi",
            "Via Stringher",
            "Via Vittorio Veneto",
            "Via Savorgnana",
            "Piazza Primo Maggio",
            "Via Deciani"
        ],
        "Cesena": [
            "Corso Garibaldi",
            "Piazza del Popolo",
            "Via Carbonari",
            "Corso Mazzini",
            "Corso Comandini",
            "Via Strinati",
            "Corso Cavour",
            "Viale Mazzoni",
            "Via Cesare Battisti",
            "Via Pescheria",
            "Via Malatesta Novello",
            "Via Aldini",
            "Via Saffi",
            "Via Cervese",
            "Via Chiaramonti",
            "Piazza della Libertà",
            "Via Montalti",
            "Via Garibaldi",
            "Piazza Amendola",
            "Via Fausto Coppi",
            "Via Dell'Amore",
            "Largo Don Giovanni Minzoni",
            "Via Savio",
            "Piazza Guidobono Cavalchini",
            "Via Zeffirino Re",
            "Via Dandini",
            "Via Veneto",
            "Piazza Bufalini",
            "Via Mulini",
            "Via Fratti"
        ],
        "Lecce": [
            "Via Vittorio Emanuele II",
            "Piazza Sant'Oronzo",
            "Piazza del Duomo",
            "Via Trinchese",
            "Via Palmieri",
            "Corso Vittorio Emanuele II",
            "Via Umberto I",
            "Via XXV Luglio",
            "Via Marco Basseo",
            "Piazzetta Santa Chiara",
            "Via Federico d'Aragona",
            "Via Paladini",
            "Via Arte della Cartapesta",
            "Via dei Perroni",
            "Via Augusto Imperatore",
            "Via Libertini",
            "Via Giuseppe Libertini",
            "Via San Lazzaro",
            "Piazza Italia",
            "Via dei Templari",
            "Via Matteotti",
            "Via Carducci",
            "Via Fazzi",
            "Viale De Pietro",
            "Via degli Ammirati",
            "Via Acaya",
            "Via Duca degli Abruzzi",
            "Piazza Castromediano",
            "Via Idomeneo",
            "Via Imbriani"
        ],
        "Pesaro": [
            "Viale della Repubblica",
            "Piazzale della Libertà",
            "Corso XI Settembre",
            "Via Rossini",
            "Via Branca",
            "Piazza del Popolo",
            "Via San Francesco",
            "Via delle Zucchette",
            "Via Mazza",
            "Viale Trieste",
            "Via Mazzolari",
            "Via Gavardini",
            "Via Cattaneo",
            "Via Passeri",
            "Via Cecchi",
            "Via Zara",
            "Viale Pola",
            "Piazzale Carducci",
            "Via Marsala",
            "Via dell'Acquedotto",
            "Viale Marconi",
            "Via Baldassini",
            "Piazzale Matteotti",
            "Via Almerici",
            "Via Garibaldi",
            "Via Petarca",
            "Via Mazzini",
            "Via Castelfidardo",
            "Piazza Lazzarini",
            "Via Brancati"
        ],
        "Barletta": [
            "Corso Vittorio Emanuele",
            "Corso Garibaldi",
            "Via Duomo",
            "Piazza Caduti",
            "Via Manfredi",
            "Via Sant'Andrea",
            "Via Cialdini",
            "Via Madonna della Croce",
            "Via dei Templari",
            "Via San Giorgio",
            "Via Mura del Carmine",
            "Piazza Marina",
            "Via De Nittis",
            "Via Roma",
            "Via Mura San Cataldo",
            "Lungomare Pietro Mennea",
            "Via Imbriani",
            "Via Cavour",
            "Via Baccarini",
            "Via Ettore Fieramosca",
            "Via Consalvo",
            "Via Gionchetto",
            "Via Fraggianni",
            "Via De Gemmis",
            "Via Nazareth",
            "Via Zanardelli",
            "Via Mura del Cambio",
            "Corso Vittorio Veneto",
            "Via San Nicola",
            "Via Lattanzio"
        ],
        "Alessandria": [
            "Via Dante",
            "Corso Roma",
            "Piazza della Libertà",
            "Via San Giacomo della Vittoria",
            "Corso Crimea",
            "Via Milano",
            "Corso Cento Cannoni",
            "Via Plana",
            "Piazza Garibaldi",
            "Via Cavour",
            "Via Migliara",
            "Via Marengo",
            "Via San Lorenzo",
            "Via Ghilini",
            "Via Bergamo",
            "Viale Milite Ignoto",
            "Via Guasco",
            "Spalto Gamondio",
            "Via Guasco",
            "Corso Borsalino",
            "Piazza Marconi",
            "Via Pontida",
            "Via Casale",
            "Piazza Santa Maria di Castello",
            "Via Trotti",
            "Via Verdi",
            "Via Mazzini",
            "Piazza Turati",
            "Viale Teresa Michel",
            "Corso Felice Cavallotti"
        ],
        "La Spezia": [
            "Corso Cavour",
            "Via Chiodo",
            "Via del Prione",
            "Piazza Verdi",
            "Via XX Settembre",
            "Viale Garibaldi",
            "Via Paleocapa",
            "Viale Italia",
            "Piazza Beverini",
            "Via Sapri",
            "Via Mazzini",
            "Piazza Saint Bon",
            "Via Fiume",
            "Viale San Bartolomeo",
            "Via dei Colli",
            "Via XXIV Maggio",
            "Piazza Europa",
            "Passeggiata Morin",
            "Via Fontevivo",
            "Via Fieschi",
            "Via Persio Flacco",
            "Via Biassa",
            "Corso Nazionale",
            "Piazza Brin",
            "Via Colombo",
            "Via Corridoni",
            "Via Crispi",
            "Piazza Reverdito",
            "Via Fratelli Rosselli",
            "Via Lunigiana"
        ],
        "Pisa": [
            "Corso Italia",
            "Lungarno Mediceo",
            "Lungarno Pacinotti",
            "Piazza dei Miracoli",
            "Via Santa Maria",
            "Borgo Stretto",
            "Via Oberdan",
            "Lungarno Gambacorti",
            "Via San Francesco",
            "Via Curtatone e Montanara",
            "Via Carducci",
            "Via Mazzini",
            "Piazza Garibaldi",
            "Via Crispi",
            "Via Palestro",
            "Ponte di Mezzo",
            "Via XXIV Maggio",
            "Via Roma",
            "Via San Martino",
            "Via Carlo Cattaneo",
            "Via Nicola Pisano",
            "Piazza Vittorio Emanuele II",
            "Via Bonanno Pisano",
            "Via San Zeno",
            "Lungarno Simonelli",
            "Via Solferino",
            "Via Fibonacci",
            "Piazza dei Cavalieri",
            "Via Ulisse Dini",
            "Via Don Bosco"
        ],
        "Catanzaro": [
            "Corso Mazzini",
            "Piazza Matteotti",
            "Via XX Settembre",
            "Viale de Filippis",
            "Via Spasari",
            "Corso Vittorio Emanuele",
            "Via Jannoni",
            "Via Milano",
            "Via Indipendenza",
            "Via dei Normanni",
            "Piazza Prefettura",
            "Via Carlo V",
            "Salita del Rosario",
            "Via Discesa Poerio",
            "Piazza Roma",
            "Via Plebiscito",
            "Via Turco",
            "Largo Catanzaro Centro",
            "Via Acri",
            "Via San Nicola",
            "Via Pugliese",
            "Via Grotticelle",
            "Discesa Gradoni",
            "Via Santa Maria del Mezzogiorno",
            "Via Bellavista",
            "Via De Seta",
            "Via Caserma",
            "Piazza Garibaldi",
            "Via dell'Osservanza",
            "Viale De Filippis"
        ],
        "Lucca": [
            "Via Fillungo",
            "Piazza Anfiteatro",
            "Via Santa Croce",
            "Piazza San Michele",
            "Via Roma",
            "Via Vittorio Veneto",
            "Piazza Napoleone",
            "Via Cenami",
            "Via del Battistero",
            "Via San Paolino",
            "Via Beccheria",
            "Via Burlamacchi",
            "Via del Fosso",
            "Via Elisa",
            "Via Santa Lucia",
            "Via Galli Tassi",
            "Piazza San Martino",
            "Via della Rosa",
            "Via dei Bacchettoni",
            "Via della Quarquonia",
            "Via del Moro",
            "Via dell'Anfiteatro",
            "Via Mordini",
            "Via San Frediano",
            "Piazza San Frediano",
            "Via Veneto",
            "Via Vittorio Emanuele",
            "Piazza del Giglio",
            "Via della Fratta",
            "Via Guinigi"
        ],
        "Torre del Greco": [
            "Corso Vittorio Emanuele",
            "Via Roma",
            "Via Nazionale",
            "Via Piscopia",
            "Via Circumvallazione",
            "Via Litoranea",
            "Piazza Santa Croce",
            "Via Salvator Noto",
            "Via Cavallo",
            "Via Fontana",
            "Via Calastro",
            "Via Purgatorio",
            "Via San Vito",
            "Via Cesare Battisti",
            "Via XX Settembre",
            "Via delle Ginestre",
            "Via Cappuccini",
            "Via Panoramica",
            "Via Cimaglia",
            "Corso Avezzana",
            "Via Mortelle",
            "Via Scappi",
            "Via Gradoni",
            "Via dei Gerani",
            "Piazza Luigi Palomba",
            "Via Cupa Mennella",
            "Via Alcide De Gasperi",
            "Via Falanga",
            "Piazza Amendola",
            "Via Sedivola"
        ],
        "Como": [
            "Via Vittorio Emanuele II",
            "Piazza Duomo",
            "Via Plinio",
            "Via Boldoni",
            "Via Milano",
            "Piazza Cavour",
            "Via Cesare Cantù",
            "Via Luini",
            "Viale Lecco",
            "Via Garibaldi",
            "Via Rubini",
            "Lungo Lario Trento",
            "Via Giovio",
            "Piazza Grimoldi",
            "Via Muralto",
            "Via Diaz",
            "Piazza San Fedele",
            "Via Odescalchi",
            "Viale Rosselli",
            "Via Tommaso Grossi",
            "Via Albertolli",
            "Via Volta",
            "Via Natta",
            "Piazza Volta",
            "Via Indipendenza",
            "Viale Varese",
            "Via Borsieri",
            "Via Anzani",
            "Via Parini",
            "Piazza Medaglie d'Oro"
        ],
        "Potenza": [
            "Corso Garibaldi",
            "Via Pretoria",
            "Piazza Matteotti",
            "Via del Popolo",
            "Viale Dante",
            "Corso XVIII Agosto",
            "Viale dell'Unicef",
            "Via Rosica",
            "Via Mazzini",
            "Piazza Pagano",
            "Via Vaccaro",
            "Via Angilla Vecchia",
            "Via Appia",
            "Via Unità d'Italia",
            "Via Raffaele Ciasca",
            "Via Alianelli",
            "Via Duca degli Abruzzi",
            "Piazza Don Bosco",
            "Via Torraca",
            "Via Due Torri",
            "Corso Umberto I",
            "Via Roma",
            "Viale Marconi",
            "Piazza Mario Pagano",
            "Via Nazario Sauro",
            "Via Bonaventura",
            "Via Crispi",
            "Via Plebiscito",
            "Piazza Zara",
            "Viale Dante Alighieri"
        ],
        "Brindisi": [
            "Corso Garibaldi",
            "Corso Umberto I",
            "Corso Roma",
            "Piazza Cairoli",
            "Via San Lorenzo da Brindisi",
            "Via Cristoforo Colombo",
            "Via Regina Margherita",
            "Via Carmine",
            "Lungomare Regina Margherita",
            "Via Casimiro",
            "Via De Leo",
            "Piazza della Vittoria",
            "Via Commenda",
            "Via Bastioni Carlo V",
            "Via Montenegro",
            "Via Materdomini",
            "Via Tarantini",
            "Via San Benedetto",
            "Piazza Duomo",
            "Piazza del Popolo",
            "Via Cesare Braico",
            "Via Appia",
            "Via Osanna",
            "Via Tor Pisana",
            "Via Giudea",
            "Via Rubini",
            "Via Colonne",
            "Via Bastioni San Giacomo",
            "Via Meli",
            "Piazza Mercato"
        ],
        "Busto Arsizio": [
            "Corso Italia",
            "Via Milano",
            "Via Torino",
            "Piazza San Giovanni",
            "Via Garibaldi",
            "Via Mameli",
            "Via Volta",
            "Viale Duca d'Aosta",
            "Via Montebello",
            "Via Magenta",
            "Piazza Manzoni",
            "Via Fratelli d'Italia",
            "Via XX Settembre",
            "Via Cavallotti",
            "Via Tosi",
            "Via Fratelli Bandiera",
            "Via Carducci",
            "Via Solferino",
            "Via San Michele",
            "Via Micca",
            "Via dell'Industria",
            "Via Silvio Pellico",
            "Via Cadorna",
            "Via Foscolo",
            "Via Marchirolo",
            "Via Rossini",
            "Via Matteotti",
            "Via Bellini",
            "Via Bonsignora",
            "Piazza Vittorio Emanuele II"
        ],
        "Sesto San Giovanni": [
            "Viale Italia",
            "Via Pace",
            "Piazza Petazzi",
            "Via Carducci",
            "Viale Casiraghi",
            "Via Monza",
            "Via Cavour",
            "Via Dante",
            "Viale Matteotti",
            "Via Milano",
            "Via Risorgimento",
            "Piazza della Resistenza",
            "Via Fratelli di Dio",
            "Viale Fulvio Testi",
            "Via Rovani",
            "Via Mazzini",
            "Via Picardi",
            "Via Leopardi",
            "Via De Gasperi",
            "Piazza IV Novembre",
            "Via Gramsci",
            "Via Cesare Battisti",
            "Via XXV Aprile",
            "Via Campari",
            "Viale Gramsci",
            "Via Fogazzaro",
            "Via Torricelli",
            "Via Meucci",
            "Piazza Berlinguer",
            "Via Marzabotto"
        ],
        "Cinisello Balsamo": [
            "Viale Fulvio Testi",
            "Via Garibaldi",
            "Piazza Gramsci",
            "Via Monte Grappa",
            "Via XXV Aprile",
            "Via Cadorna",
            "Via Libertà",
            "Via Lincoln",
            "Viale Rinascita",
            "Via Dante",
            "Via Italia",
            "Piazza Costa",
            "Via Friuli",
            "Corso Europa",
            "Via Sant'Eusebio",
            "Via Cavour",
            "Via Manzoni",
            "Viale Lombardia",
            "Via Roma",
            "Via Monte Santo",
            "Viale delle Industrie",
            "Piazza Soncino",
            "Via Diaz",
            "Via San Francesco",
            "Via Cesare Battisti",
            "Via Foscolo",
            "Piazza Confalonieri",
            "Via Martinelli",
            "Via Sondrio",
            "Viale Brianza"
        ],
        "Grosseto": [
            "Corso Carducci",
            "Piazza Dante",
            "Via Ricasoli",
            "Via Manin",
            "Corso Garibaldi",
            "Piazza Baccarini",
            "Via Mazzini",
            "Via Colombo",
            "Via Gramsci",
            "Viale Monterosa",
            "Via Saffi",
            "Via Roma",
            "Via dell'Unione",
            "Via Matteotti",
            "Piazza De Maria",
            "Via Mameli",
            "Via della Pace",
            "Piazza Indipendenza",
            "Viale Caravaggio",
            "Via Ginori",
            "Via San Martino",
            "Via Aurelio Saffi",
            "Via Monte Nero",
            "Via dell'Industria",
            "Piazza del Sale",
            "Via Corsini",
            "Via Ximenes",
            "Via Vinzaglio",
            "Piazza Socci",
            "Via Senese"
        ],
        "Varese": [
            "Corso Matteotti",
            "Via Sacco",
            "Piazza Monte Grappa",
            "Via Veratti",
            "Via San Martino",
            "Piazza della Repubblica",
            "Via Cavour",
            "Via Avegno",
            "Corso Aldo Moro",
            "Via Magatti",
            "Via Morosini",
            "Via Vittorio Veneto",
            "Via Cairoli",
            "Viale Aguggiari",
            "Piazza Carducci",
            "Via Garibaldi",
            "Via Albuzzi",
            "Via Bernascone",
            "Via Milano",
            "Via Dandolo",
            "Via Marcobi",
            "Viale Belforte",
            "Via Como",
            "Via Crispi",
            "Via De Cristoforis",
            "Via Mazzini",
            "Via Volta",
            "Via Daverio",
            "Piazza Podestà",
            "Via Fratelli Bandiera"
        ],
        "Asti": [
            "Corso Dante",
            "Corso Alfieri",
            "Piazza San Secondo",
            "Via Cavour",
            "Piazza Alfieri",
            "Via Garibaldi",
            "Corso Vittorio Alfieri",
            "Via XX Settembre",
            "Via Gobetti",
            "Via Arò",
            "Via Natta",
            "Via San Martino",
            "Via Roero",
            "Via Goltieri",
            "Via Cardinal Massaia",
            "Piazza Roma",
            "Via Brofferio",
            "Via Carducci",
            "Via Milliavacca",
            "Corso alla Vittoria",
            "Via Buonarotti",
            "Via Giobert",
            "Via Cavour",
            "Via Rosmini",
            "Via Statuto",
            "Via Mazzini",
            "Via Montegrappa",
            "Via Baiardi",
            "Piazza del Palio",
            "Via Incisa"
        ],
        "Ragusa": [
            "Corso Italia",
            "Via Roma",
            "Piazza San Giovanni",
            "Via del Mercato",
            "Via Archimede",
            "Via Sant'Anna",
            "Piazza Libertà",
            "Via XXIV Maggio",
            "Via Matteotti",
            "Via Ecce Homo",
            "Corso Vittorio Veneto",
            "Viale Tenente Lena",
            "Via Carmine",
            "Piazza Pola",
            "Via Mariannina Coffa",
            "Via Salvatore Battaglia",
            "Via Duca degli Abruzzi",
            "Via San Vito",
            "Discesa Peschiera",
            "Via Francesco Ferrara",
            "Via Risorgimento",
            "Piazza Matteotti",
            "Via Giardino",
            "Via Andrea Catena",
            "Corso Mazzini",
            "Via Giardini",
            "Via Diaz",
            "Via Traspontino",
            "Piazza delle Rimembranze",
            "Corso XXV Aprile"
        ],
        "Cremona": [
            "Corso Garibaldi",
            "Corso Campi",
            "Piazza del Comune",
            "Via Solferino",
            "Via Milazzo",
            "Piazza Stradivari",
            "Via Palestro",
            "Via Verdi",
            "Via Sicardo",
            "Via Platina",
            "Corso Vittorio Emanuele II",
            "Via Gonfalonieri",
            "Piazza Marconi",
            "Via Monteverdi",
            "Piazza Roma",
            "Via XX Settembre",
            "Via Cesare Battisti",
            "Via Bissolati",
            "Via Trento e Trieste",
            "Corso Matteotti",
            "Via Manzoni",
            "Via Aselli",
            "Piazza Cadorna",
            "Via Mantova",
            "Via Giuseppina",
            "Via Baldesio",
            "Via Ponchielli",
            "Via Speciano",
            "Piazza Sant'Agata",
            "Via Ruggero Leoncavallo"
        ],
        "Cosenza": [
            "Corso Mazzini",
            "Piazza XV Marzo",
            "Via Roma",
            "Via Piave",
            "Corso Telesio",
            "Via XXIV Maggio",
            "Viale della Repubblica",
            "Piazza Bilotti",
            "Via Caloprese",
            "Via Arabia",
            "Via Alimena",
            "Via Galliano",
            "Corso Luigi Fera",
            "Via Panebianco",
            "Via Montesanto",
            "Via Misasi",
            "Piazza Europa",
            "Via Cattaneo",
            "Via Riccardo Misasi",
            "Via Duca degli Abruzzi",
            "Viale Trieste",
            "Viale Giacomo Mancini",
            "Via Popilia",
            "Via degli Stadi",
            "Corso Umberto",
            "Via Gravina",
            "Via Molinella",
            "Via dei Bruzi",
            "Piazza Campanella",
            "Viale Crati"
        ],
        "Massa": [
            "Via Dante",
            "Piazza Aranci",
            "Via Porta Fiorentina",
            "Via Beatrice",
            "Via Cavour",
            "Via Alberica",
            "Piazza Mercurio",
            "Via San Sebastiano",
            "Via Puccini",
            "Via Oberdan",
            "Via Fratelli Rosselli",
            "Piazza Garibaldi",
            "Via Verdi",
            "Via Marina di Levante",
            "Viale Roma",
            "Via Aurelia",
            "Via Gramsci",
            "Via delle Pinete",
            "Via Lungo Frigido",
            "Via Stazione",
            "Via Chiesa",
            "Via Democrazia",
            "Via Bastione",
            "Via Provinciale",
            "Via XX Settembre",
            "Via Garibaldi",
            "Via Bigini",
            "Via Guido da Massa",
            "Piazza De Gasperi",
            "Via Matteotti"
        ],
        "Carrara": [
            "Via Roma",
            "Piazza Alberica",
            "Via Santa Maria",
            "Via Loris Giorgi",
            "Via VII Luglio",
            "Viale XX Settembre",
            "Via Carriona",
            "Via Gramsci",
            "Via Don Minzoni",
            "Via Provinciale",
            "Piazza Duomo",
            "Via Verdi",
            "Viale Galilei",
            "Via Fabbricotti",
            "Via Menconi",
            "Via del Cavatore",
            "Via Aurelia",
            "Via Pelliccia",
            "Via Giovan Pietro",
            "Via Ghibellina",
            "Via Mazzini",
            "Piazza XXVII Aprile",
            "Via Rinchiosa",
            "Via Plebiscito",
            "Via della Libertà",
            "Via Luni",
            "Via Monteverde",
            "Via Covetta",
            "Piazza Cesare Battisti",
            "Via Rosselli"
        ],
        "Trapani": [
            "Corso Vittorio Emanuele",
            "Via Garibaldi",
            "Via Fardella",
            "Piazza Vittorio Emanuele",
            "Via Torrearsa",
            "Via XXX Gennaio",
            "Via Ammiraglio Staiti",
            "Via San Francesco d'Assisi",
            "Via Osorio",
            "Piazzetta Saturno",
            "Via Spalti",
            "Via Pepoli",
            "Via delle Arti",
            "Via Turretta",
            "Lungomare Dante Alighieri",
            "Via Nunzio Nasi",
            "Piazza Mercato del Pesce",
            "Via Serisso",
            "Corso Italia",
            "Piazza Jolanda",
            "Via Cuba",
            "Via Virgilio",
            "Piazza Generale Scio",
            "Via Libertà",
            "Via Regina Elena",
            "Via Giudecca",
            "Via Baron Ferrante",
            "Via Mercé",
            "Piazza del Carmine",
            "Via Calvario"
        ],
        "Viterbo": [
            "Corso Italia",
            "Via Roma",
            "Piazza del Plebiscito",
            "Via Cavour",
            "Via Garibaldi",
            "Piazza San Lorenzo",
            "Via San Lorenzo",
            "Via Saffi",
            "Via Matteotti",
            "Via Cairoli",
            "Piazza delle Erbe",
            "Via San Pellegrino",
            "Via dei Pellegrini",
            "Piazza San Carluccio",
            "Via della Verità",
            "Via Annio",
            "Piazza del Gesù",
            "Via Cardinal la Fontaine",
            "Via Ascenzi",
            "Via Santa Rosa",
            "Via Orologio Vecchio",
            "Via Faul",
            "Piazza del Teatro",
            "Via San Bonaventura",
            "Piazza della Rocca",
            "Via Garbini",
            "Via Mazzini",
            "Via della Sapienza",
            "Piazza Crispi",
            "Via del Pavone"
        ],
        "Savona": [
            "Corso Italia",
            "Via Paleocapa",
            "Piazza Mameli",
            "Via Pia",
            "Via Manzoni",
            "Corso Tardy e Benech",
            "Via Boselli",
            "Via Gramsci",
            "Piazza Sisto IV",
            "Via Astengo",
            "Via dei Vegerio",
            "Via Mistrangelo",
            "Piazza del Popolo",
            "Via Famagosta",
            "Corso Colombo",
            "Via Montenotte",
            "Via Niella",
            "Piazza Diaz",
            "Via Luigi Corsi",
            "Corso Vittorio Veneto",
            "Via Verzellino",
            "Via Guidobono",
            "Piazza Giulio II",
            "Via Don Bosco",
            "Via Torino",
            "Via Villafranca",
            "Via Scarpa",
            "Via Petrarca",
            "Piazza Brennero",
            "Corso Mazzini"
        ],
        "Crotone": [
            "Corso Vittorio Emanuele",
            "Via Roma",
            "Corso Mazzini",
            "Piazza Pitagora",
            "Via Poggioreale",
            "Via Vittoria",
            "Via XXV Aprile",
            "Via Cutro",
            "Via Libertà",
            "Via Cristoforo Colombo",
            "Via Torino",
            "Piazza della Resistenza",
            "Via Mario Nicoletta",
            "Via Regina Margherita",
            "Via Giuseppe De Luca",
            "Corso Messina",
            "Via Discesella",
            "Via Scylletion",
            "Piazza Duomo",
            "Via Nazioni Unite",
            "Via Dacca",
            "Via Saffo",
            "Via dei Lucani",
            "Via Barracco",
            "Piazza Castello",
            "Via Miscello da Ripe",
            "Via Piave",
            "Via Milano",
            "Piazza Berlinguer",
            "Via Alcmeone"
        ],
        "Caserta": [
            "Corso Trieste",
            "Via Roma",
            "Via Mazzini",
            "Piazza Dante",
            "Corso Giannone",
            "Via Gasparri",
            "Via Feudo San Martino",
            "Viale Lincoln",
            "Viale Medaglie d'Oro",
            "Via San Carlo",
            "Piazza Matteotti",
            "Viale Carlo III",
            "Via Napoli",
            "Via Ruggiero",
            "Piazza Vanvitelli",
            "Via Colombo",
            "Via Tanucci",
            "Via Caduti sul Lavoro",
            "Viale Beneduce",
            "Via XXXI Maggio",
            "Piazza Pitesti",
            "Via De Gasperi",
            "Via Gemito",
            "Via Verdi",
            "Piazza Luigi Vanvitelli",
            "Via Unità Italiana",
            "Via Acquaviva",
            "Piazza Margherita",
            "Viale delle Rose",
            "Via Vico"
        ],
        "Viareggio": [
            "Viale Carducci",
            "Passeggiata",
            "Via Regia",
            "Piazza Mazzini",
            "Via Fratti",
            "Via Manin",
            "Via Garibaldi",
            "Via Mazzini",
            "Viale Margherita",
            "Via Battisti",
            "Via Roma",
            "Piazza Shelley",
            "Via Zanardelli",
            "Via Leonardo da Vinci",
            "Via Aurelia Nord",
            "Via Cairoli",
            "Via Sant'Andrea",
            "Via Marco Polo",
            "Via Europa",
            "Via dei Tigli",
            "Viale Marconi",
            "Via Virgilio",
            "Via Cimarosa",
            "Via Salvatori",
            "Piazza d'Azeglio",
            "Via Paolina Bonaparte",
            "Via Coppino",
            "Piazza Campioni",
            "Via Pucci",
            "Via Indipendenza"
        ],
        "Matera": [
            "Via del Corso",
            "Piazza Vittorio Veneto",
            "Via Ridola",
            "Via delle Beccherie",
            "Piazza San Pietro Caveoso",
            "Via Fiorentini",
            "Via Bruno Buozzi",
            "Via Madonna delle Virtù",
            "Via Stigliani",
            "Via San Biagio",
            "Via San Francesco",
            "Piazza Pascoli",
            "Via Nazionale",
            "Via Lucana",
            "Viale Aldo Moro",
            "Via Casalnuovo",
            "Via Dante",
            "Via Annunziatella",
            "Via La Vista",
            "Via Roma",
            "Piazza Mulino Alvino",
            "Via del Riscatto",
            "Via D'Addozio",
            "Piazza Sedile",
            "Via Duomo",
            "Via Marconi",
            "Via Gramsci",
            "Via Cappelluti",
            "Piazza San Giovanni",
            "Via Giovanni XXIII"
        ]
    },
    "postcode_format": "#####",
    "address_formats": [
        "{street}, {building_number}, {postcode} {city} {state}",
        "{street}, {building_number}, {postcode} {city} ({state})",
        "{street} {building_number}, {postcode} {city}"
    ],
    "country": "Italia",
    "country_code": "IT",
    "phone_area_codes": {
        "Lazio": [
            "06"
        ],
        "Lombardia": [
            "02",
            "030",
            "031",
            "035",
            "039"
        ],
        "Campania": [
            "081",
            "089"
        ],
        "Piemonte": [
            "011",
            "015"
        ],
        "Sicilia": [
            "091",
            "095",
            "090"
        ],
        "Liguria": [
            "010",
            "019"
        ],
        "Emilia-Romagna": [
            "051",
            "059",
            "0521",
            "0522",
            "0532",
            "0541",
            "0543",
            "0544"
        ],
        "Toscana": [
            "055",
            "050",
            "0574",
            "0586",
            "0577",
            "0583"
        ],
        "Puglia": [
            "080",
            "0831",
            "0832",
            "0883",
            "099"
        ],
        "Veneto": [
            "041",
            "045",
            "049"
        ],
        "Friuli-Venezia Giulia": [
            "040",
            "0432"
        ],
        "Marche": [
            "071",
            "0721"
        ],
        "Umbria": [
            "075",
            "0744"
        ],
        "Sardegna": [
            "070",
            "079"
        ],
        "Abruzzo": [
            "085"
        ],
        "Calabria": [
            "0961",
            "0962",
            "0984",
            "0965"
        ],
        "Trentino-Alto Adige": [
            "0461",
            "0471"
        ],
        "Basilicata": [
            "0971",
            "0835"
        ]
    },
    "phone_format": "({area_code}) #### ####"
}
