{
    "locations": [
        {
            "city": "Amsterdam",
            "state": "Noord-Holland",
            "state_abbr": "NH",
            "postcode": "1012",
            "postcode_prefix": "10",
            "lat_min": 52.35,
            "lat_max": 52.4,
            "lon_min": 4.88,
            "lon_max": 4.94
        },
        {
            "city": "Rotterdam",
            "state": "Zuid-Holland",
            "state_abbr": "ZH",
            "postcode": "3011",
            "postcode_prefix": "30",
            "lat_min": 51.9,
            "lat_max": 51.95,
            "lon_min": 4.46,
            "lon_max": 4.52
        },
        {
            "city": "Den Haag",
            "state": "Zuid-Holland",
            "state_abbr": "ZH",
            "postcode": "2511",
            "postcode_prefix": "25",
            "lat_min": 52.06,
            "lat_max": 52.12,
            "lon_min": 4.28,
            "lon_max": 4.34
        },
        {
            "city": "Utrecht",
            "state": "Utrecht",
            "state_abbr": "UT",
            "postcode": "3511",
            "postcode_prefix": "35",
            "lat_min": 52.08,
            "lat_max": 52.12,
            "lon_min": 5.1,
            "lon_max": 5.16
        },
        {
            "city": "Eindhoven",
            "state": "Noord-Brabant",
            "state_abbr": "NB",
            "postcode": "5611",
            "postcode_prefix": "56",
            "lat_min": 51.43,
            "lat_max": 51.47,
            "lon_min": 5.46,
            "lon_max": 5.52
        },
        {
            "city": "Groningen",
            "state": "Groningen",
            "state_abbr": "GR",
            "postcode": "9711",
            "postcode_prefix": "97",
            "lat_min": 53.2,
            "lat_max": 53.24,
            "lon_min": 6.54,
            "lon_max": 6.6
        },
        {
            "city": "Tilburg",
            "state": "Noord-Brabant",
            "state_abbr": "NB",
            "postcode": "5038",
            "postcode_prefix": "50",
            "lat_min": 51.54,
            "lat_max": 51.58,
            "lon_min": 5.06,
            "lon_max": 5.12
        },
        {
            "city": "Almere",
            "state": "Flevoland",
            "state_abbr": "FL",
            "postcode": "1315",
            "postcode_prefix": "13",
            "lat_min": 52.36,
            "lat_max": 52.4,
            "lon_min": 5.2,
            "lon_max": 5.26
        },
        {
            "city": "Breda",
            "state": "Noord-Brabant",
            "state_abbr": "NB",
            "postcode": "4811",
            "postcode_prefix": "48",
            "lat_min": 51.58,
            "lat_max": 51.62,
            "lon_min": 4.76,
            "lon_max": 4.82
        },
        {
            "city": "Nijmegen",
            "state": "Gelderland",
            "state_abbr": "GE",
            "postcode": "6511",
            "postcode_prefix": "65",
            "lat_min": 51.82,
            "lat_max": 51.86,
            "lon_min": 5.84,
            "lon_max": 5.9
        },
        {
            "city": "Apeldoorn",
            "state": "Gelderland",
            "state_abbr": "GE",
            "postcode": "7311",
            "postcode_prefix": "73",
            "lat_min": 52.2,
            "lat_max": 52.24,
            "lon_min": 5.96,
            "lon_max": 6.02
        },
        {
            "city": "Arnhem",
            "state": "Gelderland",
            "state_abbr": "GE",
            "postcode": "6811",
            "postcode_prefix": "68",
            "lat_min": 51.98,
            "lat_max": 52.02,
            "lon_min": 5.9,
            "lon_max": 5.96
        },
        {
            "city": "Haarlem",
            "state": "Noord-Holland",
            "state_abbr": "NH",
            "postcode": "2011",
            "postcode_prefix": "20",
            "lat_min": 52.38,
            "lat_max": 52.42,
            "lon_min": 4.62,
            "lon_max": 4.68
        },
        {
            "city": "Enschede",
            "state": "Overijssel",
            "state_abbr": "OV",
            "postcode": "7511",
            "postcode_prefix": "75",
            "lat_min": 52.21,
            "lat_max": 52.25,
            "lon_min": 6.88,
            "lon_max": 6.94
        },
        {
            "city": "Haarlemmermeer",
            "state": "Noord-Holland",
            "state_abbr": "NH",
            "postcode": "2132",
            "postcode_prefix": "21",
            "lat_min": 52.28,
            "lat_max": 52.34,
            "lon_min": 4.68,
            "lon_max": 4.76
        },
        {
            "city": "Amersfoort",
            "state": "Utrecht",
            "state_abbr": "UT",
            "postcode": "3811",
            "postcode_prefix": "38",
            "lat_min": 52.14,
            "lat_max": 52.18,
            "lon_min": 5.38,
            "lon_max": 5.44
        },
        {
            "city": "Zaanstad",
            "state": "Noord-Holland",
            "state_abbr": "NH",
            "postcode": "1506",
            "postcode_prefix": "15",
            "lat_min": 52.44,
            "lat_max": 52.48,
            "lon_min": 4.8,
            "lon_max": 4.86
        },
        {
            "city": "'s-Hertogenbosch",
            "state": "Noord-Brabant",
            "state_abbr": "NB",
            "postcode": "5211",
            "postcode_prefix": "52",
            "lat_min": 51.68,
            "lat_max": 51.72,
            "lon_min": 5.3,
            "lon_max": 5.36
        },
        {
            "city": "Zwolle",
            "state": "Overijssel",
            "state_abbr": "OV",
            "postcode": "8011",
            "postcode_prefix": "80",
            "lat_min": 52.5,
            "lat_max": 52.54,
            "lon_min": 6.08,
            "lon_max": 6.14
        },
        {
            "city": "Leiden",
            "state": "Zuid-Holland",
            "state_abbr": "ZH",
            "postcode": "2311",
            "postcode_prefix": "23",
            "lat_min": 52.15,
            "lat_max": 52.18,
            "lon_min": 4.48,
            "lon_max": 4.52
        },
        {
            "city": "Maastricht",
            "state": "Limburg",
            "state_abbr": "LI",
            "postcode": "6211",
            "postcode_prefix": "62",
            "lat_min": 50.84,
            "lat_max": 50.88,
            "lon_min": 5.68,
            "lon_max": 5.72
        },
        {
            "city": "Dordrecht",
            "state": "Zuid-Holland",
            "state_abbr": "ZH",
            "postcode": "3311",
            "postcode_prefix": "33",
            "lat_min": 51.8,
            "lat_max": 51.84,
            "lon_min": 4.66,
            "lon_max": 4.7
        },
        {
            "city": "Zoetermeer",
            "state": "Zuid-Holland",
            "state_abbr": "ZH",
            "postcode": "2711",
            "postcode_prefix": "27",
            "lat_min": 52.04,
            "lat_max": 52.08,
            "lon_min": 4.48,
            "lon_max": 4.52
        },
        {
            "city": "Ede",
            "state": "Gelderland",
            "state_abbr": "GE",
            "postcode": "6711",
            "postcode_prefix": "67",
            "lat_min": 52.04,
            "lat_max": 52.08,
            "lon_min": 5.66,
            "lon_max": 5.72
        },
        {
            "city": "Westland",
            "state": "Zuid-Holland",
            "state_abbr": "ZH",
            "postcode": "2671",
            "postcode_prefix": "26",
            "lat_min": 51.98,
            "lat_max": 52.02,
            "lon_min": 4.2,
            "lon_max": 4.26
        },
        {
            "city": "Delft",
            "state": "Zuid-Holland",
            "state_abbr": "ZH",
            "postcode": "2611",
            "postcode_prefix": "26",
            "lat_min": 51.99,
            "lat_max": 52.03,
            "lon_min": 4.34,
            "lon_max": 4.38
        },
        {
            "city": "Emmen",
            "state": "Drenthe",
            "state_abbr": "DR",
            "postcode": "7811",
            "postcode_prefix": "78",
            "lat_min": 52.77,
            "lat_max": 52.81,
            "lon_min": 6.88,
            "lon_max": 6.94
        },
        {
            "city": "Venlo",
            "state": "Limburg",
            "state_abbr": "LI",
            "postcode": "5911",
            "postcode_prefix": "59",
            "lat_min": 51.36,
            "lat_max": 51.4,
            "lon_min": 6.16,
            "lon_max": 6.2
        },
        {
            "city": "Deventer",
            "state": "Overijssel",
            "state_abbr": "OV",
            "postcode": "7411",
            "postcode_prefix": "74",
            "lat_min": 52.24,
            "lat_max": 52.28,
            "lon_min": 6.16,
            "lon_max": 6.2
        },
        {
            "city": "Leeuwarden",
            "state": "Friesland",
            "state_abbr": "FR",
            "postcode": "8911",
            "postcode_prefix": "89",
            "lat_min": 53.19,
            "lat_max": 53.23,
            "lon_min": 5.78,
            "lon_max": 5.82
        },
        {
            "city": "Alkmaar",
            "state": "Noord-Holland",
            "state_abbr": "NH",
            "postcode": "1811",
            "postcode_prefix": "18",
            "lat_min": 52.62,
            "lat_max": 52.66,
            "lon_min": 4.74,
            "lon_max": 4.78
        },
        {
            "city": "Hilversum",
            "state": "Noord-Holland",
            "state_abbr": "NH",
            "postcode": "1211",
            "postcode_prefix": "12",
            "lat_min": 52.22,
            "lat_max": 52.26,
            "lon_min": 5.16,
            "lon_max": 5.2
        },
        {
            "city": "Hengelo",
            "state": "Overijssel",
            "state_abbr": "OV",
            "postcode": "7551",
            "postcode_prefix": "75",
            "lat_min": 52.26,
            "lat_max": 52.3,
            "lon_min": 6.78,
            "lon_max": 6.82
        },
        {
            "city": "Oss",
            "state": "Noord-Brabant",
            "state_abbr": "NB",
            "postcode": "5341",
            "postcode_prefix": "53",
            "lat_min": 51.76,
            "lat_max": 51.8,
            "lon_min": 5.52,
            "lon_max": 5.56
        },
        {
            "city": "Sittard-Geleen",
            "state": "Limburg",
            "state_abbr": "LI",
            "postcode": "6131",
            "postcode_prefix": "61",
            "lat_min": 50.99,
            "lat_max": 51.03,
            "lon_min": 5.86,
            "lon_max": 5.9
        },
        {
            "city": "Amstelveen",
            "state": "Noord-Holland",
            "state_abbr": "NH",
            "postcode": "1181",
            "postcode_prefix": "11",
            "lat_min": 52.3,
            "lat_max": 52.34,
            "lon_min": 4.84,
            "lon_max": 4.88
        },
        {
            "city": "Roosendaal",
            "state": "Noord-Brabant",
            "state_abbr": "NB",
            "postcode": "4701",
            "postcode_prefix": "47",
            "lat_min": 51.52,
            "lat_max": 51.56,
            "lon_min": 4.44,
            "lon_max": 4.48
        },
        {
            "city": "Purmerend",
            "state": "Noord-Holland",
            "state_abbr": "NH",
            "postcode": "1441",
            "postcode_prefix": "14",
            "lat_min": 52.5,
            "lat_max": 52.54,
            "lon_min": 4.94,
            "lon_max": 4.98
        },
        {
            "city": "Helmond",
            "state": "Noord-Brabant",
            "state_abbr": "NB",
            "postcode": "5701",
            "postcode_prefix": "57",
            "lat_min": 51.46,
            "lat_max": 51.5,
            "lon_min": 5.66,
            "lon_max": 5.7
        },
        {
            "city": "Schiedam",
            "state": "Zuid-Holland",
            "state_abbr": "ZH",
            "postcode": "3111",
            "postcode_prefix": "31",
            "lat_min": 51.91,
            "lat_max": 51.95,
            "lon_min": 4.38,
            "lon_max": 4.42
        },
        {
            "city": "Lelystad",
            "state": "Flevoland",
            "state_abbr": "FL",
            "postcode": "8232",
            "postcode_prefix": "82",
            "lat_min": 52.5,
            "lat_max": 52.54,
            "lon_min": 5.46,
            "lon_max": 5.52
        },
        {
            "city": "Gouda",
            "state": "Zuid-Holland",
            "state_abbr": "ZH",
            "postcode": "2801",
            "postcode_prefix": "28",
            "lat_min": 52.01,
            "lat_max": 52.05,
            "lon_min": 4.7,
            "lon_max": 4.74
        },
        {
            "city": "Hoorn",
            "state": "Noord-Holland",
            "state_abbr": "NH",
            "postcode": "1621",
            "postcode_prefix": "16",
            "lat_min": 52.64,
            "lat_max": 52.68,
            "lon_min": 5.06,
            "lon_max": 5.1
        },
        {
            "city": "Vlaardingen",
            "state": "Zuid-Holland",
            "state_abbr": "ZH",
            "postcode": "3131",
            "postcode_prefix": "31",
            "lat_min": 51.9,
            "lat_max": 51.94,
            "lon_min": 4.34,
            "lon_max": 4.38
        },
        {
            "city": "Almelo",
            "state": "Overijssel",
            "state_abbr": "OV",
            "postcode": "7607",
            "postcode_prefix": "76",
            "lat_min": 52.34,
            "lat_max": 52.38,
            "lon_min": 6.66,
            "lon_max": 6.7
        },
        {
            "city": "Bergen op Zoom",
            "state": "Noord-Brabant",
            "state_abbr": "NB",
            "postcode": "4611",
            "postcode_prefix": "46",
            "lat_min": 51.48,
            "lat_max": 51.52,
            "lon_min": 4.28,
            "lon_max": 4.32
        },
        {
            "city": "Spijkenisse",
            "state": "Zuid-Holland",
            "state_abbr": "ZH",
            "postcode": "3201",
            "postcode_prefix": "32",
            "lat_min": 51.84,
            "lat_max": 51.88,
            "lon_min": 4.32,
            "lon_max": 4.36
        },
        {
            "city": "Veenendaal",
            "state": "Utrecht",
            "state_abbr": "UT",
            "postcode": "3901",
            "postcode_prefix": "39",
            "lat_min": 52.02,
            "lat_max": 52.06,
            "lon_min": 5.54,
            "lon_max": 5.58
        },
        {
            "city": "Capelle aan den IJssel",
            "state": "Zuid-Holland",
            "state_abbr": "ZH",
            "postcode": "2901",
            "postcode_prefix": "29",
            "lat_min": 51.92,
            "lat_max": 51.96,
            "lon_min": 4.56,
            "lon_max": 4.6
        },
        {
            "city": "Nieuwegein",
            "state": "Utrecht",
            "state_abbr": "UT",
            "postcode": "3431",
            "postcode_prefix": "34",
            "lat_min": 52.03,
            "lat_max": 52.07,
            "lon_min": 5.08,
            "lon_max": 5.12
        },
        {
            "city": "Heerlen",
            "state": "Limburg",
            "state_abbr": "LI",
            "postcode": "6411",
            "postcode_prefix": "64",
            "lat_min": 50.88,
            "lat_max": 50.92,
            "lon_min": 5.96,
            "lon_max": 6.0
        },
        {
            "city": "Zeist",
            "state": "Utrecht",
            "state_abbr": "UT",
            "postcode": "3701",
            "postcode_prefix": "37",
            "lat_min": 52.08,
            "lat_max": 52.12,
            "lon_min": 5.22,
            "lon_max": 5.26
        },
        {
            "city": "Assen",
            "state": "Drenthe",
            "state_abbr": "DR",
            "postcode": "9401",
            "postcode_prefix": "94",
            "lat_min": 52.99,
            "lat_max": 53.03,
            "lon_min": 6.54,
            "lon_max": 6.58
        },
        {
            "city": "Den Helder",
            "state": "Noord-Holland",
            "state_abbr": "NH",
            "postcode": "1781",
            "postcode_prefix": "17",
            "lat_min": 52.94,
            "lat_max": 52.98,
            "lon_min": 4.76,
            "lon_max": 4.8
        },
        {
            "city": "Roermond",
            "state": "Limburg",
            "state_abbr": "LI",
            "postcode": "6041",
            "postcode_prefix": "60",
            "lat_min": 51.19,
            "lat_max": 51.23,
            "lon_min": 5.98,
            "lon_max": 6.02
        },
        {
            "city": "Kampen",
            "state": "Overijssel",
            "state_abbr": "OV",
            "postcode": "8261",
            "postcode_prefix": "82",
            "lat_min": 52.55,
            "lat_max": 52.59,
            "lon_min": 5.9,
            "lon_max": 5.94
        },
        {
            "city": "Doetinchem",
            "state": "Gelderland",
            "state_abbr": "GE",
            "postcode": "7001",
            "postcode_prefix": "70",
            "lat_min": 51.96,
            "lat_max": 52.0,
            "lon_min": 6.28,
            "lon_max": 6.32
        },
        {
            "city": "Middelburg",
            "state": "Zeeland",
            "state_abbr": "ZE",
            "postcode": "4331",
            "postcode_prefix": "43",
            "lat_min": 51.49,
            "lat_max": 51.53,
            "lon_min": 3.61,
            "lon_max": 3.65
        },
        {
            "city": "Harderwijk",
            "state": "Gelderland",
            "state_abbr": "GE",
            "postcode": "3841",
            "postcode_prefix": "38",
            "lat_min": 52.34,
            "lat_max": 52.38,
            "lon_min": 5.62,
            "lon_max": 5.66
        },
        {
            "city": "Goes",
            "state": "Zeeland",
            "state_abbr": "ZE",
            "postcode": "4461",
            "postcode_prefix": "44",
            "lat_min": 51.5,
            "lat_max": 51.54,
            "lon_min": 3.88,
            "lon_max": 3.92
        },
        {
            "city": "Vlissingen",
            "state": "Zeeland",
            "state_abbr": "ZE",
            "postcode": "4381",
            "postcode_prefix": "43",
            "lat_min": 51.44,
            "lat_max": 51.48,
            "lon_min": 3.56,
            "lon_max": 3.6
        },
        {
            "city": "Terneuzen",
            "state": "Zeeland",
            "state_abbr": "ZE",
            "postcode": "4531",
            "postcode_prefix": "45",
            "lat_min": 51.33,
            "lat_max": 51.37,
            "lon_min": 3.82,
            "lon_max": 3.86
        }
    ],
    "streets_by_city": {
        "Amsterdam": [
            "Damrak",
            "Rokin",
            "Kalverstraat",
            "Nieuwendijk",
            "Leidsestraat",
            "Herengracht",
            "Keizersgracht",
            "Prinsengracht",
            "Singel",
            "Bloemgracht",
            "Vijzelstraat",
            "Utrechtsestraat",
            "Ferdinand Bolstraat",
            "Westerstraat",
            "Haarlemmerdijk",
            "Haarlemmerstraat",
            "Raadhuisstraat",
            "Spuistraat",
            "Reguliersbreestraat",
            "Rembrandtplein",
            "Leidseplein",
            "Overtoom",
            "Jan Pieter Heijestraat",
            "Kinkerstraat",
            "De Clerqstraat",
            "Nassaukade",
            "Marnixstraat",
            "Elandsgracht",
            "Rozengracht",
            "Brouwersgracht",
            "Amstelstraat",
            "Plantage Middenlaan",
            "Linnaeusstraat",
            "Javastraat",
            "Dapperstraat",
            "Czaar Peterstraat",
            "Piet Heinkade",
            "Weesperstraat",
            "Sarphatistraat",
            "Ceintuurbaan"
        ],
        "Rotterdam": [
            "Coolsingel",
            "Lijnbaan",
            "Meent",
            "Hoogstraat",
            "Binnenrotte",
            "Witte de Withstraat",
            "Karel Doormanstraat",
            "Mauritsweg",
            "Schiedamsedijk",
            "Nieuwe Binnenweg",
            "Kruiskade",
            "Westblaak",
            "Boompjes",
            "Blaak",
            "Pannekoekstraat",
            "Mariniersweg",
            "Gouvernestraat",
            "Eendrachtsweg",
            "Witte Avenuen",
            "Claes de Vrieselaan",
            "Mathenesserlaan",
            "Heemraadssingel",
            "Schiedamsesingel",
            "Proveniersstraat",
            "Bergweg",
            "Noordsingel",
            "Overschiesestraat",
            "Bentincklaan",
            "Gordelweg",
            "Straatweg",
            "Zwart Janstraat",
            "Erasmusstraat",
            "Maashaven",
            "Hillelaan",
            "Goudsesingel",
            "Kipstraat",
            "Grotemarkt",
            "Aert van Nesstraat",
            "Boezemstraat",
            "Hofdijk"
        ],
        "Den Haag": [
            "Grote Marktstraat",
            "Spuistraat",
            "Noordeinde",
            "Lange Poten",
            "Plein",
            "Binnenhof",
            "Hofweg",
            "Korte Poten",
            "Lange Voorhout",
            "Kneuterdijk",
            "Scheveningseweg",
            "Parkstraat",
            "Prinsestraat",
            "Molenstraat",
            "Frederikstraat",
            "Javastraat",
            "Laan van Meerdervoort",
            "Reinkenstraat",
            "Thomsonlaan",
            "Fahrenheitstraat",
            "Weimarstraat",
            "Loosduinseweg",
            "Hobbemastraat",
            "Willem de Zwijgerlaan",
            "Benoordenhoutseweg",
            "Wassenaarseweg",
            "Torenstraat",
            "Dagelijkse Groenmarkt",
            "Venestraat",
            "Papestraat",
            "Wagenstraat",
            "Herengracht",
            "Prinsegracht",
            "Bierkade",
            "Riviervismarkt",
            "Vleerstraat",
            "Groenewegje",
            "Laakhaven",
            "Loosduinsekade",
            "Brouwersgracht"
        ],
        "Utrecht": [
            "Oudegracht",
            "Neude",
            "Vredenburg",
            "Lange Viestraat",
            "Steenweg",
            "Domplein",
            "Domstraat",
            "Vismarkt",
            "Stadhuisbrug",
            "Bakkerstraat",
            "Twijnstraat",
            "Nobelstraat",
            "Voorstraat",
            "Lijnmarkt",
            "Choorstraat",
            "Servetstraat",
            "Wittevrouwenstraat",
            "Biltstraat",
            "Nachtegaalstraat",
            "Catharijnesingel",
            "Kanaalstraat",
            "Amsterdamsestraatweg",
            "Croeselaan",
            "Europalaan",
            "Jaarbeursplein",
            "Westplein",
            "Lucasbolwerk",
            "Zadelstraat",
            "Minrebroederstraat",
            "Springweg",
            "Hamburgerstraat",
            "Mariaplaats",
            "Trans",
            "Nieuwegracht",
            "Maliestraat",
            "Willem van Noortstraat",
            "Adriaen van Ostadelaan",
            "Vondellaan",
            "Museumlaan",
            "Agnietenstraat"
        ],
        "Eindhoven": [
            "Rechtestraat",
            "Demer",
            "Markt",
            "Stratumseind",
            "Vrijstraat",
            "Kleine Berg",
            "Dommelstraat",
            "Willemstraat",
            "Emmasingel",
            "Vestdijk",
            "Keizersgracht",
            "Hoogstraat",
            "Jan van Lieshoutstraat",
            "Kruisstraat",
            "Wal",
            "Ten Hagestraat",
            "Nieuwstraat",
            "Hertogstraat",
            "Mathildelaan",
            "Stationsplein",
            "Boschdijk",
            "Aalsterweg",
            "Tongelresestraat",
            "Leenderweg",
            "Woenselsestraat",
            "Woenselse Markt",
            "Gestelsestraat",
            "Beukenlaan",
            "Boutenslaan",
            "Bilderdijklaan",
            "Stratumsedijk",
            "Strijpsestraat",
            "Glaslaan",
            "Heuvel Galerie",
            "Hermanus Boexstraat",
            "Geldropseweg",
            "Noord Brabantlaan",
            "Kastelenplein",
            "Frederiklaan",
            "Parklaan"
        ],
        "Groningen": [
            "Grote Markt",
            "Vismarkt",
            "Herestraat",
            "Oosterstraat",
            "Gelkingestraat",
            "Folkingestraat",
            "Zwanestraat",
            "Oude Ebbingestraat",
            "Nieuwe Ebbingestraat",
            "Poelestraat",
            "A-straat",
            "Korreweg",
            "Goudkantoor",
            "Rademarkt",
            "Winschoterkade",
            "Damsterdiep",
            "Zuiderdiep",
            "Akerkhof",
            "Brugstraat",
            "Turfsingel",
            "Oude Kijk in 't Jatstraat",
            "Nieuwe Kijk in 't Jatstraat",
            "Pelsterstraat",
            "Peperstraat",
            "Kijk in 't Jatstraat",
            "Ubbo Emmiusstraat",
            "Sint Jansstraat",
            "Coehoornsingel",
            "Praediniussingel",
            "Ossenmarkt",
            "Gedempte Zuiderdiep",
            "Hereweg",
            "Kraneweg",
            "Verlengde Hereweg",
            "Oosterstraat Zuid",
            "Paterswoldseweg",
            "Stationsweg",
            "Emmaplein",
            "Stadspark",
            "Boterdiep"
        ],
        "Tilburg": [
            "Heuvelstraat",
            "Korte Heuvel",
            "Oude Markt",
            "Schouwburgring",
            "Stationsstraat",
            "Pieter Vreedeplein",
            "Nieuwlandstraat",
            "Stadhuisplein",
            "Spoorlaan",
            "Willem II-straat",
            "Tuinstraat",
            "Telegraafstraat",
            "Besterdring",
            "Paleisring",
            "Gasthuisring",
            "St. Josephstraat",
            "Goirkestraat",
            "Bredaseweg",
            "Ringbaan Oost",
            "Ringbaan Zuid",
            "Ringbaan West",
            "Ringbaan Noord",
            "Koestraat",
            "Magazijnstraat",
            "Capucijnenstraat",
            "Lange Nieuwstraat",
            "Bisschop Zwijsenstraat",
            "Fabriekstraat",
            "Smidspad",
            "Juliana van Stolbergstraat",
            "Cecilia",
            "Hart van Brabantlaan",
            "Professor Cobbenhagenlaan",
            "Waalstraat",
            "Molenstraat",
            "Kloosterstraat",
            "Korvelseweg",
            "Hasseltstraat",
            "Voltstraat",
            "Noordhoekring"
        ],
        "Almere": [
            "Stadhuispromenade",
            "Grote Markt",
            "Stadshuisstraat",
            "Landdrostdreef",
            "Randstad",
            "Spoorstraat",
            "Busplein",
            "Spoordreef",
            "Almere Haven",
            "Stadswerf",
            "Markerkant",
            "Weerwater",
            "Veluwedreef",
            "Wisselweg",
            "Middenhof",
            "Schoolstraat",
            "Amersfoortweg",
            "Regenboogbuurt",
            "Filmwijk",
            "Almere Poort",
            "Evenaar",
            "Seizoenenbuurt",
            "Noorderplassen",
            "Stripheldenbuurt",
            "Olympiaweg",
            "Kruidenwijk",
            "Muziekwijk",
            "Dancerslaan",
            "Literatuurwijk",
            "Parkwijk",
            "Informaticaweg",
            "Bouwmeesterbuurt",
            "Columbuskwartier",
            "Europakwartier",
            "Cascadeweg",
            "Beginbos",
            "Botterstraat",
            "Pampuspoort",
            "Nobelhorst",
            "Vogelhorst"
        ],
        "Breda": [
            "Grote Markt",
            "Ginnekenstraat",
            "Vismarktstraat",
            "Kasteelplein",
            "Haven",
            "Eindstraat",
            "Torenstraat",
            "Halstraat",
            "Reigerstraat",
            "Veemarktstraat",
            "Willemstraat",
            "Kerkstraat",
            "Boschstraat",
            "Baronielaan",
            "Ginnekenweg",
            "Liessent",
            "Chassésingel",
            "Nieuwe Prinsenkade",
            "Catharinastraat",
            "Haagdijk",
            "Haagweg",
            "Middellaan",
            "Fellenoord",
            "Teteringen",
            "Adriaan van Bergenstraat",
            "IJslandstraat",
            "Marksingel",
            "Nassaustraat",
            "Valkenstraat",
            "Molenstraat",
            "Vierwindenstraat",
            "Liesbosstraat",
            "Duivelsbruglaan",
            "Boeimeersingel",
            "Speelhuislaan",
            "Tramsingel",
            "Burgemeester Passtoorsstraat",
            "Concordiaplein",
            "Chasséveld",
            "Toenmalig"
        ],
        "Nijmegen": [
            "Grote Markt",
            "Burchtstraat",
            "Molenstraat",
            "Lange Hezelstraat",
            "Plein 1944",
            "Grotestraat",
            "Bloemerstraat",
            "Sint Jorisstraat",
            "Waalkade",
            "Hertogstraat",
            "Houtstraat",
            "Smetiusstraat",
            "Marikenstraat",
            "Kelfkensbos",
            "Van Schaeck Mathonsingel",
            "Nassausingel",
            "Fransestraat",
            "Oranjesingel",
            "Berg en Dalseweg",
            "Heyendaalseweg",
            "Graafseweg",
            "Groenestraat",
            "Daalseweg",
            "Altstad",
            "Augustijnenstraat",
            "Priemstraat",
            "Nonnenstraat",
            "Regulierstraat",
            "Van Berchenstraat",
            "Parkweg",
            "Muchterstraat",
            "Stikke Hezelstraat",
            "Kannenmarkt",
            "Doddendaal",
            "Tweede Walstraat",
            "Jorisstraat",
            "Broerstraat",
            "Lindenberg",
            "Hunnerpark",
            "Valkhofpark"
        ],
        "Apeldoorn": [
            "Hoofdstraat",
            "Marktplein",
            "Nieuwstraat",
            "Stationsplein",
            "Koningstraat",
            "Regentesselaan",
            "Asselsestraat",
            "Deventerstraat",
            "Brinklaan",
            "Loolaan",
            "Beekbergseweg",
            "Soerenseweg",
            "Ugchelsegrensweg",
            "Arnhemseweg",
            "Jachtlaan",
            "Bas Backerlaan",
            "Zwolseweg",
            "Vosselmanstraat",
            "Paslaan",
            "Kapelstraat",
            "Hofveld",
            "Kanaalstraat",
            "Molenstraat-Centrum",
            "Stationsstraat",
            "Raadhuisplein",
            "Kerklaan",
            "Oranjestraat",
            "Sprengenweg",
            "Wilhelminalaan",
            "Badhuisweg",
            "Amersfoortseweg",
            "Churchilllaan",
            "Laan van Kerschoten",
            "Europaweg",
            "Kennemerland",
            "Marchantstraat",
            "Industrieweg",
            "Kayersdijk",
            "Burg. Jhr. Quarles van Uffordlaan",
            "Hofstedeleij"
        ],
        "Arnhem": [
            "Vijzelstraat",
            "Koningstraat",
            "Jansplein",
            "Markt",
            "Rijnkade",
            "Willemsplein",
            "Ketelstraat",
            "Bakkerstraat",
            "Roggestraat",
            "Weverstraat",
            "Klarendalseweg",
            "Hommelseweg",
            "Steenstraat",
            "Velperplein",
            "Duizelstraat",
            "Beekstraat",
            "Nieuwe Plein",
            "Apeldoornsestraat",
            "Catharijnestraat",
            "Sonsbeeksingel",
            "Zijpendaalseweg",
            "Schelmseweg",
            "Kemperbergerweg",
            "Utrechtseweg",
            "Rosendaalseweg",
            "Velperweg",
            "Boulevard Heuvelink",
            "Bovenbeekstraat",
            "Looierstraat",
            "Nieuwstraat",
            "Broerenstraat",
            "Grote Oord",
            "Trans",
            "Eusebiusbuitensingel",
            "Eusebiusbinnensingel",
            "Jansbuitensingel",
            "Airborneplein",
            "Mandalay",
            "Velperpoort",
            "Nelson Mandelabrug"
        ],
        "Haarlem": [
            "Grote Markt",
            "Barteljorisstraat",
            "Zijlstraat",
            "Kruisweg",
            "Anegang",
            "Lange Veerstraat",
            "Koningstraat",
            "Gierstraat",
            "Kleine Houtstraat",
            "Riviervismarkt",
            "Warmoesstraat",
            "Raaks",
            "Jacobijnestraat",
            "Smedestraat",
            "Nassaulaan",
            "Dreef",
            "Wagenweg",
            "Kenaustraat",
            "Gasthuisstraat",
            "Jansstraat",
            "Grote Houtstraat",
            "Gedempte Oude Gracht",
            "Schagchelstraat",
            "Botermarkt",
            "Damstraat",
            "Klokhuisplein",
            "Teylers Museum",
            "Wilhelminastraat",
            "Kleverlaan",
            "Vondelweg",
            "Rijksstraatweg",
            "Schalkwijkerstraat",
            "Brouwerskade",
            "Leidsestraat",
            "Harmenjansweg",
            "Rustenburgerlaan",
            "Orionweg",
            "Planetenlaan",
            "Spaarndamseweg",
            "Tempeliersstraat"
        ],
        "Enschede": [
            "Oude Markt",
            "Langestraat",
            "Kalanderstraat",
            "Van Heekplein",
            "Haverstraatpassage",
            "De Graaff",
            "Korte Haaksbergerstraat",
            "Stadsgravenstraat",
            "Marktstraat",
            "Noorderhagen",
            "Boulevard 1945",
            "De Heurne",
            "Deurningerstraat",
            "Gronausestraat",
            "Hengelosestraat",
            "Wesselerbrink",
            "Parkweg",
            "Lasonderstraat",
            "Molenstraat",
            "Walstraat",
            "Beltstraat",
            "Brammelerstraat",
            "Mekkelholtsweg",
            "Boddenkampstraat",
            "Zuiderval",
            "Oliemolensingel",
            "Lipperkerkstraat",
            "Windbreker",
            "Oldenzaalsestraat",
            "Kuipersweg",
            "Pijpenstraat",
            "Achter het Hofje",
            "Roomweg",
            "Emmastraat",
            "Getfertsingel",
            "Ripperdastraat",
            "Hogelandsingel",
            "Brinkstraat",
            "Veldkamp",
            "Mozartlaan"
        ],
        "Haarlemmermeer": [
            "Hoofdweg",
            "Marktplein",
            "Kruisweg",
            "Stationsplein",
            "Rijnlanderweg",
            "Concourslaan",
            "Boslaan",
            "Nieuweweg",
            "Dennenlaan",
            "Berkenlaan",
            "Sloterweg",
            "Venneperweg",
            "IJweg",
            "Geniedijk",
            "Aalsmeerderweg",
            "Vijfhuizerweg",
            "Schipholweg",
            "Planeetbaan",
            "Jupiterstraat",
            "Marconistraat",
            "Raadhuislaan",
            "Waddenweg",
            "Parklaan",
            "Liedeweg",
            "Nieuweweg Oost",
            "Polderbaan",
            "Badhoevedorp",
            "Ringvaartdijk",
            "Lisserbroek",
            "Zwanenburgbaan",
            "Rozenlaan",
            "Tulpenweg",
            "Narcissenstraat",
            "Hyacinthenlaan",
            "Anemoonstraat",
            "Dahliaplein",
            "Fresia",
            "Gladiolenstraat",
            "Primulapad",
            "Violenweg"
        ],
        "Amersfoort": [
            "Langestraat",
            "Hof",
            "Utrechtsestraat",
            "Arnhemsestraat",
            "Varkensmarkt",
            "Groenmarkt",
            "Sint Jorisplein",
            "Westsingel",
            "Zuidsingel",
            "Kamp",
            "Hellestraat",
            "Breestraat",
            "Kroostweg",
            "Soesterweg",
            "Stadsring",
            "Leusderweg",
            "Ringweg Randenbroek",
            "Hamseweg",
            "Schimmelpenninckstraat",
            "Hooglandseweg",
            "Bunschoten",
            "Daam Fockemalaan",
            "De Koppel",
            "Vathorst",
            "Liendertseweg",
            "Bergkwartier",
            "Muurhuizen",
            "Mannekenspoort",
            "Coninckstraat",
            "Langebeekstraat",
            "Appelmarkt",
            "Havik",
            "Krankeledenstraat",
            "Kleine Koppel",
            "Piet Mondriaanplein",
            "Emiclaer",
            "Schothorst",
            "Euterpeplein",
            "Zonnehof",
            "Eemhaven"
        ],
        "Zaanstad": [
            "Westzijde",
            "Oostzijde",
            "Gedempte Gracht",
            "Stationsstraat",
            "Peperstraat",
            "Czarinastraat",
            "Dam",
            "Rustenburg",
            "Zuiddijk",
            "Noorderweg",
            "Westzaanstraat",
            "Provincialeweg",
            "Wormerveerstraat",
            "Koogerstraat",
            "Hogendijk",
            "Lagedijk",
            "Bernhardbrug",
            "Prins Bernhardweg",
            "Van der Lelystraat",
            "Kalf",
            "Haaldersbroek",
            "Bloemgracht",
            "Molenbuurt",
            "De Waai",
            "Sluis",
            "Gaasperplas",
            "J.J. Allanstraat",
            "Westkanaaldijk",
            "Zaanse Schans",
            "Julianabrug",
            "Nauticaplein",
            "Zaanweg",
            "Stationsstraat Noord",
            "Westzijderveld",
            "Kogerpolderweg",
            "Communicatieweg",
            "Sluispolderweg",
            "Brokken",
            "Assendelfterweg",
            "Wormerveld"
        ],
        "'s-Hertogenbosch": [
            "Markt",
            "Hinthamerstraat",
            "Kerkstraat",
            "Pensmarkt",
            "Verwersstraat",
            "Schapenmarkt",
            "Lepelstraat",
            "Torenstraat",
            "Visstraat",
            "Hooge Steenweg",
            "Vughterstraat",
            "Prinsenhage",
            "Stationsweg",
            "Beverwijkstraat",
            "Koningsweg",
            "Spoorlaan",
            "Maijweg",
            "Rompertcentrum",
            "Onderwijsboulevard",
            "Brabantlaan",
            "Pettelaarseweg",
            "Zuid Willemsvaart",
            "Paleiskwartier",
            "Graafseweg",
            "Aartshertogenlaan",
            "Kapucijnenstraat",
            "Clarastraat",
            "Postelstraat",
            "Korenbrugstraat",
            "Snellestraat",
            "Karrenstraat",
            "Ridderstraat",
            "Papenhulst",
            "Choorstraat",
            "Orthenstraat",
            "Hinthamerstraat Zuid",
            "Bordeslaan",
            "Muntelplein",
            "Victoriaplein",
            "Zandhazenlaan"
        ],
        "Zwolle": [
            "Grote Markt",
            "Diezerstraat",
            "Sassenstraat",
            "Melkmarkt",
            "Roggenstraat",
            "Blijmarkt",
            "Praubstraat",
            "Walstraat",
            "Thorbeckegracht",
            "Nieuwstraat",
            "Luttekestraat",
            "Voorstraat",
            "Ossenmarkt",
            "Harm Smeengekade",
            "Jufferenwal",
            "Kamperstraat",
            "Deventerstraat",
            "Bagijnesingel",
            "Emmawijk",
            "Van Roijensingel",
            "Ter Pelkwijkstraat",
            "Spoolderbergweg",
            "Stadshagen",
            "Westenholte",
            "Frankhuis",
            "Berkummerbroek",
            "Wipstrikkerallee",
            "Assendorperstraat",
            "Burg. van Roijensingel",
            "Pannekoekendijk",
            "Brinkhoek",
            "Thomas à Kempisstraat",
            "Willemskade",
            "IJsselmuidenstraat",
            "Holtenbroek",
            "Aalanden",
            "Schellerlanderweg",
            "Hanzeland",
            "Veerallee",
            "Kuyerhuislaan"
        ],
        "Leiden": [
            "Haarlemmerstraat",
            "Breestraat",
            "Korevaarstraat",
            "Rapenburg",
            "Steenstraat",
            "Nieuwe Rijn",
            "Vismarkt",
            "Aalmarkt",
            "Pieterskerkgracht",
            "Hooigracht",
            "Langegracht",
            "Doezastraat",
            "Apothekersdijk",
            "Stationsplein",
            "Lange Mare",
            "Beestenmarkt",
            "Lammermarkt",
            "Herenstraat",
            "Morsstraat",
            "Morssingel",
            "Rijnsburgerweg",
            "Lammenschansweg",
            "Witte Singel",
            "Zoeterwoudsesingel",
            "Lorentzkade",
            "Hugo de Grootstraat",
            "Rijn en Schiekade",
            "Haven",
            "Oude Rijn",
            "Herengracht",
            "Kaiserstraat",
            "Kloksteeg",
            "Donkersteeg",
            "Botermarkt",
            "Burcht",
            "Vrouwenkerksteeg",
            "Diefsteeg",
            "Beschuitsteeg",
            "Zonneveldstraat",
            "Hoge Rijndijk"
        ],
        "Maastricht": [
            "Vrijthof",
            "Markt",
            "Grote Staat",
            "Kleine Staat",
            "Stokstraat",
            "Wycker Brugstraat",
            "Rechtstraat",
            "Sint Pieterstraat",
            "Bredestraat",
            "Kesselskade",
            "Brusselsestraat",
            "Boschstraat",
            "Helmstraat",
            "Muntstraat",
            "Spilstraat",
            "Wolfstraat",
            "Maastrichter Brugstraat",
            "Platielstraat",
            "Sint Amorsplein",
            "Achter het Vleeshuis",
            "Tongerseplein",
            "Tongersestraat",
            "Capucijnenstraat",
            "Tapijnkazerne",
            "Maasboulevard",
            "Prins Bisschopsingel",
            "Statensingel",
            "Alexander Battalaan",
            "Franquinetstraat",
            "Hertogsingel",
            "Wilhelminasingel",
            "Lage Kanaaldijk",
            "Avenue Ceramique",
            "Plein 1992",
            "Hoge Barakken",
            "Batterijstraat",
            "Bourgognestraat",
            "Pontanusstraat",
            "Graanmarkt",
            "Onze Lieve Vrouweplein"
        ],
        "Dordrecht": [
            "Voorstraat",
            "Sarisgang",
            "Statenplein",
            "Bagijnhof",
            "Groenmarkt",
            "Scheffersplein",
            "Vriesestraat",
            "Johan de Wittstraat",
            "Spuiboulevard",
            "Kolfstraat",
            "Lange Breestraat",
            "Korte Engelenburgerkade",
            "Visbrug",
            "Wijnstraat",
            "Kuipershaven",
            "Nieuwstraat",
            "Vrieseplein",
            "Merwedestraat",
            "Singel",
            "Krispijnseweg",
            "Reeweg",
            "Dubbeldamseweg",
            "Laan der Verenigde Naties",
            "Wielwijk",
            "Steegoversloot",
            "Heer Heymansuysstraat",
            "Museumstraat",
            "Achterweg",
            "Nieuwe Haven",
            "Wolwevershaven",
            "Engelenburgerbrug",
            "Maartensgat",
            "Aardappelmarkt",
            "Grote Kerksbuurt",
            "Lombardstraat",
            "Bleijenhoek",
            "Elfhuizen",
            "Papeterspad",
            "Prinsenstraat",
            "Dubbelsteynlaan"
        ],
        "Zoetermeer": [
            "Dorpsstraat",
            "Markt",
            "Stadhuisplein",
            "Stadshart",
            "Promenade",
            "Spazio",
            "Louis Davidsstraat",
            "Meerzichtlaan",
            "Oranjelaan",
            "Centrum",
            "Zoetermeerse Rijweg",
            "Rokkeveenseweg",
            "Australiëweg",
            "Afrikaweg",
            "Amerikaweg",
            "Europaweg",
            "Aziëweg",
            "Antarcticalaan",
            "Buytenwegh",
            "Seghwaert",
            "Rokkeveen",
            "De Leyens",
            "Palenstein",
            "Driemanspolder",
            "Mandelabrug",
            "Voorweg",
            "Eerste Stationsstraat",
            "Tweede Stationsstraat",
            "Stationsplein",
            "Julianalaan",
            "Schenkelweg",
            "Van der Hagenstraat",
            "Burgemeester Wegstapelplein",
            "Centrum West",
            "Centrum Oost",
            "Denemarkenlaan",
            "Noorwegenlaan",
            "Zwedenlaan",
            "Finlandlaan",
            "IJslandlaan"
        ],
        "Ede": [
            "Grotestraat",
            "Markt",
            "Molenstraat",
            "Stationsweg",
            "Maandereind",
            "Parkweg",
            "Bospoort",
            "Achterdoelen",
            "Schaapsweg",
            "Bergstraat",
            "Stationsplein",
            "Veenderweg",
            "Notaris Fischerstraat",
            "Klinkenbergerweg",
            "Proosdijerveldweg",
            "Bennekomseweg",
            "Gallerij",
            "Reehorsterweg",
            "Telefoonweg",
            "Edeseweg",
            "Industrieweg",
            "Frankeneng",
            "Veldhuizen",
            "De Klomp",
            "Otterlo",
            "Lunteren",
            "Wekerom",
            "Harskamp",
            "De Ginkel",
            "Doesburgerdijk",
            "Arnhemseweg",
            "Buunderkamp",
            "Breederweg",
            "Commandeursweg",
            "Meidoornlaan",
            "Berkenlaan",
            "Eikenlaan",
            "Lindenlaan",
            "Kastanjelaan",
            "Populierenlaan"
        ],
        "Westland": [
            "Dijkweg",
            "Markt",
            "Stationsstraat",
            "Herenstraat",
            "Hoofdstraat",
            "Middel Broekweg",
            "Naaldwijkseweg",
            "Pijletuinenweg",
            "Koningin Julianaweg",
            "Verdilaan",
            "Lange Vaart",
            "Heulweg",
            "Nieuwelaan",
            "Haagweg",
            "Poeldijkseweg",
            "Maasdijkseweg",
            "Hoefblad",
            "Mariëndijk",
            "Honderdland",
            "De Lier",
            "Kwintsheul",
            "Wateringen",
            "Monster",
            "Ter Heijde",
            "Poeldijk",
            "Maasdijk",
            "Honselersdijk",
            "Rijksstraatweg",
            "Coldcase",
            "Groeneweg",
            "Casembrootlaan",
            "Monsterseweg",
            "Bosweg",
            "Tiendweg",
            "Veilingweg",
            "Aartsdijkweg",
            "Oudelandseweg",
            "Molenweg",
            "Kerkstraat",
            "Schoolstraat"
        ],
        "Delft": [
            "Markt",
            "Oude Delft",
            "Nieuwe Delft",
            "Voldersgracht",
            "Koornmarkt",
            "Brabantse Turfmarkt",
            "Hippolytusbuurt",
            "Choorstraat",
            "Beestenmarkt",
            "Wijnhaven",
            "Phoenixstraat",
            "Molslaan",
            "Binnenwatersloot",
            "Voorstraat",
            "Lange Geer",
            "Paardenmarkt",
            "Oosteinde",
            "Vlouw",
            "Doelenplein",
            "Burgwal",
            "Rietveld",
            "Delfgauwseweg",
            "Westlandseweg",
            "Ruys de Beerenbrouckstraat",
            "Nassaulaan",
            "Van Leeuwenhoeksingel",
            "Asvest",
            "Molenstraat",
            "Gasthuislaan",
            "Zuideinde",
            "Wateringsevest",
            "Buitenwatersloot",
            "Hugo de Grootstraat",
            "Campanulaplein",
            "Cornelis Jolstraat",
            "Michiel de Ruyterweg",
            "Troelstralaan",
            "Papsouwselaan",
            "Prinses Beatrixlaan",
            "Schioedam"
        ],
        "Emmen": [
            "Hoofdstraat",
            "Raadhuisplein",
            "Weerdingerstraat",
            "Wilhelminastraat",
            "Markt",
            "Noorderstraat",
            "Parc Sandur",
            "Willinkplein",
            "Dordrechtstraat",
            "Stationsstraat",
            "Boslaan",
            "Hondsrugweg",
            "Noordbargerstraat",
            "Emmerhout",
            "Angelslo",
            "Bargeres",
            "Industrieweg",
            "Werkplaatsweg",
            "Rietlanden",
            "Grote Beerstraat",
            "Columbusstraat",
            "Magnesiumstraat",
            "Wolfsbergen",
            "Ermerstrand",
            "Schietbaanweg",
            "Emmerdennen",
            "Veenpark",
            "Bargercompascuum",
            "Klazienaveen",
            "Schoonebeek",
            "Zwartemeer",
            "Nieuw-Weerdinge",
            "Alte Picardiekanaal",
            "Koerspad",
            "Vlinderbuurt",
            "Sterrenwijk",
            "De Meerdijk",
            "Schapenveenweg",
            "Eendenkooi",
            "Sportpark"
        ],
        "Venlo": [
            "Parade",
            "Markt",
            "Vleesstraat",
            "Lomstraat",
            "Klaasstraat",
            "Jodenstraat",
            "Oude Markt",
            "Keulsepoort",
            "Nolensstraat",
            "Ginkelstraat",
            "Vleesstraat Zuid",
            "Havenkade",
            "Geldersepoort",
            "Kaldenkerkerweg",
            "Puteanusstraat",
            "Sint Urbanusweg",
            "Roermondsestraat",
            "Nassaustraat",
            "Goltziusstraat",
            "Stalbergweg",
            "Laaghuissingel",
            "Hagerhofweg",
            "Helschriksel",
            "Tegelsweg",
            "Horsterweg",
            "Eindhovenseweg",
            "Nijmeegseweg",
            "Maaskade",
            "Bolwaterstraat",
            "Maasboulevard",
            "Koninginnesingel",
            "Prinsessesingel",
            "Veldenseweg",
            "Grubbenvorst",
            "Blerick",
            "Blariacumplein",
            "Antoniuslaan",
            "Klaasstraat West",
            "Musschenberg",
            "Hertog Reinoudsingel"
        ],
        "Deventer": [
            "Brink",
            "Lange Bisschopstraat",
            "Korte Bisschopstraat",
            "Stromarkt",
            "Kleine Poot",
            "Grote Poot",
            "Polstraat",
            "Walstraat",
            "Assenstraat",
            "Keizerstraat",
            "Nieuwstraat",
            "Smedenstraat",
            "Bagijnenstraat",
            "Roggestraat",
            "Golstraat",
            "Engestraat",
            "Hallerstraat",
            "Hofstraat",
            "Burseplein",
            "Kazernestraat",
            "Snipperlingsdijk",
            "Ceintuurbaan",
            "Zwolseweg",
            "Zutphenseweg",
            "Pikeursbaan",
            "Mr. de Boerlaan",
            "Margijnenenk",
            "Rivierenwijk",
            "Platvoet",
            "Borgele",
            "Keizerslanden",
            "Oranjekwartier",
            "Wechelerweg",
            "Colmschate",
            "Epse",
            "Diepenveen",
            "Hanzeweg",
            "Industrieweg",
            "Haven",
            "Rijsterborgherweg"
        ],
        "Leeuwarden": [
            "Nieuwstad",
            "Wirdumerpoortsdwarsstraat",
            "Kleine Kerkstraat",
            "Grote Hoogstraat",
            "Eewal",
            "Ruiterskwartier",
            "Voorstreek",
            "Tweebaksmarkt",
            "Wilhelminaplein",
            "Zaailand",
            "Tuinen",
            "Bagijnestraat",
            "Druifstreek",
            "Wirdumerdijk",
            "Kelders",
            "Nauwstraat",
            "Speelmansstraat",
            "Gouverneursplein",
            "Hofplein",
            "Blokhuisplein",
            "Oldegalileën",
            "Harlingertrekweg",
            "Oostergoweg",
            "Schieringerweg",
            "Europaplein",
            "Cambuurplein",
            "Leeuwarder Bos",
            "Tuinen Onder",
            "Sint Jacobsstraat",
            "Poststraat",
            "Naauw",
            "Peperstraat",
            "Koningsstraat",
            "Achter de Hoven",
            "Doelestraat",
            "Westerplantage",
            "Sophialaan",
            "Emmakade",
            "Willemskade",
            "Stationsplein"
        ],
        "Alkmaar": [
            "Langestraat",
            "Mient",
            "Houttil",
            "Gedempte Nieuwesloot",
            "Fnidsen",
            "Laat",
            "Koorstraat",
            "Doelenstraat",
            "Kanaalkade",
            "Waagplein",
            "Kooltuin",
            "Ridderstraat",
            "Schermerweg",
            "Kennemerstraatweg",
            "Nassaulaan",
            "Victoriepark",
            "Ruiterweg",
            "Geestersingel",
            "Verdronkenoord",
            "Bierkade",
            "Voordam",
            "Achterdam",
            "Lombardijen",
            "Paardenmarkt",
            "Sint Laurens",
            "Katwijkerbroek",
            "Hekelstraat",
            "Oudegracht",
            "Schotersingel",
            "Berenkoog",
            "Bergermeer",
            "Egmonderstraatweg",
            "Ritsevoort",
            "Huigbrouwerstraat",
            "Koningsweg",
            "Klararijk",
            "Sluisweg",
            "Torenplein",
            "Stationsweg",
            "Bergerweg"
        ],
        "Hilversum": [
            "Kerkstraat",
            "Groest",
            "Langestraat",
            "Naarderstraat",
            "Emmastraat",
            "Koningsstraat",
            "Schapenkamp",
            "Vaartweg",
            "Gijsbrecht van Amstelstraat",
            "Stationsplein",
            "Utrechtseweg",
            "Diependaalselaan",
            "Bussumerweg",
            "Laarderweg",
            "Soestdijkerstraatweg",
            "Mediapark",
            "Noorderweg",
            "Neuweg",
            "Arena Park",
            "Boskamp",
            "Lieven de Keylaan",
            "Minckelerstraat",
            "Hoge Naarderweg",
            "Heuvellaan",
            "Rioolweg",
            "Ceintuurbaan",
            "Albertus Perkstraat",
            "Simon Stevinweg",
            "Jacobus Pennweg",
            "Vreelandseweg",
            "Larenseweg",
            "Loosdrechtse Bos",
            "Kerkelanden",
            "Trompenberg",
            "Graaf Floris V weg",
            "Egelantierstraat",
            "Rosarium",
            "Witte Bergen",
            "Zonnestraal",
            "Johannes Geradtsweg"
        ],
        "Hengelo": [
            "Markt",
            "Enschedesestraat",
            "Brinkstraat",
            "Nieuwstraat",
            "Wemenstraat",
            "Willemstraat",
            "Stationsplein",
            "Lambertusplein",
            "Thiemsbrug",
            "Beursstraat",
            "Oldenzaalsestraat",
            "Deldenerstraat",
            "Industriestraat",
            "Tuindorpstraat",
            "Emmastraat",
            "Wolter ten Catestraat",
            "Bornsestraat",
            "Goorsestraat",
            "Twekkelerweg",
            "Waterstaatskerk",
            "Veldwijk",
            "Slangenbeek",
            "Drienerparkweg",
            "Haverkamp",
            "De Noork",
            "Bataafse Kamp",
            "Plein",
            "Pastoor Geertmanstraat",
            "Primulastraat",
            "Woolderesweg",
            "Hassinkweg",
            "Oelerweg",
            "Demerstraat",
            "Lange Wemen",
            "Beursstraat Noord",
            "Beckumerstraat",
            "Breemarsweg",
            "Lansinkesweg",
            "Weusthagweg",
            "Deldenerstraat Noord"
        ],
        "Oss": [
            "Heuvel",
            "Molenstraat",
            "Kerkstraat",
            "Spoorlaan",
            "Eikenboomgaard",
            "Walplein",
            "Raadhuisstraat",
            "Peperstraat",
            "Torenstraat",
            "Kruisstraat",
            "Raadhuislaan",
            "Berghemseweg",
            "Ussen",
            "Merode",
            "De Vlonder",
            "Maaspoort",
            "Ruwaard",
            "Oss-Zuid",
            "Berghem",
            "Geffen",
            "Ravenstein",
            "Herpen",
            "Lith",
            "Megen",
            "Macharen",
            "Vorstengrafdonk",
            "Paalgraven",
            "Nieuwe Hescheweg",
            "Dunantstraat",
            "Talmastraat",
            "Vondellaan",
            "Nassaustraat",
            "Stakenburg",
            "Schadewijk",
            "De Waai",
            "Bram van den Berghstraat",
            "Euterpeplein",
            "Wethouder van Eschstraat",
            "Gasstraat",
            "Oijenseweg"
        ],
        "Sittard-Geleen": [
            "Markt",
            "Rosmolenstraat",
            "Brandstraat",
            "Steenweg",
            "Engelenkampstraat",
            "Putstraat",
            "Parklaan",
            "Rijksweg",
            "Centrum",
            "Limbrichterstraat",
            "Stationsstraat",
            "Molenbeekstraat",
            "Tempelplein",
            "Elisabethstraat",
            "Kollenbergerweg",
            "Odasingel",
            "Burg. Knottenbeltstraat",
            "Walramstraat",
            "Bergerweg",
            "Urmonderbaan",
            "Mauritslaan",
            "Geenstraat",
            "Tudderenderweg",
            "Chemiepark",
            "Kempkensweg",
            "Sanderboutlaan",
            "Nusterweg",
            "Haspelsestraat",
            "Stationstraat",
            "Stadbroek",
            "Kissel",
            "Overhoven",
            "Thienbunder",
            "Limbrichterweg",
            "Ophoven",
            "Broeksittard",
            "Einighausen",
            "Buchten",
            "Grevenbicht",
            "Rijksweg Zuid"
        ],
        "Amstelveen": [
            "Stadsplein",
            "Buitenplein",
            "Rembrandtweg",
            "Amstelveenseweg",
            "Handelsweg",
            "Oranjebaan",
            "Groenelaan",
            "Kostverlorenweg",
            "Olmenlaan",
            "Lindenlaan",
            "Van der Hooplaan",
            "Plein 1960",
            "Meander",
            "Sportlaan",
            "Laan Nieuwer Amstel",
            "Rijkertlaan",
            "Dorpstraat",
            "Amsterdamseweg",
            "Piet Heinlaan",
            "Laan van de Helende Meesters",
            "Bankrasweg",
            "Bovenkerkerweg",
            "Nes aan de Amstel",
            "Amsteldijk Noord",
            "Legmeerdijk",
            "Ouderkerkerlaan",
            "Prof. E.M. Meijerslaan",
            "Nesserlaan",
            "Laarderhoogtweg",
            "Pieter Lastmanlaan",
            "Noorddammerlaan",
            "Langs de Akker",
            "Randwijcklaan",
            "Westwijk",
            "Waardhuizen",
            "Benderslaan",
            "Chr. Huygensstraat",
            "Zetterij",
            "Stadstuinen",
            "Bovenlanden"
        ],
        "Roosendaal": [
            "Markt",
            "Bloemenmarkt",
            "Kade",
            "Molenstraat",
            "Burgerhoutsestraat",
            "Raadhuisstraat",
            "Stationsstraat",
            "Nieuwe Markt",
            "Roselaar",
            "Vincentiusstraat",
            "Laan van Brabant",
            "Brugstraat",
            "Pastoor Witloxstraat",
            "Ettenseweg",
            "Wouwseweg",
            "Borchwerf",
            "Kroevenlaan",
            "Tolbergcentrum",
            "Raadhuisstraat Zuid",
            "Mariaplein",
            "Nispensestraat",
            "Burgemeester Prinsensingel",
            "Parklaan",
            "Bredaseweg",
            "Gastelseweg",
            "Heerma van Vossstraat",
            "De Vliet",
            "Majoppeveld",
            "Vijfhuizenberg",
            "Moerstraten",
            "Wouw",
            "Langdonk",
            "Kortendijk",
            "Sint Josephstraat",
            "Nieuwbouw",
            "Lindberg",
            "Vroonhout",
            "Kalsdonk",
            "Westrand",
            "Laan van Brabant Noord"
        ],
        "Purmerend": [
            "Koemarkt",
            "Weerwal",
            "Gedempte Where",
            "Peperstraat",
            "Koestraat",
            "Nieuwstraat",
            "Kaasmarkt",
            "Stadhuis",
            "Wherebrug",
            "Slotplein",
            "Overwhere",
            "Gors",
            "Wheermolen",
            "De Gors",
            "Broekerweg",
            "Purmerbos",
            "Weidevenne",
            "Baanstee",
            "De Purmer",
            "Kwadijkerweg",
            "Gorslaan",
            "Stationsplein",
            "Waterlandlaan",
            "Kanaalstraat",
            "Jaagweg",
            "Hoornselaan",
            "Wagenweggebied",
            "Middenweg",
            "Vaart",
            "De Koog",
            "Plantsoengracht",
            "Herengracht",
            "Venedien",
            "Oudewater",
            "Edammer Gemeenlandsweg",
            "Zuiddijk",
            "Rijksweg",
            "Tramplein",
            "Schapenmarkt",
            "Melkweg"
        ],
        "Helmond": [
            "Markt",
            "Ameidestraat",
            "Veestraat",
            "Heistraat",
            "Havenweg",
            "Steenweg",
            "Molenstraat",
            "Watermolenwal",
            "Kerkstraat",
            "Stationsplein",
            "Kasteel-Traverse",
            "Molenstraat-Centrum",
            "Mierloseweg",
            "Hoofdstraat",
            "Bindersestraat",
            "Deurneseweg",
            "Geldropseweg",
            "Lieshoutseweg",
            "Aarle-Rixtel",
            "Stiphoutseweg",
            "Brouwhuis",
            "Rijpelberg",
            "Brandevoort",
            "Suytkade",
            "Kasteelherenlaan",
            "Europaweg",
            "Scheepsvondersstraat",
            "Zuid Koninginnewal",
            "Churchilllaan",
            "Vossenbeemd",
            "Elkerliek",
            "Boscotondo",
            "De Warande",
            "Hoogeindsestraat",
            "Eikendreef",
            "Wethouder Ebbenlaan",
            "Beugelsplein",
            "Berkendonk",
            "Stiphoutsbroek",
            "Cacaofabriek"
        ],
        "Schiedam": [
            "Hoogstraat",
            "Broersvest",
            "Grote Markt",
            "Koemarkt",
            "Lange Haven",
            "Korte Haven",
            "Dam",
            "Appelmarkt",
            "Nieuwstraat",
            "Kreupelstraat",
            "Groenelaan",
            "Vlaardingerdijk",
            "Schiedamseweg",
            "Burgemeester Knappertlaan",
            "Parkweg",
            "Nieuwe Damlaan",
            "Hargaplein",
            "Stadserf",
            "Mgr. Nolenslaan",
            "Westvest",
            "Overschiesestraat",
            "Oost Frankenlandsestraat",
            "Schiedamseweg Beneden",
            "Rotterdamsedijk",
            "Burgemeester van Haarenlaan",
            "Laan van Bol'es",
            "Bachplein",
            "Groenoord",
            "Schiedamse Veste",
            "Sint Liduinastraat",
            "Gerrit Verboonstraat",
            "Fabristraat",
            "Boterstraat",
            "Vlaardingseweg",
            "Burg. Honnerlage Gretelaan",
            "Nieuwe Maasstraat",
            "Prinses Beatrixpark",
            "Maasboulevard",
            "Lorentzplein",
            "Windas"
        ],
        "Lelystad": [
            "Stadhuisplein",
            "Neringpassage",
            "Dukaatpassage",
            "Bataviaplein",
            "Promesse",
            "De Tjalk",
            "Karveel",
            "Kempenaar",
            "Agorabaan",
            "Zilverparkkade",
            "Waagpassage",
            "Voorstraat",
            "Middendreef",
            "Zuigerplasdreef",
            "Golfpark",
            "Batavialand",
            "Houtribhaven",
            "Lelycentre",
            "Flevoland",
            "Markerwaarddijk",
            "Swifterweg",
            "Oostvaardersdijk",
            "De Landerijen",
            "Warande",
            "Hollandse Hout",
            "Zuigerplasweg",
            "Binnenhavenweg",
            "Larserweg",
            "Lelykade",
            "Praamweg",
            "Schoenerweg",
            "Barkenweg",
            "Schuit",
            "Motorwal",
            "Werkeiland",
            "Lelypark",
            "Tweelingstad",
            "Stadshart",
            "Bataviahaven",
            "Kustzeilweg"
        ],
        "Gouda": [
            "Markt",
            "Kleiweg",
            "Hoogstraat",
            "Zeugstraat",
            "Lange Tiendeweg",
            "Korte Tiendeweg",
            "Achter de Kerk",
            "Naaierstraat",
            "Dubbele Buurt",
            "Nieuwe Markt",
            "Kadenbuurt",
            "Turfsingel",
            "Kattensingel",
            "Blekerssingel",
            "Fluwelensingel",
            "Joubertstraat",
            "Ridder van Catsweg",
            "Goudse Houtsingel",
            "Bodegraafsestraatweg",
            "Westerkade",
            "IJssellaan",
            "Karnemelksloot",
            "Spieringstraat",
            "Westhaven",
            "Oosthaven",
            "Agnietenstraat",
            "Peperstraat",
            "Lethmaetstraat",
            "Raam",
            "Gouwe",
            "Kattendijksluizen",
            "Groenendaal",
            "Museumhaven",
            "Bolwerk",
            "Bogen",
            "Burgvliet",
            "Poldermolen",
            "Stolwijkersluis",
            "Haastrechtse Brug",
            "Plaswijckpark"
        ],
        "Hoorn": [
            "Grote Noord",
            "Breed",
            "Nieuwstraat",
            "Kerkstraat",
            "Kleine Noord",
            "Roode Steen",
            "Nieuwland",
            "Gouw",
            "Gedempte Turfhaven",
            "Veemarkt",
            "Koepoortsweg",
            "Dampten",
            "Pakhuisplein",
            "Achterstraat",
            "Kerkplein",
            "Wisselstraat",
            "Onder de Boompjes",
            "Westerdijk",
            "Noorder Veemarkt",
            "Draafsingel",
            "Blokmergouw",
            "Grote Waal",
            "Risdam",
            "Kersenboogerd",
            "Bangert en Oosterpolder",
            "Van Dedemstraat",
            "Commandeur Ravenstraat",
            "Schellinkhouterdijk",
            "Julianapark",
            "Dampten West",
            "IJsselmeerdijk",
            "Nieuwe Noord",
            "De Huesmolen",
            "Dupont",
            "Holenweg",
            "Provincialeweg",
            "Berkhout",
            "Blokker",
            "Zwaag",
            "Maelsonstraat"
        ],
        "Vlaardingen": [
            "Hoogstraat",
            "Korte Hoogstraat",
            "Westhavenplaats",
            "Westhavenkade",
            "Markt",
            "Veerplein",
            "Vettenoordsekade",
            "Parallelweg",
            "Schiedamseweg",
            "Broekweg",
            "Liesveld",
            "Van Hogendorplaan",
            "Emmastraat",
            "Prins Hendrikstraat",
            "Floris de Vijfdelaan",
            "Burg. Pruissingel",
            "Holylaan",
            "Indische Buurt",
            "Westwijk",
            "Babberspolder",
            "Holy",
            "Vlaardinger Ambacht",
            "Kreekpad",
            "Oost Abtspolder",
            "Vijfsluizen",
            "Marathonweg",
            "Churchilllaan",
            "Van 't Hoffplein",
            "Prinses Beatrixlaan",
            "Koningin Wilhelminahaven",
            "Vaartweg",
            "Oeverkade",
            "Stadsgehoorzaal",
            "De Loper",
            "Stadskantoor",
            "Westhavenkade Oost",
            "Korte Hoogstraat Noord",
            "Hoflaan",
            "Rivierzone",
            "De Buitenplaats"
        ],
        "Almelo": [
            "Grotestraat",
            "Markt",
            "Het Baken",
            "Ootmarsumsestraat",
            "Wierdensestraat",
            "Bornerbroeksestraat",
            "Prinsenstraat",
            "Hofkampstraat",
            "Boddenstraat",
            "Haghoekplein",
            "Wierdensedwarsweg",
            "Aalderinkssingel",
            "Kolthofsingel",
            "Haven Noordzijde",
            "Erve Slotdijk",
            "Sluiskwartier",
            "Aadijk",
            "Nikkelstraat",
            "Dollardstraat",
            "Scheldestraat",
            "Maasstraat",
            "Rijnstraat",
            "Jekerstraat",
            "Plesmanweg",
            "Schelfhorst",
            "Windmolenbroek",
            "Bornsestraat",
            "Twentekanaal",
            "Wateregge",
            "Bellavistapark",
            "Sluitersveld",
            "Ossenbos",
            "Rietmanshoek",
            "Ambt Delden",
            "Noordwijkbrink",
            "Zuiderweg",
            "Gasfabriekstraat",
            "De Riet",
            "Wooldrik",
            "Haghoekplein Oost"
        ],
        "Bergen op Zoom": [
            "Grote Markt",
            "Kremerstraat",
            "Zuivelstraat",
            "Fortuinstraat",
            "Lievevrouwestraat",
            "Korenbeursplein",
            "Steenbergsestraat",
            "Wouwsestraat",
            "Antwerpsestraat",
            "Blauwehandstraat",
            "Wassenaarstraat",
            "Bolwerk",
            "Bergseplaat",
            "Lourdesplein",
            "Halsterseweg",
            "Huijbergsebaan",
            "Rooseveltlaan",
            "Rayon",
            "Noordzijde Haven",
            "Zuidzijde Haven",
            "Glacisweg",
            "De Zeeland",
            "Sint Catharinaplein",
            "De Parade",
            "Gouvernementsplein",
            "Markiezenhof",
            "Sint Josephstraat",
            "Van Dedemstraat",
            "Lindeboomstraat",
            "Moeregrebstraat",
            "De Schans",
            "Noordsingel",
            "Kijk in de Pot",
            "De Burg",
            "Korenbeursplein Oost",
            "Lepelstraat",
            "Moerstraten",
            "Heerle",
            "Halsteren",
            "Sint Maartensdijk"
        ],
        "Spijkenisse": [
            "Noordeinde",
            "Voorstraat",
            "Breekade",
            "Markt",
            "Lenteakker",
            "Kopspoor",
            "Stationsstraat",
            "Heemraadlaan",
            "Schenkelweg",
            "Stadhuispassage",
            "De Hoek",
            "Boogaard",
            "Maaswijk",
            "Groenewoud",
            "Vriesland",
            "Schenkel",
            "Halfweg",
            "Jachtlustlaan",
            "Churchilllaan",
            "Groene Kruisweg",
            "Hekelingseweg",
            "Beningersluisweg",
            "Poortersweg",
            "Beemd",
            "Drenkeling",
            "Matterhorn",
            "Heemraadlaan West",
            "Havens",
            "Spijkenisserbrug",
            "Nishoek",
            "Geervliet",
            "Heenvliet",
            "Hekelingen",
            "Simonshaven",
            "Abbenbroek",
            "Piershil",
            "Zuidland",
            "Oudenhoorn",
            "Industriegebied",
            "Botlek"
        ],
        "Veenendaal": [
            "Hoofdstraat",
            "Markt",
            "Kerkewijk",
            "Zandstraat",
            "Nieuweweg",
            "Prins Bernhardlaan",
            "Industrielaan",
            "Stationsstraat",
            "Valleistraat",
            "Patrimoniumlaan",
            "Kerkveld",
            "Dragonder",
            "Schepenbuurt",
            "Industrielaan Oost",
            "Groeneveld",
            "De Vendel",
            "Stationsgebied",
            "Franse Gat",
            "Engelenburg",
            "Overberg",
            "Renswoude",
            "Amerongen",
            "Ederveen",
            "Lunteren",
            "Rhenen",
            "Achterberg",
            "Elst",
            "Wageningen",
            "Bovenbuurt",
            "Brinkersteeg",
            "Kade",
            "Toorenveld",
            "Zandstraat Oost",
            "Beatrixpark",
            "Schrijverswijk",
            "Dichterswijk",
            "Schilderswijk",
            "Hazekamp",
            "Middelbuurt",
            "Petenbos"
        ],
        "Capelle aan den IJssel": [
            "Stadsplein",
            "Centrumpassage",
            "De Koperwiek",
            "Kerklaan",
            "Slotplein",
            "Bermweg",
            "Merellaan",
            "Akkerdreef",
            "IJsselplein",
            "Rivierweg",
            "Kanaalweg",
            "Capelseweg",
            "Groenedijk",
            "Algerastraat",
            "Monteverdistraat",
            "Aida",
            "Scherzo",
            "Couwenhoek",
            "Schollevaar",
            "Schenkel",
            "Fascinatio",
            "De Florijnen",
            "Reigerhof",
            "Duikerlaar",
            "Fuut",
            "Koperwiek",
            "Purperreiger",
            "Zilverreiger",
            "Wingerd",
            "Dakotaweg",
            "Burgemeester Van Beresteijnlaan",
            "Fluiterlaan",
            "Grutto",
            "De Bareel",
            "Stadshart",
            "Centrumpassage Oost",
            "IJssellandschap",
            "Ketensedijk",
            "Nijverheidsstraat",
            "Bermweg Oost"
        ],
        "Nieuwegein": [
            "Cityplaza",
            "Muntplein",
            "Passage",
            "Stadsplein",
            "Herenstraat",
            "Noordstedeweg",
            "Jutphasestraatweg",
            "Nedereindseweg",
            "Oudegeinlaan",
            "Graaf Florisweg",
            "Vreeswijk",
            "Jutphaas",
            "Galecop",
            "Batau",
            "Huis de Geer",
            "Stadscentrum",
            "Zuilenstein",
            "Merwestein",
            "Doorslag",
            "Fokkesteeg",
            "Wijkersloot",
            "Lekboulevard",
            "Industriekade",
            "Vleugelrad",
            "Parkhout",
            "Blokhoeve",
            "Hoogzandveld",
            "Rijnhuizen",
            "Vreeswijk Dorp",
            "Wiersdijk",
            "Koningin Julianalaan",
            "Ravellaan",
            "Chopinlaan",
            "Brahmslaan",
            "Beethovenlaan",
            "Mozartlaan",
            "Schumannlaan",
            "Strauss",
            "Wagnerplein",
            "Handellaan"
        ],
        "Heerlen": [
            "Pancratiusplein",
            "Promenade",
            "Saroleastraat",
            "Geleenstraat",
            "Wilhelminaplein",
            "Stationsstraat",
            "Bongerd",
            "Oranje Nassaustraat",
            "Akerstraat",
            "Honigmannstraat",
            "Geerstraat",
            "Kruisstraat",
            "Raadhuisplein",
            "Schinkelstraat",
            "Willemstraat",
            "Emmastraat",
            "Coriovallumstraat",
            "Meezenbroekerweg",
            "Heerlerbaan",
            "Schaesbergseweg",
            "Waubach",
            "Kerkrade",
            "Molenberg",
            "Meezenbroek",
            "Welten",
            "Hoensbroek",
            "Heerlerheide",
            "Benzenrade",
            "Caumerdal",
            "Douve Weien",
            "Geleenbeek",
            "Bekkerveld",
            "Zeswegen",
            "Tempsplein",
            "Koempelstraat",
            "Marktpassage",
            "Glaspaleis",
            "Schuureiland",
            "Maankwartier",
            "Sittarderweg"
        ],
        "Zeist": [
            "Slotlaan",
            "Markt",
            "Steynlaan",
            "Weeshuislaan",
            "Dorpsstraat",
            "Antonlaan",
            "Montaubanstraat",
            "Jagerlaan",
            "Utrechtseweg",
            "Driebergseweg",
            "Emmelaan",
            "Het Rond",
            "Bergweg",
            "Laan van Beek en Royen",
            "Schaerweijdelaan",
            "Molenweg",
            "Oranjeplein",
            "Christinalaan",
            "Nieuw Bosshardt",
            "Austerlitz",
            "Bosch en Duin",
            "Den Dolder",
            "Huis ter Heide",
            "Kerckebosch",
            "Vollenhove",
            "Couwenhoven",
            "Nijenheim",
            "Vogelwijk",
            "Het Slot",
            "Hertenlaan",
            "Berkenlaan",
            "Elzenlaan",
            "Lindenlaan",
            "Eikenlaan",
            "Rembrandtlaan",
            "Van Goghlaan",
            "Vermeerstraat",
            "Halslaan",
            "Breedstraat",
            "Kroostweg"
        ],
        "Assen": [
            "Markt",
            "Koopmansplein",
            "Gedempte Singel",
            "Mercuriusplein",
            "Kruisstraat",
            "Stationsstraat",
            "Torenlaan",
            "Rolderstraat",
            "Javastraat",
            "Hertenkamp",
            "Vaart Noordzijde",
            "Vaart Zuidzijde",
            "Brink",
            "Ceresstraat",
            "Havenkade",
            "Europaweg",
            "Beilerstraat",
            "Groningerstraat",
            "Balkenweg",
            "Overcingellaan",
            "Peelo",
            "Marsdijk",
            "Pittelo",
            "Kloosterveen",
            "Noordersingel",
            "Zuidersingel",
            "Weiersstraat",
            "De Lariks",
            "Baggelhuizen",
            "Burg. Jollesstraat",
            "Mulderij",
            "Diependal",
            "Vredeveld",
            "Schieven",
            "Loon",
            "Ubbena",
            "Zeijerveld",
            "Rhee",
            "Amelterhout",
            "Gouverneurstuin"
        ],
        "Den Helder": [
            "Julianaplein",
            "Koningstraat",
            "Spoorstraat",
            "Middenweg",
            "Keizerstraat",
            "Molenplein",
            "Beatrixstraat",
            "Sluisdijkstraat",
            "Weststraat",
            "Nieuweweg",
            "Jan Verfailleweg",
            "Marsdiepstraat",
            "Wilheminastraat",
            "Bassingracht",
            "Kruiszwin",
            "Industrieweg",
            "Doggersvaart",
            "Texelstroom",
            "Duinweg",
            "Zanddijk",
            "Huisduinen",
            "Julianadorp",
            "De Nollen",
            "Balgzand",
            "Willemsoord",
            "Marinehaven",
            "Fort Kijkduin",
            "Breewijd",
            "Boterzwin",
            "Nieuw Den Helder",
            "De Schooten",
            "Stadshart",
            "Van Galenstraat",
            "De Ruyterkade",
            "Helderse Vallei",
            "Mariëndal",
            "Vogelzand",
            "De Rivièra",
            "Zwanenbalg",
            "Tuindorp"
        ],
        "Roermond": [
            "Markt",
            "Munsterplein",
            "Neerstraat",
            "Brugstraat",
            "Kraanpoort",
            "Varkensmarkt",
            "Schuitenberg",
            "Hamstraat",
            "Steenweg",
            "Swalmerstraat",
            "Pollartstraat",
            "Kloosterwandplein",
            "Minderbroederssingel",
            "Wilhelminaplein",
            "Roerkade",
            "Kapellerlaan",
            "Maasnielderweg",
            "St. Christoffelstraat",
            "Dokter Leursstraat",
            "Godsweerdersingel",
            "Bredeweg",
            "Herkenbosscherweg",
            "Maalbroek",
            "Herten",
            "Swalmen",
            "Asselt",
            "Melick",
            "Asenray",
            "Leeuwen",
            "Kathedraalstraat",
            "Stationsplein",
            "Paredisstraat",
            "Bergstraat",
            "Buitenop",
            "Schuitenberg Oost",
            "Mariagardestraat",
            "De Weerd",
            "MCR Designer Outlet",
            "Stadsweide",
            "Oolderveste"
        ],
        "Kampen": [
            "Oudestraat",
            "Voorstraat",
            "Geerstraat",
            "Broederstraat",
            "Graafschap",
            "Nieuwe Markt",
            "Koornmarkt",
            "Vloeddijk",
            "Burgwal",
            "Cellebroedersweg",
            "Plantage",
            "IJsselkade",
            "Boven Havenstraat",
            "Beneden Havenstraat",
            "Korte Hofstraat",
            "Lange Hofstraat",
            "Engelenbergplantsoen",
            "Buitenkade",
            "Bolwerk",
            "Broederstraat Oost",
            "Brunnepe",
            "Hanzewijk",
            "Onderdijks",
            "Stadshagen",
            "De Maten",
            "'t Rak",
            "Mastenbroek",
            "IJsselmuiden Centrum",
            "Grafhorst",
            "Wilsum",
            "Kampereiland",
            "Ganzendiep",
            "Reevediep",
            "Stationsweg",
            "Industrie",
            "Haatland",
            "Spoorbaanweg",
            "Groenestraat",
            "Blauwe Handstraat",
            "Flevoweg"
        ],
        "Doetinchem": [
            "Hamburgerstraat",
            "Heezenstraat",
            "Grutstraat",
            "Waterstraat",
            "Simonsplein",
            "Terborgseweg",
            "Raadhuisstraat",
            "Markt",
            "Stationsplein",
            "Rozengaardseweg",
            "Grebbe",
            "Houtwal",
            "Loolaan",
            "IJsselkade",
            "Rugstraat",
            "Burgemeester de Bruinstraat",
            "Ds. van Dijkweg",
            "Rekhemseweg",
            "Varsseveldseweg",
            "Holthuizerstraat",
            "Dickenslaan",
            "De Huet",
            "Overstegen",
            "Wehl",
            "Gaanderen",
            "Zelhem",
            "Silvolde",
            "Lengel",
            "Wijnbergen",
            "De Pas",
            "Industriepark",
            "Amphion",
            "Gruitpoort",
            "Slingelandziekenhuis",
            "Verheullweg",
            "Hofstraat",
            "Keppelseweg",
            "Zelhemseweg",
            "Eldrikseweg",
            "Hogenelstlaan"
        ],
        "Middelburg": [
            "Markt",
            "Lange Delft",
            "Korte Delft",
            "Vlasmarkt",
            "Lange Geere",
            "Korte Geere",
            "Nieuwe Burg",
            "Plein 1940",
            "Dam",
            "Abdij",
            "Segeersstraat",
            "Balans",
            "Damplein",
            "Pottenmarkt",
            "Groenmarkt",
            "Sint Pieterstraat",
            "Gravenstraat",
            "Herenstraat",
            "Wagenaarstraat",
            "Breestraat",
            "Rouaansekaai",
            "Bellinkstraat",
            "Londensekaai",
            "Koepoort",
            "Stationsstraat",
            "Kanaalweg",
            "Burgemeester Dasseveld",
            "Mortiere",
            "Dauwendaele",
            "Griffioen",
            "Klarenbeek",
            "Stromenwijk",
            "Klein Vlaanderen",
            "Sint Laurens",
            "Arnemuiden",
            "Walcheren",
            "Seissingel",
            "Herengracht",
            "Molenwater",
            "Kuiperspoort"
        ],
        "Harderwijk": [
            "Markt",
            "Donkerstraat",
            "Luttekepoortstraat",
            "Bruggestraat",
            "Vischmarkt",
            "Smeepoortstraat",
            "Hoogstraat",
            "Wolleweverstraat",
            "Vijhestraat",
            "Stationsplein",
            "Selhorstweg",
            "Leuvenumseweg",
            "Deventerweg",
            "Ceintuurbaan",
            "Westeinde",
            "Venelaan",
            "Stadionlaan",
            "Parallelweg",
            "De Wittenhagen",
            "Walvisweg",
            "Flevoweg",
            "Looweg",
            "Strandweg",
            "Horsterweg",
            "Hierdenseweg",
            "Verkeersweg",
            "Industrieweg",
            "Slingerbos",
            "Drielanden",
            "Stadsweiden",
            "Buitenplaatsen",
            "Waterfront",
            "Weisteeg",
            "Boulevard",
            "Zeebuurt",
            "Stationslaan",
            "De Hoge Kamp",
            "Johannes Calvijnlaan",
            "Coninck Engelbertsz",
            "'t Gilde"
        ],
        "Goes": [
            "Grote Markt",
            "Lange Kerkstraat",
            "Korte Kerkstraat",
            "Wijngaardstraat",
            "Lange Vorststraat",
            "Klokstraat",
            "Beestenmarkt",
            "Zusterstraat",
            "Gasthuisstraat",
            "Opril Grote Markt",
            "Singelstraat",
            "Station",
            "Stationsplein",
            "Westsingel",
            "Oostsingel",
            "Noordoord",
            "Zuidoord",
            "Europalaan",
            "Marconistraat",
            "Industriepark",
            "Goese Polder",
            "Goese Schans",
            "Mannee",
            "Kloetinge",
            "'s-Heer Hendrikskinderen",
            "Wolphaartsdijk",
            "Borssele",
            "Yerseke",
            "Kapelle",
            "Wemeldinge",
            "Ovezande",
            "Bijsterweg",
            "Hollandiaplein",
            "De Poel",
            "Zonnebloemweg",
            "Ravelijn",
            "Van Dusseldorpstraat",
            "Westhavenweg",
            "De Veste",
            "Ringbaan"
        ],
        "Vlissingen": [
            "Bellamypark",
            "Walstraat",
            "Lange Zelke",
            "Nieuwendijk",
            "Spuistraat",
            "Badhuisstraat",
            "Boulevard",
            "Aagje Dekenstraat",
            "Scheldestraat",
            "Coosje Buskenstraat",
            "Kenau Hasselaarstraat",
            "Singel",
            "Hermesweg",
            "Prins Hendrikweg",
            "Irislaan",
            "Glacisstraat",
            "Paul Krugerstraat",
            "Hobeinstraat",
            "Kasteelstraat",
            "Groenewoud",
            "Scheldekwartier",
            "Nollenbos",
            "Paauwenburg",
            "Westerzicht",
            "Bonedijke",
            "Oost-Souburg",
            "Ritthem",
            "Middengebied",
            "Baskenburg",
            "Groot Lammerenburg",
            "Bossenburgh",
            "Lammerenburg",
            "Hofwijk",
            "Rosenburg",
            "Vredehof",
            "Koudekerke",
            "Westkapelle",
            "Dokje van Perry",
            "Timmerfabriek",
            "Oranjedijk"
        ],
        "Terneuzen": [
            "Markt",
            "Nieuwstraat",
            "Noordstraat",
            "Axelsestraat",
            "Grenulplein",
            "Westkolkstraat",
            "Oude Vaart",
            "Stationsstraat",
            "Scheldeboulevard",
            "Binnenvaart",
            "Rooseveltlaan",
            "Guido Gezellelaan",
            "Churchilllaan",
            "Beneluxlaan",
            "Belgiëlaan",
            "Luxemburgweg",
            "De Honte",
            "Dow Chemical",
            "Sluiskil",
            "Hoek",
            "Philippine",
            "Biervliet",
            "IJzendijke",
            "Aardenburg",
            "Driewegen",
            "Zaamslag",
            "Westdorpe",
            "Zuiddorpe",
            "Kanaaleiland",
            "Othene",
            "Triniteit",
            "Katspolder",
            "Schuttershofweg",
            "Pr. Bernhardlaan",
            "Havenstraat",
            "Industrieweg",
            "Zelzate",
            "Ghent Kanaal",
            "Lievenspolder",
            "Koewacht"
        ]
    },
    "postcode_format": "#### ??",
    "address_formats": [
        "{street} {building_number}, {postcode} {city}",
        "{street} {building_number}\n{postcode} {city}",
        "{street} {building_number}, {postcode} {city}, {state}"
    ],
    "country": "Nederland",
    "country_code": "NL",
    "phone_area_codes": {
        "Noord-Holland": [
            "020",
            "023",
            "072"
        ],
        "Zuid-Holland": [
            "010",
            "070",
            "071",
            "078",
            "015"
        ],
        "Utrecht": [
            "030",
            "033"
        ],
        "Noord-Brabant": [
            "040",
            "013",
            "076"
        ],
        "Groningen": [
            "050"
        ],
        "Flevoland": [
            "036"
        ],
        "Gelderland": [
            "024",
            "026",
            "055"
        ],
        "Overijssel": [
            "053",
            "038",
            "0570"
        ],
        "Limburg": [
            "043",
            "077"
        ],
        "Friesland": [
            "058"
        ],
        "Zeeland": [
            "0118"
        ],
        "Drenthe": [
            "0592"
        ]
    },
    "phone_format": "({area_code}) ### ####"
}
