{
    "locations": [
        {
            "city": "Madrid",
            "state": "Comunidad de Madrid",
            "postcode": "28001",
            "state_abbr": "MAD",
            "postcode_prefix": "28",
            "lat_min": 40.32,
            "lat_max": 40.52,
            "lon_min": -3.85,
            "lon_max": -3.55
        },
        {
            "city": "Barcelona",
            "state": "Cataluña",
            "postcode": "08001",
            "state_abbr": "CAT",
            "postcode_prefix": "08",
            "lat_min": 41.29,
            "lat_max": 41.49,
            "lon_min": 2.02,
            "lon_max": 2.32
        },
        {
            "city": "Valencia",
            "state": "Comunidad Valenciana",
            "postcode": "46001",
            "state_abbr": "VAL",
            "postcode_prefix": "46",
            "lat_min": 39.37,
            "lat_max": 39.57,
            "lon_min": -0.53,
            "lon_max": -0.23
        },
        {
            "city": "Sevilla",
            "state": "Andalucía",
            "postcode": "41001",
            "state_abbr": "AND",
            "postcode_prefix": "41",
            "lat_min": 37.29,
            "lat_max": 37.49,
            "lon_min": -6.14,
            "lon_max": -5.84
        },
        {
            "city": "Zaragoza",
            "state": "Aragón",
            "postcode": "50001",
            "state_abbr": "ARA",
            "postcode_prefix": "50",
            "lat_min": 41.55,
            "lat_max": 41.75,
            "lon_min": -1.03,
            "lon_max": -0.73
        },
        {
            "city": "Málaga",
            "state": "Andalucía",
            "postcode": "29001",
            "state_abbr": "AND",
            "postcode_prefix": "29",
            "lat_min": 36.62,
            "lat_max": 36.82,
            "lon_min": -4.57,
            "lon_max": -4.27
        },
        {
            "city": "Murcia",
            "state": "Región de Murcia",
            "postcode": "30001",
            "state_abbr": "MUR",
            "postcode_prefix": "30",
            "lat_min": 37.88,
            "lat_max": 38.08,
            "lon_min": -1.28,
            "lon_max": -0.98
        },
        {
            "city": "Palma",
            "state": "Islas Baleares",
            "postcode": "07001",
            "state_abbr": "BAL",
            "postcode_prefix": "07",
            "lat_min": 39.47,
            "lat_max": 39.67,
            "lon_min": 2.5,
            "lon_max": 2.8
        },
        {
            "city": "Las Palmas de Gran Canaria",
            "state": "Canarias",
            "postcode": "35001",
            "state_abbr": "CAN",
            "postcode_prefix": "35",
            "lat_min": 28.0,
            "lat_max": 28.2,
            "lon_min": -15.56,
            "lon_max": -15.26
        },
        {
            "city": "Bilbao",
            "state": "País Vasco",
            "postcode": "48001",
            "state_abbr": "PVA",
            "postcode_prefix": "48",
            "lat_min": 43.16,
            "lat_max": 43.36,
            "lon_min": -3.08,
            "lon_max": -2.78
        },
        {
            "city": "Alicante",
            "state": "Comunidad Valenciana",
            "postcode": "03001",
            "state_abbr": "VAL",
            "postcode_prefix": "03",
            "lat_min": 38.25,
            "lat_max": 38.45,
            "lon_min": -0.64,
            "lon_max": -0.34
        },
        {
            "city": "Córdoba",
            "state": "Andalucía",
            "postcode": "14001",
            "state_abbr": "AND",
            "postcode_prefix": "14",
            "lat_min": 37.79,
            "lat_max": 37.99,
            "lon_min": -4.93,
            "lon_max": -4.63
        },
        {
            "city": "Valladolid",
            "state": "Castilla y León",
            "postcode": "47001",
            "state_abbr": "CYL",
            "postcode_prefix": "47",
            "lat_min": 41.55,
            "lat_max": 41.75,
            "lon_min": -4.87,
            "lon_max": -4.57
        },
        {
            "city": "Vigo",
            "state": "Galicia",
            "postcode": "36201",
            "state_abbr": "GAL",
            "postcode_prefix": "36",
            "lat_min": 42.13,
            "lat_max": 42.33,
            "lon_min": -8.86,
            "lon_max": -8.56
        },
        {
            "city": "Gijón",
            "state": "Asturias",
            "postcode": "33201",
            "state_abbr": "AST",
            "postcode_prefix": "33",
            "lat_min": 43.44,
            "lat_max": 43.64,
            "lon_min": -5.81,
            "lon_max": -5.51
        },
        {
            "city": "Hospitalet de Llobregat",
            "state": "Cataluña",
            "postcode": "08901",
            "state_abbr": "CAT",
            "postcode_prefix": "08",
            "lat_min": 41.26,
            "lat_max": 41.46,
            "lon_min": 1.95,
            "lon_max": 2.25
        },
        {
            "city": "A Coruña",
            "state": "Galicia",
            "postcode": "15001",
            "state_abbr": "GAL",
            "postcode_prefix": "15",
            "lat_min": 43.27,
            "lat_max": 43.47,
            "lon_min": -8.55,
            "lon_max": -8.25
        },
        {
            "city": "Vitoria-Gasteiz",
            "state": "País Vasco",
            "postcode": "01001",
            "state_abbr": "PVA",
            "postcode_prefix": "01",
            "lat_min": 42.75,
            "lat_max": 42.95,
            "lon_min": -2.82,
            "lon_max": -2.52
        },
        {
            "city": "Granada",
            "state": "Andalucía",
            "postcode": "18001",
            "state_abbr": "AND",
            "postcode_prefix": "18",
            "lat_min": 37.08,
            "lat_max": 37.28,
            "lon_min": -3.75,
            "lon_max": -3.45
        },
        {
            "city": "Elche",
            "state": "Comunidad Valenciana",
            "postcode": "03201",
            "state_abbr": "VAL",
            "postcode_prefix": "03",
            "lat_min": 38.17,
            "lat_max": 38.37,
            "lon_min": -0.85,
            "lon_max": -0.55
        },
        {
            "city": "Oviedo",
            "state": "Asturias",
            "postcode": "33001",
            "state_abbr": "AST",
            "postcode_prefix": "33",
            "lat_min": 43.26,
            "lat_max": 43.46,
            "lon_min": -6.0,
            "lon_max": -5.7
        },
        {
            "city": "Santa Cruz de Tenerife",
            "state": "Canarias",
            "postcode": "38001",
            "state_abbr": "CAN",
            "postcode_prefix": "38",
            "lat_min": 28.37,
            "lat_max": 28.57,
            "lon_min": -16.4,
            "lon_max": -16.1
        },
        {
            "city": "Badalona",
            "state": "Cataluña",
            "postcode": "08911",
            "state_abbr": "CAT",
            "postcode_prefix": "08",
            "lat_min": 41.35,
            "lat_max": 41.55,
            "lon_min": 2.09,
            "lon_max": 2.39
        },
        {
            "city": "Cartagena",
            "state": "Región de Murcia",
            "postcode": "30201",
            "state_abbr": "MUR",
            "postcode_prefix": "30",
            "lat_min": 37.51,
            "lat_max": 37.71,
            "lon_min": -1.14,
            "lon_max": -0.84
        },
        {
            "city": "Terrassa",
            "state": "Cataluña",
            "postcode": "08221",
            "state_abbr": "CAT",
            "postcode_prefix": "08",
            "lat_min": 41.46,
            "lat_max": 41.66,
            "lon_min": 1.86,
            "lon_max": 2.16
        },
        {
            "city": "Jerez de la Frontera",
            "state": "Andalucía",
            "postcode": "11401",
            "state_abbr": "AND",
            "postcode_prefix": "11",
            "lat_min": 36.59,
            "lat_max": 36.79,
            "lon_min": -6.29,
            "lon_max": -5.99
        },
        {
            "city": "Sabadell",
            "state": "Cataluña",
            "postcode": "08201",
            "state_abbr": "CAT",
            "postcode_prefix": "08",
            "lat_min": 41.45,
            "lat_max": 41.65,
            "lon_min": 1.96,
            "lon_max": 2.26
        },
        {
            "city": "Móstoles",
            "state": "Comunidad de Madrid",
            "postcode": "28931",
            "state_abbr": "MAD",
            "postcode_prefix": "28",
            "lat_min": 40.22,
            "lat_max": 40.42,
            "lon_min": -4.02,
            "lon_max": -3.72
        },
        {
            "city": "Alcalá de Henares",
            "state": "Comunidad de Madrid",
            "postcode": "28801",
            "state_abbr": "MAD",
            "postcode_prefix": "28",
            "lat_min": 40.38,
            "lat_max": 40.58,
            "lon_min": -3.51,
            "lon_max": -3.21
        },
        {
            "city": "Pamplona",
            "state": "Navarra",
            "postcode": "31001",
            "state_abbr": "NAV",
            "postcode_prefix": "31",
            "lat_min": 42.72,
            "lat_max": 42.92,
            "lon_min": -1.79,
            "lon_max": -1.49
        },
        {
            "city": "Fuenlabrada",
            "state": "Comunidad de Madrid",
            "postcode": "28941",
            "state_abbr": "MAD",
            "postcode_prefix": "28",
            "lat_min": 40.18,
            "lat_max": 40.38,
            "lon_min": -3.95,
            "lon_max": -3.65
        },
        {
            "city": "Almería",
            "state": "Andalucía",
            "postcode": "04001",
            "state_abbr": "AND",
            "postcode_prefix": "04",
            "lat_min": 36.73,
            "lat_max": 36.93,
            "lon_min": -2.61,
            "lon_max": -2.31
        },
        {
            "city": "Leganés",
            "state": "Comunidad de Madrid",
            "postcode": "28911",
            "state_abbr": "MAD",
            "postcode_prefix": "28",
            "lat_min": 40.23,
            "lat_max": 40.43,
            "lon_min": -3.91,
            "lon_max": -3.61
        },
        {
            "city": "San Sebastián",
            "state": "País Vasco",
            "postcode": "20001",
            "state_abbr": "PVA",
            "postcode_prefix": "20",
            "lat_min": 43.22,
            "lat_max": 43.42,
            "lon_min": -2.13,
            "lon_max": -1.83
        },
        {
            "city": "Santander",
            "state": "Cantabria",
            "postcode": "39001",
            "state_abbr": "CTB",
            "postcode_prefix": "39",
            "lat_min": 43.36,
            "lat_max": 43.56,
            "lon_min": -3.96,
            "lon_max": -3.66
        },
        {
            "city": "Burgos",
            "state": "Castilla y León",
            "postcode": "09001",
            "state_abbr": "CYL",
            "postcode_prefix": "09",
            "lat_min": 42.24,
            "lat_max": 42.44,
            "lon_min": -3.85,
            "lon_max": -3.55
        },
        {
            "city": "Castellón de la Plana",
            "state": "Comunidad Valenciana",
            "postcode": "12001",
            "state_abbr": "VAL",
            "postcode_prefix": "12",
            "lat_min": 39.89,
            "lat_max": 40.09,
            "lon_min": -0.19,
            "lon_max": 0.11
        },
        {
            "city": "Getafe",
            "state": "Comunidad de Madrid",
            "postcode": "28901",
            "state_abbr": "MAD",
            "postcode_prefix": "28",
            "lat_min": 40.21,
            "lat_max": 40.41,
            "lon_min": -3.88,
            "lon_max": -3.58
        },
        {
            "city": "Albacete",
            "state": "Castilla-La Mancha",
            "postcode": "02001",
            "state_abbr": "CLM",
            "postcode_prefix": "02",
            "lat_min": 38.89,
            "lat_max": 39.09,
            "lon_min": -2.01,
            "lon_max": -1.71
        },
        {
            "city": "Alcorcón",
            "state": "Comunidad de Madrid",
            "postcode": "28921",
            "state_abbr": "MAD",
            "postcode_prefix": "28",
            "lat_min": 40.25,
            "lat_max": 40.45,
            "lon_min": -3.98,
            "lon_max": -3.68
        },
        {
            "city": "Logroño",
            "state": "La Rioja",
            "postcode": "26001",
            "state_abbr": "RIO",
            "postcode_prefix": "26",
            "lat_min": 42.37,
            "lat_max": 42.57,
            "lon_min": -2.6,
            "lon_max": -2.3
        },
        {
            "city": "Badajoz",
            "state": "Extremadura",
            "postcode": "06001",
            "state_abbr": "EXT",
            "postcode_prefix": "06",
            "lat_min": 38.78,
            "lat_max": 38.98,
            "lon_min": -7.12,
            "lon_max": -6.82
        },
        {
            "city": "Salamanca",
            "state": "Castilla y León",
            "postcode": "37001",
            "state_abbr": "CYL",
            "postcode_prefix": "37",
            "lat_min": 40.87,
            "lat_max": 41.07,
            "lon_min": -5.81,
            "lon_max": -5.51
        },
        {
            "city": "Huelva",
            "state": "Andalucía",
            "postcode": "21001",
            "state_abbr": "AND",
            "postcode_prefix": "21",
            "lat_min": 37.16,
            "lat_max": 37.36,
            "lon_min": -7.1,
            "lon_max": -6.8
        },
        {
            "city": "Lleida",
            "state": "Cataluña",
            "postcode": "25001",
            "state_abbr": "CAT",
            "postcode_prefix": "25",
            "lat_min": 41.52,
            "lat_max": 41.72,
            "lon_min": 0.48,
            "lon_max": 0.78
        },
        {
            "city": "Tarragona",
            "state": "Cataluña",
            "postcode": "43001",
            "state_abbr": "CAT",
            "postcode_prefix": "43",
            "lat_min": 41.02,
            "lat_max": 41.22,
            "lon_min": 1.1,
            "lon_max": 1.4
        },
        {
            "city": "León",
            "state": "Castilla y León",
            "postcode": "24001",
            "state_abbr": "CYL",
            "postcode_prefix": "24",
            "lat_min": 42.5,
            "lat_max": 42.7,
            "lon_min": -5.72,
            "lon_max": -5.42
        },
        {
            "city": "Cádiz",
            "state": "Andalucía",
            "postcode": "11001",
            "state_abbr": "AND",
            "postcode_prefix": "11",
            "lat_min": 36.43,
            "lat_max": 36.63,
            "lon_min": -6.44,
            "lon_max": -6.14
        },
        {
            "city": "Jaén",
            "state": "Andalucía",
            "postcode": "23001",
            "state_abbr": "AND",
            "postcode_prefix": "23",
            "lat_min": 37.67,
            "lat_max": 37.87,
            "lon_min": -3.94,
            "lon_max": -3.64
        },
        {
            "city": "Ourense",
            "state": "Galicia",
            "postcode": "32001",
            "state_abbr": "GAL",
            "postcode_prefix": "32",
            "lat_min": 42.24,
            "lat_max": 42.44,
            "lon_min": -8.01,
            "lon_max": -7.71
        },
        {
            "city": "Lugo",
            "state": "Galicia",
            "postcode": "27001",
            "state_abbr": "GAL",
            "postcode_prefix": "27",
            "lat_min": 42.91,
            "lat_max": 43.11,
            "lon_min": -7.71,
            "lon_max": -7.41
        },
        {
            "city": "Girona",
            "state": "Cataluña",
            "postcode": "17001",
            "state_abbr": "CAT",
            "postcode_prefix": "17",
            "lat_min": 41.88,
            "lat_max": 42.08,
            "lon_min": 2.67,
            "lon_max": 2.97
        },
        {
            "city": "Cáceres",
            "state": "Extremadura",
            "postcode": "10001",
            "state_abbr": "EXT",
            "postcode_prefix": "10",
            "lat_min": 39.37,
            "lat_max": 39.57,
            "lon_min": -6.52,
            "lon_max": -6.22
        },
        {
            "city": "Melilla",
            "state": "Melilla",
            "postcode": "52001",
            "state_abbr": "MEL",
            "postcode_prefix": "52",
            "lat_min": 35.19,
            "lat_max": 35.39,
            "lon_min": -3.09,
            "lon_max": -2.79
        },
        {
            "city": "Ceuta",
            "state": "Ceuta",
            "postcode": "51001",
            "state_abbr": "CEU",
            "postcode_prefix": "51",
            "lat_min": 35.79,
            "lat_max": 35.99,
            "lon_min": -5.46,
            "lon_max": -5.16
        },
        {
            "city": "Toledo",
            "state": "Castilla-La Mancha",
            "postcode": "45001",
            "state_abbr": "CLM",
            "postcode_prefix": "45",
            "lat_min": 39.76,
            "lat_max": 39.96,
            "lon_min": -4.18,
            "lon_max": -3.88
        },
        {
            "city": "Segovia",
            "state": "Castilla y León",
            "postcode": "40001",
            "state_abbr": "CYL",
            "postcode_prefix": "40",
            "lat_min": 40.85,
            "lat_max": 41.05,
            "lon_min": -4.27,
            "lon_max": -3.97
        },
        {
            "city": "Ávila",
            "state": "Castilla y León",
            "postcode": "05001",
            "state_abbr": "CYL",
            "postcode_prefix": "05",
            "lat_min": 40.56,
            "lat_max": 40.76,
            "lon_min": -4.85,
            "lon_max": -4.55
        },
        {
            "city": "Cuenca",
            "state": "Castilla-La Mancha",
            "postcode": "16001",
            "state_abbr": "CLM",
            "postcode_prefix": "16",
            "lat_min": 39.97,
            "lat_max": 40.17,
            "lon_min": -2.29,
            "lon_max": -1.99
        },
        {
            "city": "Teruel",
            "state": "Aragón",
            "postcode": "44001",
            "state_abbr": "ARA",
            "postcode_prefix": "44",
            "lat_min": 40.24,
            "lat_max": 40.44,
            "lon_min": -1.26,
            "lon_max": -0.96
        },
        {
            "city": "Soria",
            "state": "Castilla y León",
            "postcode": "42001",
            "state_abbr": "CYL",
            "postcode_prefix": "42",
            "lat_min": 41.66,
            "lat_max": 41.86,
            "lon_min": -2.62,
            "lon_max": -2.32
        },
        {
            "city": "Huesca",
            "state": "Aragón",
            "postcode": "22001",
            "state_abbr": "ARA",
            "postcode_prefix": "22",
            "lat_min": 42.04,
            "lat_max": 42.24,
            "lon_min": -0.56,
            "lon_max": -0.26
        },
        {
            "city": "Zamora",
            "state": "Castilla y León",
            "postcode": "49001",
            "state_abbr": "CYL",
            "postcode_prefix": "49",
            "lat_min": 41.4,
            "lat_max": 41.6,
            "lon_min": -5.89,
            "lon_max": -5.59
        },
        {
            "city": "Palencia",
            "state": "Castilla y León",
            "postcode": "34001",
            "state_abbr": "CYL",
            "postcode_prefix": "34",
            "lat_min": 41.91,
            "lat_max": 42.11,
            "lon_min": -4.68,
            "lon_max": -4.38
        },
        {
            "city": "Pontevedra",
            "state": "Galicia",
            "postcode": "36001",
            "state_abbr": "GAL",
            "postcode_prefix": "36",
            "lat_min": 42.33,
            "lat_max": 42.53,
            "lon_min": -8.79,
            "lon_max": -8.49
        },
        {
            "city": "Ciudad Real",
            "state": "Castilla-La Mancha",
            "postcode": "13001",
            "state_abbr": "CLM",
            "postcode_prefix": "13",
            "lat_min": 38.89,
            "lat_max": 39.09,
            "lon_min": -4.08,
            "lon_max": -3.78
        },
        {
            "city": "Guadalajara",
            "state": "Castilla-La Mancha",
            "postcode": "19001",
            "state_abbr": "CLM",
            "postcode_prefix": "19",
            "lat_min": 40.53,
            "lat_max": 40.73,
            "lon_min": -3.31,
            "lon_max": -3.01
        },
        {
            "city": "Marbella",
            "state": "Andalucía",
            "postcode": "29601",
            "state_abbr": "AND",
            "postcode_prefix": "29",
            "lat_min": 36.41,
            "lat_max": 36.61,
            "lon_min": -5.04,
            "lon_max": -4.74
        },
        {
            "city": "Torremolinos",
            "state": "Andalucía",
            "postcode": "29620",
            "state_abbr": "AND",
            "postcode_prefix": "29",
            "lat_min": 36.52,
            "lat_max": 36.72,
            "lon_min": -4.65,
            "lon_max": -4.35
        },
        {
            "city": "Benidorm",
            "state": "Comunidad Valenciana",
            "postcode": "03501",
            "state_abbr": "VAL",
            "postcode_prefix": "03",
            "lat_min": 38.44,
            "lat_max": 38.64,
            "lon_min": -0.28,
            "lon_max": 0.02
        },
        {
            "city": "Reus",
            "state": "Cataluña",
            "postcode": "43201",
            "state_abbr": "CAT",
            "postcode_prefix": "43",
            "lat_min": 41.05,
            "lat_max": 41.25,
            "lon_min": 0.96,
            "lon_max": 1.26
        },
        {
            "city": "Torrelavega",
            "state": "Cantabria",
            "postcode": "39300",
            "state_abbr": "CTB",
            "postcode_prefix": "39",
            "lat_min": 43.25,
            "lat_max": 43.45,
            "lon_min": -4.2,
            "lon_max": -3.9
        },
        {
            "city": "Manresa",
            "state": "Cataluña",
            "postcode": "08240",
            "state_abbr": "CAT",
            "postcode_prefix": "08",
            "lat_min": 41.63,
            "lat_max": 41.83,
            "lon_min": 1.67,
            "lon_max": 1.97
        },
        {
            "city": "Mataró",
            "state": "Cataluña",
            "postcode": "08301",
            "state_abbr": "CAT",
            "postcode_prefix": "08",
            "lat_min": 41.44,
            "lat_max": 41.64,
            "lon_min": 2.3,
            "lon_max": 2.6
        },
        {
            "city": "Sant Cugat del Vallès",
            "state": "Cataluña",
            "postcode": "08172",
            "state_abbr": "CAT",
            "postcode_prefix": "08",
            "lat_min": 41.37,
            "lat_max": 41.57,
            "lon_min": 1.93,
            "lon_max": 2.23
        },
        {
            "city": "Torrejón de Ardoz",
            "state": "Comunidad de Madrid",
            "postcode": "28850",
            "state_abbr": "MAD",
            "postcode_prefix": "28",
            "lat_min": 40.36,
            "lat_max": 40.56,
            "lon_min": -3.63,
            "lon_max": -3.33
        },
        {
            "city": "Parla",
            "state": "Comunidad de Madrid",
            "postcode": "28980",
            "state_abbr": "MAD",
            "postcode_prefix": "28",
            "lat_min": 40.14,
            "lat_max": 40.34,
            "lon_min": -3.92,
            "lon_max": -3.62
        },
        {
            "city": "Dos Hermanas",
            "state": "Andalucía",
            "postcode": "41700",
            "state_abbr": "AND",
            "postcode_prefix": "41",
            "lat_min": 37.18,
            "lat_max": 37.38,
            "lon_min": -6.07,
            "lon_max": -5.77
        },
        {
            "city": "Algeciras",
            "state": "Andalucía",
            "postcode": "11201",
            "state_abbr": "AND",
            "postcode_prefix": "11",
            "lat_min": 36.03,
            "lat_max": 36.23,
            "lon_min": -5.6,
            "lon_max": -5.3
        },
        {
            "city": "Torrevieja",
            "state": "Comunidad Valenciana",
            "postcode": "03180",
            "state_abbr": "VAL",
            "postcode_prefix": "03",
            "lat_min": 37.88,
            "lat_max": 38.08,
            "lon_min": -0.83,
            "lon_max": -0.53
        },
        {
            "city": "Orihuela",
            "state": "Comunidad Valenciana",
            "postcode": "03300",
            "state_abbr": "VAL",
            "postcode_prefix": "03",
            "lat_min": 37.98,
            "lat_max": 38.18,
            "lon_min": -1.09,
            "lon_max": -0.79
        },
        {
            "city": "Ronda",
            "state": "Andalucía",
            "postcode": "29400",
            "state_abbr": "AND",
            "postcode_prefix": "29",
            "lat_min": 36.64,
            "lat_max": 36.84,
            "lon_min": -5.32,
            "lon_max": -5.02
        },
        {
            "city": "Santiago de Compostela",
            "state": "Galicia",
            "postcode": "15701",
            "state_abbr": "GAL",
            "postcode_prefix": "15",
            "lat_min": 42.78,
            "lat_max": 42.98,
            "lon_min": -8.69,
            "lon_max": -8.39
        },
        {
            "city": "El Puerto de Santa María",
            "state": "Andalucía",
            "postcode": "11500",
            "state_abbr": "AND",
            "postcode_prefix": "11",
            "lat_min": 36.49,
            "lat_max": 36.69,
            "lon_min": -6.38,
            "lon_max": -6.08
        },
        {
            "city": "Lorca",
            "state": "Región de Murcia",
            "postcode": "30800",
            "state_abbr": "MUR",
            "postcode_prefix": "30",
            "lat_min": 37.57,
            "lat_max": 37.77,
            "lon_min": -1.85,
            "lon_max": -1.55
        },
        {
            "city": "San Fernando",
            "state": "Andalucía",
            "postcode": "11100",
            "state_abbr": "AND",
            "postcode_prefix": "11",
            "lat_min": 36.36,
            "lat_max": 36.56,
            "lon_min": -6.35,
            "lon_max": -6.05
        },
        {
            "city": "Chiclana de la Frontera",
            "state": "Andalucía",
            "postcode": "11130",
            "state_abbr": "AND",
            "postcode_prefix": "11",
            "lat_min": 36.32,
            "lat_max": 36.52,
            "lon_min": -6.3,
            "lon_max": -6.0
        },
        {
            "city": "Mérida",
            "state": "Extremadura",
            "postcode": "06800",
            "state_abbr": "EXT",
            "postcode_prefix": "06",
            "lat_min": 38.82,
            "lat_max": 39.02,
            "lon_min": -6.49,
            "lon_max": -6.19
        },
        {
            "city": "Plasencia",
            "state": "Extremadura",
            "postcode": "10600",
            "state_abbr": "EXT",
            "postcode_prefix": "10",
            "lat_min": 39.93,
            "lat_max": 40.13,
            "lon_min": -6.24,
            "lon_max": -5.94
        },
        {
            "city": "Ibiza",
            "state": "Islas Baleares",
            "postcode": "07800",
            "state_abbr": "BAL",
            "postcode_prefix": "07",
            "lat_min": 38.81,
            "lat_max": 39.01,
            "lon_min": 1.28,
            "lon_max": 1.58
        }
    ],
    "streets_by_city": {
        "Madrid": [
            "Gran Vía",
            "Calle de Alcalá",
            "Paseo de la Castellana",
            "Calle Mayor",
            "Calle de Serrano",
            "Calle de Goya",
            "Paseo del Prado",
            "Calle de Fuencarral",
            "Calle de Preciados",
            "Puerta del Sol",
            "Calle de Atocha",
            "Calle de Hortaleza",
            "Calle de Velázquez",
            "Calle de Príncipe de Vergara",
            "Calle de O'Donnell",
            "Calle de Bravo Murillo",
            "Calle de Alberto Aguilera",
            "Calle de Santa Engracia",
            "Paseo de Recoletos",
            "Calle de Génova",
            "Calle de Sagasta",
            "Calle de Carranza",
            "Calle de San Bernardo",
            "Calle de la Montera",
            "Calle del Carmen",
            "Calle del Arenal",
            "Calle de Narváez",
            "Calle de Ibiza",
            "Calle de Doctor Esquerdo",
            "Calle de Conde de Peñalver",
            "Calle de Jorge Juan",
            "Calle de Villanueva",
            "Calle de Hermosilla",
            "Calle de Ayala",
            "Calle de Padilla",
            "Calle de Juan Bravo",
            "Calle de Diego de León",
            "Calle de María de Molina",
            "Calle de José Abascal",
            "Calle de Raimundo Fernández Villaverde",
            "Calle de Alonso Cano",
            "Calle de Ríos Rosas",
            "Calle de Ponzano",
            "Calle de la Princesa",
            "Calle de Ferraz",
            "Calle del Marqués de Urquijo",
            "Calle de Bailén",
            "Calle de Segovia",
            "Calle de Toledo",
            "Calle de la Cava Baja",
            "Calle de la Ribera de Curtidores",
            "Paseo de las Acacias",
            "Calle de Embajadores",
            "Calle de la Ronda de Valencia",
            "Calle de Santa Isabel",
            "Calle de Lavapiés",
            "Calle de Argumosa",
            "Calle del Ave María",
            "Calle de la Fe",
            "Calle de Mesón de Paredes",
            "Calle de Huertas",
            "Calle del León",
            "Calle del Amor de Dios",
            "Calle de Lope de Vega",
            "Calle de Cervantes",
            "Calle de Quevedo",
            "Calle de San Agustín",
            "Calle de las Huertas",
            "Calle de Echegaray",
            "Calle de la Cruz",
            "Calle de Espoz y Mina",
            "Calle de la Victoria",
            "Calle del Pez",
            "Calle del Espíritu Santo",
            "Calle de la Palma",
            "Calle de San Vicente Ferrer",
            "Calle de Corredera Baja de San Pablo",
            "Calle de Valverde",
            "Calle de Arturo Soria",
            "Calle de López de Hoyos",
            "Calle de Alcántara",
            "Calle de Lagasca",
            "Calle de Claudio Coello",
            "Calle de Núñez de Balboa",
            "Calle de Castelló",
            "Calle de Conde de Aranda",
            "Calle de Columela",
            "Calle de Recoletos",
            "Calle de Montalbán",
            "Calle del Barquillo",
            "Calle de Fernando VI",
            "Calle de Pelayo",
            "Calle de Gravina",
            "Calle de Apodaca",
            "Calle de las Infantas",
            "Calle de la Libertad",
            "Calle de Cedaceros",
            "Calle de Sevilla",
            "Calle de Alcalá Galiano",
            "Calle de Marqués de la Ensenada"
        ],
        "Barcelona": [
            "La Rambla",
            "Passeig de Gràcia",
            "Avinguda Diagonal",
            "Carrer de Balmes",
            "Carrer d'Aragó",
            "Carrer de València",
            "Carrer de Mallorca",
            "Carrer de Provença",
            "Carrer de Pau Claris",
            "Carrer del Consell de Cent",
            "Carrer de la Marina",
            "Carrer Gran de Gràcia",
            "Via Laietana",
            "Carrer de Pelai",
            "Portal de l'Àngel",
            "Rambla de Catalunya",
            "Carrer de Muntaner",
            "Carrer d'Aribau",
            "Carrer de Còrsega",
            "Carrer de Roger de Llúria",
            "Carrer del Bruc",
            "Carrer de Girona",
            "Carrer de Sardenya",
            "Carrer de la Diputació",
            "Carrer de Rosselló",
            "Gran Via de les Corts Catalanes",
            "Carrer de Bailèn",
            "Carrer de Marina",
            "Carrer de Lepant",
            "Carrer de Padilla",
            "Carrer de Castillejos",
            "Carrer de Nàpols",
            "Carrer de Sicília",
            "Avinguda del Paral·lel",
            "Carrer del Comte d'Urgell",
            "Carrer de Villarroel",
            "Carrer de Casanova",
            "Carrer del Comte Borrell",
            "Carrer de Calàbria",
            "Carrer de Rocafort",
            "Carrer de Viladomat",
            "Carrer d'Entença",
            "Carrer del Marquès de Campo Sagrado",
            "Carrer de Manso",
            "Carrer de Tamarit",
            "Carrer de Floridablanca",
            "Carrer de Sant Pau",
            "Carrer Nou de la Rambla",
            "Carrer de l'Hospital",
            "Carrer del Carme",
            "Carrer dels Àngels",
            "Carrer de Fontanella",
            "Avinguda del Portal de l'Àngel",
            "Carrer de Ferran",
            "Carrer de Jaume I",
            "Carrer de la Princesa",
            "Carrer de l'Argenteria",
            "Passeig del Born",
            "Carrer de Montcada",
            "Carrer dels Flassaders",
            "Carrer del Comerç",
            "Passeig de Lluís Companys",
            "Avinguda Meridiana",
            "Carrer de Ribes",
            "Carrer d'Àlaba",
            "Carrer de Pamplona",
            "Carrer de Llull",
            "Carrer de Pujades",
            "Carrer de Pere IV",
            "Carrer del Taulat",
            "Rambla del Poblenou",
            "Avinguda d'Icària",
            "Carrer de la Marina (Poblenou)",
            "Carrer de Bilbao",
            "Carrer de Ramon Turró",
            "Passeig de Joan de Borbó",
            "Passeig Marítim",
            "Carrer de Wellington",
            "Carrer del Doctor Aiguader",
            "Carrer d'Enric Granados",
            "Carrer de la Indústria",
            "Carrer del Torrent de l'Olla",
            "Carrer de Verdi",
            "Travessera de Gràcia",
            "Carrer de Sants",
            "Carrer de la Creu Coberta",
            "Carrer de la Bordeta",
            "Carrer de Gavà",
            "Carrer d'Olzinelles",
            "Carrer de Badal",
            "Carrer de Casp",
            "Carrer d'Ausias March",
            "Carrer de la Gran Via (Eixample)",
            "Carrer del Dos de Maig",
            "Carrer de Sant Antoni Maria Claret",
            "Carrer de la Travessera de Dalt",
            "Carrer de Santaló",
            "Carrer de Tuset",
            "Carrer de Calvet",
            "Carrer de Madrazo"
        ],
        "Valencia": [
            "Calle de Colón",
            "Avenida del Puerto",
            "Gran Vía Marqués del Turia",
            "Calle de la Paz",
            "Calle de San Vicente Mártir",
            "Calle de Xàtiva",
            "Avenida del Cid",
            "Calle de Ruzafa",
            "Calle de Cirilo Amorós",
            "Calle de Jorge Juan",
            "Calle de Hernán Cortés",
            "Calle del Mar",
            "Calle de las Barcas",
            "Plaza del Ayuntamiento",
            "Calle de Sorní",
            "Calle de Grabador Esteve",
            "Calle de Isabel la Católica",
            "Calle de Félix Pizcueta",
            "Avenida de Aragón",
            "Calle de Guillem de Castro",
            "Calle del Sol",
            "Calle de la Luna",
            "Calle Nueva",
            "Calle del Agua",
            "Calle de la Fuente",
            "Calle del Río",
            "Calle de la Iglesia",
            "Calle San Juan",
            "Calle San Pedro",
            "Calle del Pilar"
        ],
        "Sevilla": [
            "Avenida de la Constitución",
            "Calle Sierpes",
            "Calle Tetuán",
            "Calle O'Donnell",
            "Calle San Fernando",
            "Calle Feria",
            "Alameda de Hércules",
            "Calle Betis",
            "Calle Asunción",
            "Calle San Jacinto",
            "Avenida de la Palmera",
            "Calle Imagen",
            "Calle Cuna",
            "Calle Rioja",
            "Calle Amor de Dios",
            "Calle San Luis",
            "Calle Regina",
            "Calle Francos",
            "Calle Velázquez",
            "Calle Campana",
            "Calle del Sol",
            "Calle de la Luna",
            "Calle Nueva",
            "Calle del Agua",
            "Calle de la Fuente",
            "Calle del Río",
            "Calle de la Iglesia",
            "Calle San Juan",
            "Calle San Pedro",
            "Calle del Pilar"
        ],
        "Zaragoza": [
            "Paseo de la Independencia",
            "Calle de Alfonso I",
            "Calle del Coso",
            "Paseo de Sagasta",
            "Avenida de César Augusto",
            "Calle de Don Jaime I",
            "Gran Vía",
            "Calle de San Miguel",
            "Paseo de Fernando el Católico",
            "Calle de Conde de Aranda",
            "Calle de León XIII",
            "Paseo de María Agustín",
            "Calle de Manifestación",
            "Calle del Temple",
            "Calle de San Vicente de Paúl",
            "Calle de Corona de Aragón",
            "Avenida de Goya",
            "Calle de Francisco de Vitoria",
            "Calle de Pedro María Ric",
            "Calle de Zurita",
            "Calle del Sol",
            "Calle de la Luna",
            "Calle Nueva",
            "Calle del Agua",
            "Calle de la Fuente",
            "Calle del Río",
            "Calle de la Iglesia",
            "Calle San Juan",
            "Calle San Pedro",
            "Calle del Pilar"
        ],
        "Málaga": [
            "Calle Larios",
            "Alameda Principal",
            "Paseo del Parque",
            "Calle de la Victoria",
            "Calle Granada",
            "Calle Nueva",
            "Avenida de Andalucía",
            "Calle Carretería",
            "Calle Trinidad",
            "Calle Molina Lario",
            "Calle Alcazabilla",
            "Paseo de los Curas",
            "Calle Especería",
            "Calle San Juan",
            "Calle Puerta del Mar",
            "Calle Córdoba",
            "Calle Mariblanca",
            "Calle Lagunillas",
            "Calle Cristo de la Epidemia",
            "Calle Casapalma",
            "Calle del Sol",
            "Calle de la Luna",
            "Calle del Agua",
            "Calle de la Fuente",
            "Calle del Río",
            "Calle de la Iglesia",
            "Calle San Pedro",
            "Calle del Pilar"
        ],
        "Murcia": [
            "Gran Vía Escultor Francisco Salzillo",
            "Avenida de la Libertad",
            "Calle Trapería",
            "Calle Platería",
            "Avenida de la Constitución",
            "Calle Jaime I el Conquistador",
            "Calle Mayor",
            "Calle San Nicolás",
            "Calle Santa Clara",
            "Calle Alejandro Séiquer",
            "Calle Acisclo Díaz",
            "Calle San Pedro",
            "Paseo de Alfonso X",
            "Calle San Antón",
            "Calle Floridablanca",
            "Calle Isidoro de la Cierva",
            "Calle Santa Catalina",
            "Calle Sociedad",
            "Calle Andrés Baquero",
            "Calle González Adalid",
            "Calle del Sol",
            "Calle de la Luna",
            "Calle Nueva",
            "Calle del Agua",
            "Calle de la Fuente",
            "Calle del Río",
            "Calle de la Iglesia",
            "Calle San Juan",
            "Calle del Pilar"
        ],
        "Palma": [
            "Passeig del Born",
            "Avinguda de Jaume III",
            "Carrer de Sant Miquel",
            "Carrer dels Oms",
            "Carrer del Sindicat",
            "Avinguda d'Argentina",
            "Carrer de la Unió",
            "Carrer de Sant Feliu",
            "Carrer de Colom",
            "Passeig Marítim",
            "Carrer d'Apuntadors",
            "Carrer de Can Savellà",
            "Carrer de Morey",
            "Carrer de Palau Reial",
            "Carrer del Conquistador",
            "Carrer de la Mar",
            "Rambla dels Ducs de Palma",
            "Carrer de Blanquerna",
            "Carrer del Compte de Barcelona",
            "Carrer de Joan Miró",
            "Calle del Sol",
            "Calle de la Luna",
            "Calle Nueva",
            "Calle del Agua",
            "Calle de la Fuente",
            "Calle del Río",
            "Calle de la Iglesia",
            "Calle San Juan",
            "Calle San Pedro",
            "Calle del Pilar"
        ],
        "Las Palmas de Gran Canaria": [
            "Calle Mayor de Triana",
            "Calle de León y Castillo",
            "Avenida Mesa y López",
            "Calle de Bravo Murillo",
            "Paseo de Las Canteras",
            "Calle de Tomás Morales",
            "Avenida Marítima",
            "Calle de Perojo",
            "Calle de Cano",
            "Calle de Viera y Clavijo",
            "Calle de San Bernardo",
            "Calle de Galicia",
            "Calle del Lentini",
            "Calle de Remedios",
            "Calle de Torres",
            "Calle del General Vives",
            "Calle de Luis Morote",
            "Calle de Franchy Roca",
            "Calle de Juan de Quesada",
            "Calle de Pérez Galdós",
            "Calle del Sol",
            "Calle de la Luna",
            "Calle Nueva",
            "Calle del Agua",
            "Calle de la Fuente",
            "Calle del Río",
            "Calle de la Iglesia",
            "Calle San Juan",
            "Calle San Pedro",
            "Calle del Pilar"
        ],
        "Bilbao": [
            "Gran Vía de Don Diego López de Haro",
            "Alameda de Mazarredo",
            "Calle Ercilla",
            "Calle Ledesma",
            "Calle Colón de Larreátegui",
            "Calle Hurtado de Amézaga",
            "Calle de Buenos Aires",
            "Calle Autonomía",
            "Calle Iparraguirre",
            "Calle Licenciado Poza",
            "Calle Rodríguez Arias",
            "Calle General Concha",
            "Calle Henao",
            "Calle Diputación",
            "Calle Elcano",
            "Alameda de Recalde",
            "Calle Máximo Aguirre",
            "Campo Volantín",
            "Calle Navarra",
            "Calle Arenal",
            "Calle del Sol",
            "Calle de la Luna",
            "Calle Nueva",
            "Calle del Agua",
            "Calle de la Fuente",
            "Calle del Río",
            "Calle de la Iglesia",
            "Calle San Juan",
            "Calle San Pedro",
            "Calle del Pilar"
        ],
        "Alicante": [
            "Rambla de Méndez Núñez",
            "Avenida de Alfonso X el Sabio",
            "Calle de San Fernando",
            "Avenida de Maisonnave",
            "Calle Mayor",
            "Avenida de la Estación",
            "Calle de Castaños",
            "Calle de Gerona",
            "Calle de San Francisco",
            "Calle de Bailén",
            "Calle de Altamira",
            "Calle de Jorge Juan",
            "Calle de San Vicente",
            "Calle del Teatro",
            "Calle de Villegas",
            "Calle de Labradores",
            "Explanada de España",
            "Calle de Rafael Altamira",
            "Calle de Poeta Quintana",
            "Calle de Doctor Gadea",
            "Calle del Sol",
            "Calle de la Luna",
            "Calle Nueva",
            "Calle del Agua",
            "Calle de la Fuente",
            "Calle del Río",
            "Calle de la Iglesia",
            "Calle San Juan",
            "Calle San Pedro",
            "Calle del Pilar"
        ],
        "Córdoba": [
            "Calle Cruz Conde",
            "Avenida del Gran Capitán",
            "Calle de San Fernando",
            "Calle Claudio Marcelo",
            "Paseo de la Victoria",
            "Ronda de los Tejares",
            "Avenida de América",
            "Calle Gondomar",
            "Calle de Jesús María",
            "Calle de Blanco Belmonte",
            "Calle Alfonso XIII",
            "Calle Concepción",
            "Calle Duque de Hornachuelos",
            "Calle de la Feria",
            "Avenida del Corregidor",
            "Calle Tendillas",
            "Calle San Álvaro",
            "Calle de los Reyes Católicos",
            "Calle José Cruz Conde",
            "Calle Diego de León",
            "Calle del Sol",
            "Calle de la Luna",
            "Calle Nueva",
            "Calle del Agua",
            "Calle de la Fuente",
            "Calle del Río",
            "Calle de la Iglesia",
            "Calle San Juan",
            "Calle San Pedro",
            "Calle del Pilar"
        ],
        "Valladolid": [
            "Calle de Santiago",
            "Paseo de Zorrilla",
            "Avenida de Salamanca",
            "Calle de Miguel Íscar",
            "Calle de la Constitución",
            "Calle de Ferrari",
            "Calle de Duque de la Victoria",
            "Calle de Teresa Gil",
            "Calle de María de Molina",
            "Calle de Mantería",
            "Acera de Recoletos",
            "Calle de Gamazo",
            "Calle de López Gómez",
            "Calle de Fray Luis de León",
            "Paseo del Campo Grande",
            "Calle del Claudio Moyano",
            "Calle de Angustias",
            "Calle de Platerías",
            "Calle de la Pasión",
            "Calle de la Libertad",
            "Calle del Sol",
            "Calle de la Luna",
            "Calle Nueva",
            "Calle del Agua",
            "Calle de la Fuente",
            "Calle del Río",
            "Calle de la Iglesia",
            "Calle San Juan",
            "Calle San Pedro",
            "Calle del Pilar"
        ],
        "Vigo": [
            "Calle del Príncipe",
            "Gran Vía",
            "Calle Urzáiz",
            "Avenida de García Barbón",
            "Calle de Colón",
            "Rúa do Paseo",
            "Calle Policarpo Sanz",
            "Calle de Venezuela",
            "Avenida de Camelias",
            "Calle de Pi y Margall",
            "Calle del Ecuador",
            "Rúa da Carral",
            "Calle Real",
            "Rúa das Ostras",
            "Calle de Luis Taboada",
            "Calle del Areal",
            "Paseo de Alfonso XII",
            "Calle de Velázquez Moreno",
            "Calle de Cervantes",
            "Praza de Compostela",
            "Calle del Sol",
            "Calle de la Luna",
            "Calle Nueva",
            "Calle del Agua",
            "Calle de la Fuente",
            "Calle del Río",
            "Calle de la Iglesia",
            "Calle San Juan",
            "Calle San Pedro",
            "Calle del Pilar"
        ],
        "Gijón": [
            "Calle Corrida",
            "Paseo de Begoña",
            "Calle de San Bernardo",
            "Calle del Instituto",
            "Avenida de la Constitución",
            "Calle de los Moros",
            "Calle de Ezcurdia",
            "Calle de Magnus Blikstad",
            "Calle de Langreo",
            "Paseo de la Playa de San Lorenzo",
            "Calle de Cabrales",
            "Calle de Asturias",
            "Calle del Marqués de San Esteban",
            "Calle de Covadonga",
            "Avenida de Schultz",
            "Calle de Menéndez Valdés",
            "Calle de Fernández Vallín",
            "Calle de Trinidad",
            "Calle de San Antonio",
            "Calle de la Merced",
            "Calle del Sol",
            "Calle de la Luna",
            "Calle Nueva",
            "Calle del Agua",
            "Calle de la Fuente",
            "Calle del Río",
            "Calle de la Iglesia",
            "Calle San Juan",
            "Calle San Pedro",
            "Calle del Pilar"
        ],
        "Hospitalet de Llobregat": [
            "Rambla Just Oliveras",
            "Carrer de Santa Eulàlia",
            "Avinguda de Josep Tarradellas",
            "Carrer Major",
            "Avinguda del Carrilet",
            "Carrer de Rosalia de Castro",
            "Carrer de Tecla Sala",
            "Carrer de Cobalt",
            "Carrer de l'Aprestadora",
            "Carrer de Miquel Peiró",
            "Carrer de la Botànica",
            "Carrer d'Amadeu Torner",
            "Carrer del Pare Esplugues",
            "Carrer de Riera Blanca",
            "Carrer del Torrent Gornal",
            "Carrer de Joan Prim",
            "Carrer de Jacint Verdaguer",
            "Carrer de Castelao",
            "Carrer de Xipreret",
            "Carrer de l'Hospitalet",
            "Calle del Sol",
            "Calle de la Luna",
            "Calle Nueva",
            "Calle del Agua",
            "Calle de la Fuente",
            "Calle del Río",
            "Calle de la Iglesia",
            "Calle San Juan",
            "Calle San Pedro",
            "Calle del Pilar"
        ],
        "A Coruña": [
            "Calle Real",
            "Rúa San Andrés",
            "Avenida de la Marina",
            "Calle de Juan Flórez",
            "Rúa de Juana de Vega",
            "Paseo de los Cantones",
            "Calle de Compostela",
            "Rúa Nueva",
            "Calle de Panaderas",
            "Calle del Orzán",
            "Avenida de Finisterre",
            "Rúa do Parrote",
            "Calle de la Franja",
            "Calle de Riego de Agua",
            "Calle de la Estrella",
            "Calle de Galera",
            "Paseo del Parrote",
            "Calle de San Agustín",
            "Calle de Fernando Macías",
            "Calle del Sol",
            "Calle de la Luna",
            "Calle Nueva",
            "Calle del Agua",
            "Calle de la Fuente",
            "Calle del Río",
            "Calle de la Iglesia",
            "Calle San Juan",
            "Calle San Pedro",
            "Calle del Pilar"
        ],
        "Vitoria-Gasteiz": [
            "Calle de Dato",
            "Calle de San Prudencio",
            "Calle de Postas",
            "Calle de la Independencia",
            "Calle del General Álava",
            "Calle de San Antonio",
            "Calle de la Florida",
            "Paseo de la Senda",
            "Calle de Manuel Iradier",
            "Calle de Prado",
            "Calle de Francia",
            "Calle de Chile",
            "Calle de Paz",
            "Calle de Herrería",
            "Calle de Portal de Rey",
            "Calle de Zapatería",
            "Calle de Correría",
            "Calle de Cuchillería",
            "Calle de Pintorería",
            "Calle de Portal de Castilla",
            "Calle del Sol",
            "Calle de la Luna",
            "Calle Nueva",
            "Calle del Agua",
            "Calle de la Fuente",
            "Calle del Río",
            "Calle de la Iglesia",
            "Calle San Juan",
            "Calle San Pedro",
            "Calle del Pilar"
        ],
        "Granada": [
            "Gran Vía de Colón",
            "Calle de los Reyes Católicos",
            "Calle de Recogidas",
            "Calle de Mesones",
            "Calle de Ángel Ganivet",
            "Acera del Darro",
            "Calle de San Matías",
            "Calle de Elvira",
            "Calle de la Alhóndiga",
            "Calle del Gran Capitán",
            "Calle de Puentezuelas",
            "Calle de San Antón",
            "Paseo de la Bomba",
            "Calle de Navas",
            "Calle de Tablas",
            "Calle de Zacatín",
            "Calle de Pedro Antonio de Alarcón",
            "Carrera de la Virgen",
            "Cuesta de Gomérez",
            "Calle de San Juan de Dios",
            "Calle del Sol",
            "Calle de la Luna",
            "Calle Nueva",
            "Calle del Agua",
            "Calle de la Fuente",
            "Calle del Río",
            "Calle de la Iglesia",
            "Calle San Juan",
            "Calle San Pedro",
            "Calle del Pilar"
        ],
        "Elche": [
            "Carrer Major de la Vila",
            "Avinguda de la Llibertat",
            "Carrer del Pont dels Ortissos",
            "Carrer de Jorge Juan",
            "Carrer del Capità Antoni Mena",
            "Carrer de Filet de Fora",
            "Avinguda del Ferrocarril",
            "Carrer de la Corredora",
            "Carrer d'Áltea",
            "Carrer del Rei",
            "Carrer dels Ponts",
            "Passeig de l'Estació",
            "Carrer del Troneta",
            "Carrer de Nit",
            "Carrer de la Fira",
            "Carrer de l'Hostal",
            "Carrer de Sant Jordi",
            "Carrer de Fray Luis de León",
            "Carrer de Velarde",
            "Carrer del Sol",
            "Calle del Sol",
            "Calle de la Luna",
            "Calle Nueva",
            "Calle del Agua",
            "Calle de la Fuente",
            "Calle del Río",
            "Calle de la Iglesia",
            "Calle San Juan",
            "Calle San Pedro",
            "Calle del Pilar"
        ],
        "Oviedo": [
            "Calle de Uría",
            "Calle del Rosal",
            "Calle de Pelayo",
            "Calle de Argüelles",
            "Calle de Gil de Jaz",
            "Calle del General Elorza",
            "Calle de Fruela",
            "Calle del Marqués de Santa Cruz",
            "Calle de San Francisco",
            "Plaza de la Escandalera",
            "Calle de Jovellanos",
            "Calle del Conde de Toreno",
            "Calle de Víctor Chávarri",
            "Avenida de Galicia",
            "Calle de Melquíades Álvarez",
            "Calle de Independencia",
            "Calle de San Juan",
            "Calle de Cimadevilla",
            "Calle de Altamirano",
            "Calle del Paraíso",
            "Calle del Sol",
            "Calle de la Luna",
            "Calle Nueva",
            "Calle del Agua",
            "Calle de la Fuente",
            "Calle del Río",
            "Calle de la Iglesia",
            "Calle San Juan",
            "Calle San Pedro",
            "Calle del Pilar"
        ],
        "Santa Cruz de Tenerife": [
            "Calle del Castillo",
            "Avenida de Anaga",
            "Calle de San José",
            "Rambla de Santa Cruz",
            "Calle del Pilar",
            "Avenida Marítima",
            "Calle de Bethencourt Alfonso",
            "Calle de Valentín Sanz",
            "Calle de Suárez Guerra",
            "Calle de la Marina",
            "Calle de Méndez Núñez",
            "Avenida de Francisco La Roche",
            "Calle de San Sebastián",
            "Calle del General Gutiérrez",
            "Calle de la Cruz Verde",
            "Calle de Imeldo Serís",
            "Calle de San Lucas",
            "Paseo de la Constitución",
            "Calle del Norte",
            "Calle de Robayna",
            "Calle del Sol",
            "Calle de la Luna",
            "Calle Nueva",
            "Calle del Agua",
            "Calle de la Fuente",
            "Calle del Río",
            "Calle de la Iglesia",
            "Calle San Juan",
            "Calle San Pedro"
        ],
        "Badalona": [
            "Carrer de Mar",
            "Passeig Marítim",
            "Carrer del Progrés",
            "Rambla",
            "Carrer de Francesc Layret",
            "Carrer de Prim",
            "Carrer del Temple",
            "Avinguda del President Companys",
            "Carrer de Sant Frederic",
            "Carrer d'Ítaca",
            "Carrer del Guifré",
            "Carrer de la Indústria",
            "Carrer de Sant Bru",
            "Carrer de Cuba",
            "Carrer de Tortosa",
            "Carrer de Sagunt",
            "Carrer de Llefià",
            "Carrer de Baldomer Solà",
            "Carrer de Doctor Robert",
            "Carrer de Coll i Pujol",
            "Calle del Sol",
            "Calle de la Luna",
            "Calle Nueva",
            "Calle del Agua",
            "Calle de la Fuente",
            "Calle del Río",
            "Calle de la Iglesia",
            "Calle San Juan",
            "Calle San Pedro",
            "Calle del Pilar"
        ],
        "Cartagena": [
            "Calle Mayor",
            "Calle del Carmen",
            "Calle de Aire",
            "Calle de San Diego",
            "Calle de Jara",
            "Paseo de Alfonso XII",
            "Calle de Honda",
            "Calle de Cuatro Santos",
            "Calle Real",
            "Calle de Puertas de Murcia",
            "Calle del Duque",
            "Calle de la Caridad",
            "Calle de San Fernando",
            "Alameda de San Antón",
            "Calle de San Miguel",
            "Calle del Cañón",
            "Calle de Comedias",
            "Calle de Santa Florentina",
            "Calle de Bodegones",
            "Calle del Ángel",
            "Calle del Sol",
            "Calle de la Luna",
            "Calle Nueva",
            "Calle del Agua",
            "Calle de la Fuente",
            "Calle del Río",
            "Calle de la Iglesia",
            "Calle San Juan",
            "Calle San Pedro",
            "Calle del Pilar"
        ],
        "Terrassa": [
            "Rambla d'Ègara",
            "Carrer Major",
            "Carrer de la Rutlla",
            "Carrer del Pare Font",
            "Carrer de Sant Pere",
            "Carrer de la Font Vella",
            "Avinguda de Jacquard",
            "Carrer de Gutenberg",
            "Carrer del Nord",
            "Passeig del Comte d'Ègara",
            "Carrer de Colom",
            "Carrer de Galileu",
            "Carrer de la Creu Gran",
            "Carrer de Sant Isidre",
            "Carrer de la Rasa",
            "Carrer de Vallhonrat",
            "Carrer del Teatre",
            "Carrer dels Gavatxons",
            "Carrer de Baldrich",
            "Carrer de la Mina",
            "Calle del Sol",
            "Calle de la Luna",
            "Calle Nueva",
            "Calle del Agua",
            "Calle de la Fuente",
            "Calle del Río",
            "Calle de la Iglesia",
            "Calle San Juan",
            "Calle San Pedro",
            "Calle del Pilar"
        ],
        "Jerez de la Frontera": [
            "Calle Larga",
            "Calle de Lancería",
            "Calle de San Miguel",
            "Calle de Corredera",
            "Calle de Porvera",
            "Calle Divina Pastora",
            "Calle de Honda",
            "Calle de Caballeros",
            "Calle del Duque de Abrantes",
            "Calle de Manuel María González",
            "Calle de Armas",
            "Calle de Letrados",
            "Calle del Consistorio",
            "Calle de Santa María",
            "Calle de la Tornería",
            "Calle de San Pablo",
            "Calle de Medina",
            "Calle del Muro",
            "Alameda Cristina",
            "Calle del Carmen",
            "Calle del Sol",
            "Calle de la Luna",
            "Calle Nueva",
            "Calle del Agua",
            "Calle de la Fuente",
            "Calle del Río",
            "Calle de la Iglesia",
            "Calle San Juan",
            "Calle San Pedro",
            "Calle del Pilar"
        ],
        "Sabadell": [
            "Rambla",
            "Carrer de Gràcia",
            "Carrer de la Indústria",
            "Carrer del Sol",
            "Carrer de Sant Quirze",
            "Passeig de la Plaça Major",
            "Carrer de les Tres Creus",
            "Carrer de Sant Oleguer",
            "Gran Via",
            "Carrer del Doctor Puig",
            "Carrer de Manresa",
            "Carrer de Sant Antoni",
            "Carrer de Sant Joan",
            "Carrer de Cervantes",
            "Carrer de Pi i Margall",
            "Carrer de Narcís Giralt",
            "Carrer de Blasco de Garay",
            "Carrer de Sant Feliu",
            "Carrer de Sant Llorenç",
            "Carrer del Pedregar",
            "Calle del Sol",
            "Calle de la Luna",
            "Calle Nueva",
            "Calle del Agua",
            "Calle de la Fuente",
            "Calle del Río",
            "Calle de la Iglesia",
            "Calle San Juan",
            "Calle San Pedro",
            "Calle del Pilar"
        ],
        "Móstoles": [
            "Calle Real",
            "Avenida de Portugal",
            "Calle de la Constitución",
            "Calle de Pintor El Greco",
            "Calle de Pintor Velázquez",
            "Avenida de la ONU",
            "Calle de Antonio Hernández",
            "Calle de Blas de Otero",
            "Calle del Dos de Mayo",
            "Calle de la Libertad",
            "Avenida de Juan XXIII",
            "Calle de Leganés",
            "Calle del Parque",
            "Calle de San Eugenio",
            "Calle de Don Juan de Borbón",
            "Calle del Prado",
            "Calle de la Travesía",
            "Calle de la Estación",
            "Calle de Miguel Hernández",
            "Calle de Pablo Iglesias",
            "Calle del Sol",
            "Calle de la Luna",
            "Calle Nueva",
            "Calle del Agua",
            "Calle de la Fuente",
            "Calle del Río",
            "Calle de la Iglesia",
            "Calle San Juan",
            "Calle San Pedro",
            "Calle del Pilar"
        ],
        "Alcalá de Henares": [
            "Calle Mayor",
            "Calle Libreros",
            "Paseo de la Estación",
            "Calle de Santa Úrsula",
            "Calle de San Felipe Neri",
            "Vía Complutense",
            "Calle de los Colegios",
            "Calle de San Juan",
            "Calle de la Trinidad",
            "Calle de Escritorios",
            "Calle de Roma",
            "Calle del Empecinado",
            "Calle de Imagen",
            "Calle de la Victoria",
            "Calle de Carmen Calzado",
            "Calle del Cardenal Cisneros",
            "Calle de Santiago",
            "Calle de San Julián",
            "Calle de la Tercia",
            "Calle del Ángel",
            "Calle del Sol",
            "Calle de la Luna",
            "Calle Nueva",
            "Calle del Agua",
            "Calle de la Fuente",
            "Calle del Río",
            "Calle de la Iglesia",
            "Calle San Juan",
            "Calle San Pedro",
            "Calle del Pilar"
        ],
        "Pamplona": [
            "Paseo de Sarasate",
            "Avenida de Carlos III",
            "Calle de García Castañón",
            "Calle de Chapitela",
            "Calle de la Estafeta",
            "Calle Mayor",
            "Calle de Navas de Tolosa",
            "Calle de Paulino Caballero",
            "Avenida de Bayona",
            "Calle de San Nicolás",
            "Calle de San Saturnino",
            "Calle de la Curia",
            "Calle del Carmen",
            "Calle de Mercaderes",
            "Calle de Jarauta",
            "Calle de Descalzos",
            "Avenida de Zaragoza",
            "Calle de Zapatería",
            "Calle de San Gregorio",
            "Calle de Calceteros",
            "Calle del Sol",
            "Calle de la Luna",
            "Calle Nueva",
            "Calle del Agua",
            "Calle de la Fuente",
            "Calle del Río",
            "Calle de la Iglesia",
            "Calle San Juan",
            "Calle San Pedro",
            "Calle del Pilar"
        ],
        "Fuenlabrada": [
            "Calle de la Constitución",
            "Avenida de España",
            "Calle de Leganés",
            "Calle Real",
            "Calle de la Paz",
            "Calle del Parque de San Martín",
            "Calle de la Plaza",
            "Avenida de las Naciones",
            "Calle de Valparaíso",
            "Calle de Granada",
            "Calle de los Frailes",
            "Calle de la Comunidad de Madrid",
            "Calle del Cine",
            "Calle de Roma",
            "Calle de Francia",
            "Calle de la Industria",
            "Calle de Móstoles",
            "Calle de Lisboa",
            "Calle de Noruega",
            "Calle del Polideportivo",
            "Calle del Sol",
            "Calle de la Luna",
            "Calle Nueva",
            "Calle del Agua",
            "Calle de la Fuente",
            "Calle del Río",
            "Calle de la Iglesia",
            "Calle San Juan",
            "Calle San Pedro",
            "Calle del Pilar"
        ],
        "Almería": [
            "Paseo de Almería",
            "Rambla de Belén",
            "Calle de las Tiendas",
            "Avenida de Federico García Lorca",
            "Calle Real",
            "Calle de Reyes Católicos",
            "Calle de Granada",
            "Avenida del Mar",
            "Calle de Eduardo Pérez",
            "Calle del General Tamayo",
            "Calle de la Reina",
            "Calle de Navarro Rodrigo",
            "Calle de Gerona",
            "Calle de Altamira",
            "Calle de Antonio Vico",
            "Calle de Pedro Jover",
            "Calle del Tenor Iribarne",
            "Calle de Padre Alfonso Torres",
            "Calle de la Almedina",
            "Calle de Antonio González Egea",
            "Calle del Sol",
            "Calle de la Luna",
            "Calle Nueva",
            "Calle del Agua",
            "Calle de la Fuente",
            "Calle del Río",
            "Calle de la Iglesia",
            "Calle San Juan",
            "Calle San Pedro",
            "Calle del Pilar"
        ],
        "Leganés": [
            "Avenida de Juan Carlos I",
            "Calle Real",
            "Calle de la Rioja",
            "Calle del Duque de Alba",
            "Calle de San Nicasio",
            "Avenida de Fuenlabrada",
            "Calle de la Comunidad de Madrid",
            "Calle del General Gutiérrez Mellado",
            "Calle de Getafe",
            "Calle del Maestro Alonso",
            "Calle de la Avenida de Gibraltar",
            "Calle de Villaverde",
            "Calle del Gran Canaria",
            "Calle de la Virgen de Butarque",
            "Calle de Luis Sauquillo",
            "Calle de Roma",
            "Avenida de la Universidad",
            "Calle de Portugal",
            "Calle de la Reina Sofía",
            "Calle del Parque Polvoranca",
            "Calle del Sol",
            "Calle de la Luna",
            "Calle Nueva",
            "Calle del Agua",
            "Calle de la Fuente",
            "Calle del Río",
            "Calle de la Iglesia",
            "Calle San Juan",
            "Calle San Pedro",
            "Calle del Pilar"
        ],
        "San Sebastián": [
            "Avenida de la Libertad",
            "Boulevard",
            "Calle Mayor",
            "Calle de Narrica",
            "Calle de San Martín",
            "Calle de Hernani",
            "Paseo de la Concha",
            "Calle del Puerto",
            "Calle de Urbieta",
            "Calle de San Marcial",
            "Avenida de España",
            "Calle de Garibai",
            "Calle de Iñigo",
            "Calle de Prim",
            "Calle de Andía",
            "Calle de Easo",
            "Calle de Peñaflorida",
            "Calle del General Artetxe",
            "Calle de San Juan",
            "Calle de Aldamar",
            "Calle del Sol",
            "Calle de la Luna",
            "Calle Nueva",
            "Calle del Agua",
            "Calle de la Fuente",
            "Calle del Río",
            "Calle de la Iglesia",
            "Calle San Juan",
            "Calle San Pedro",
            "Calle del Pilar"
        ],
        "Santander": [
            "Paseo de Pereda",
            "Calle de Burgos",
            "Calle del Sol",
            "Calle de Juan de Herrera",
            "Avenida de Calvo Sotelo",
            "Calle de Hernán Cortés",
            "Calle de Santa Clara",
            "Calle de San Fernando",
            "Calle de Isabel II",
            "Calle de Lope de Vega",
            "Calle de Vargas",
            "Calle del General Mola",
            "Calle de la Ribera",
            "Calle de Calderón de la Barca",
            "Calle del Martillo",
            "Calle de Cádiz",
            "Paseo de Canalejas",
            "Calle de Jesús de Monasterio",
            "Calle de Medio",
            "Calle de la Blanca",
            "Calle de la Luna",
            "Calle Nueva",
            "Calle del Agua",
            "Calle de la Fuente",
            "Calle del Río",
            "Calle de la Iglesia",
            "Calle San Juan",
            "Calle San Pedro",
            "Calle del Pilar"
        ],
        "Burgos": [
            "Paseo del Espolón",
            "Calle de Vitoria",
            "Calle de Lain Calvo",
            "Calle de San Juan",
            "Calle de Santander",
            "Calle de la Paloma",
            "Calle del Almirante Bonifaz",
            "Calle de San Lesmes",
            "Calle de San Pablo",
            "Calle de San Lorenzo",
            "Calle de Diego Porcelos",
            "Avenida del Cid",
            "Calle de Fernán González",
            "Calle de la Puebla",
            "Calle de San Gil",
            "Calle de Sombrerería",
            "Calle de la Flora",
            "Calle de la Calera",
            "Calle de Miranda",
            "Calle de Moratín",
            "Calle del Sol",
            "Calle de la Luna",
            "Calle Nueva",
            "Calle del Agua",
            "Calle de la Fuente",
            "Calle del Río",
            "Calle de la Iglesia",
            "Calle San Juan",
            "Calle San Pedro",
            "Calle del Pilar"
        ],
        "Castellón de la Plana": [
            "Calle Mayor",
            "Avenida del Rey Don Jaime",
            "Calle de Enmedio",
            "Calle de Colón",
            "Ronda de Mijares",
            "Calle de Alloza",
            "Calle del Gobernador",
            "Calle de Ruiz Zorrilla",
            "Calle de Caballeros",
            "Calle de San Luis",
            "Calle de Conde Pestagua",
            "Paseo de Buenavista",
            "Calle de Mealla",
            "Calle de la Trinidad",
            "Calle de O'Donnell",
            "Calle de Pi y Margall",
            "Calle de Cardona Vives",
            "Avenida de Valencia",
            "Calle del Mar",
            "Calle del Obispo Salinas",
            "Calle del Sol",
            "Calle de la Luna",
            "Calle Nueva",
            "Calle del Agua",
            "Calle de la Fuente",
            "Calle del Río",
            "Calle de la Iglesia",
            "Calle San Juan",
            "Calle San Pedro",
            "Calle del Pilar"
        ],
        "Getafe": [
            "Calle de Madrid",
            "Avenida de España",
            "Calle de la Magdalena",
            "Calle de Ramón y Cajal",
            "Calle de la Estación",
            "Calle de Toledo",
            "Avenida de Juan de la Cierva",
            "Calle del Lucero",
            "Calle del Doctor Marañón",
            "Calle de Leganés",
            "Calle del General Palacios",
            "Calle de San Eugenio",
            "Calle del Polvoranca",
            "Calle de la Constitución",
            "Calle de la Reina Victoria",
            "Calle de María de Guzmán",
            "Avenida de los Ángeles",
            "Calle de Francisco de Vitoria",
            "Calle del Prado",
            "Calle de la Industria",
            "Calle del Sol",
            "Calle de la Luna",
            "Calle Nueva",
            "Calle del Agua",
            "Calle de la Fuente",
            "Calle del Río",
            "Calle de la Iglesia",
            "Calle San Juan",
            "Calle San Pedro",
            "Calle del Pilar"
        ],
        "Albacete": [
            "Paseo de la Libertad",
            "Calle del Marqués de Molins",
            "Calle de Tesifonte Gallego",
            "Calle Mayor",
            "Calle de Isaac Peral",
            "Avenida de España",
            "Calle de Dionisio Guardiola",
            "Calle de Concepción",
            "Calle del Rosario",
            "Calle de Alcalde Conangla",
            "Calle de la Feria",
            "Calle de San Agustín",
            "Calle del Padre Romano",
            "Calle del Altozano",
            "Calle de Tinte",
            "Calle de la Caba",
            "Calle de San Antonio Abad",
            "Calle de Francisco Fontecha",
            "Calle del Doctor Fleming",
            "Calle del Arquitecto Vandelvira",
            "Calle del Sol",
            "Calle de la Luna",
            "Calle Nueva",
            "Calle del Agua",
            "Calle de la Fuente",
            "Calle del Río",
            "Calle de la Iglesia",
            "Calle San Juan",
            "Calle San Pedro",
            "Calle del Pilar"
        ],
        "Alcorcón": [
            "Calle Mayor",
            "Avenida de Lisboa",
            "Calle Real",
            "Avenida de Leganés",
            "Calle de los Pinos",
            "Calle de Pablo Iglesias",
            "Calle del Doctor Fleming",
            "Calle de San José de Valderas",
            "Calle de Fuenlabrada",
            "Avenida de la Constitución",
            "Calle del Parque",
            "Calle de la Paz",
            "Calle de Roma",
            "Calle de Móstoles",
            "Calle de las Retamas",
            "Calle de Olivos",
            "Avenida del Rey Juan Carlos",
            "Calle de la Libertad",
            "Calle de las Acacias",
            "Calle de las Palmeras",
            "Calle del Sol",
            "Calle de la Luna",
            "Calle Nueva",
            "Calle del Agua",
            "Calle de la Fuente",
            "Calle del Río",
            "Calle de la Iglesia",
            "Calle San Juan",
            "Calle San Pedro",
            "Calle del Pilar"
        ],
        "Logroño": [
            "Calle del Portales",
            "Gran Vía del Rey Juan Carlos I",
            "Calle de Bretón de los Herreros",
            "Calle del Laurel",
            "Calle de Vara de Rey",
            "Avenida de Portugal",
            "Calle de Sagasta",
            "Calle del Marqués de Murrieta",
            "Calle de San Antón",
            "Calle del General Vara de Rey",
            "Calle de Vitoria",
            "Calle de Rodríguez Paterna",
            "Calle del Doctor Zubía",
            "Calle del Capitán Gallarza",
            "Calle de Calvo Sotelo",
            "Calle del Marqués de Vallejo",
            "Calle del Norte",
            "Calle de Chile",
            "Calle de la Rioja",
            "Calle de Once de Junio",
            "Calle del Sol",
            "Calle de la Luna",
            "Calle Nueva",
            "Calle del Agua",
            "Calle de la Fuente",
            "Calle del Río",
            "Calle de la Iglesia",
            "Calle San Juan",
            "Calle San Pedro",
            "Calle del Pilar"
        ],
        "Badajoz": [
            "Avenida de Huelva",
            "Calle de San Juan",
            "Calle del Obispo",
            "Calle de Menacho",
            "Calle de Santa Lucía",
            "Paseo de San Francisco",
            "Calle del Duque de San Germán",
            "Avenida de Elvas",
            "Calle de Virgen de la Soledad",
            "Calle del Arco Agüero",
            "Calle de Zurbarán",
            "Calle de Hernán Cortés",
            "Calle del Pilar",
            "Calle de Santo Domingo",
            "Avenida de Colón",
            "Calle de Felipe Checa",
            "Calle del Prior",
            "Calle de la Virgen de Guadalupe",
            "Calle del Sepulcro",
            "Calle del Museo",
            "Calle del Sol",
            "Calle de la Luna",
            "Calle Nueva",
            "Calle del Agua",
            "Calle de la Fuente",
            "Calle del Río",
            "Calle de la Iglesia",
            "Calle San Juan",
            "Calle San Pedro"
        ],
        "Salamanca": [
            "Calle de Toro",
            "Gran Vía",
            "Paseo de Canalejas",
            "Calle del Azafranal",
            "Calle de Zamora",
            "Calle del Prior",
            "Calle de Rúa Mayor",
            "Calle de Meléndez",
            "Calle del Doctor Riesco",
            "Calle de San Pablo",
            "Calle de la Compañía",
            "Avenida de Portugal",
            "Calle de Libreros",
            "Calle de la Rúa",
            "Calle de San Justo",
            "Calle del Pozo Amarillo",
            "Calle de Iscar Peyra",
            "Calle de García Barrado",
            "Calle de Espoz y Mina",
            "Calle del Rector Esperabé",
            "Calle del Sol",
            "Calle de la Luna",
            "Calle Nueva",
            "Calle del Agua",
            "Calle de la Fuente",
            "Calle del Río",
            "Calle de la Iglesia",
            "Calle San Juan",
            "Calle San Pedro",
            "Calle del Pilar"
        ],
        "Huelva": [
            "Calle de la Concepción",
            "Gran Vía",
            "Avenida de Martín Alonso Pinzón",
            "Alameda Sundheim",
            "Calle Plus Ultra",
            "Calle del Puerto",
            "Calle de Rascón",
            "Calle de Pablo Rada",
            "Calle de Berdigón",
            "Avenida de Italia",
            "Calle de San José",
            "Calle de las Monjas",
            "Calle de Vázquez López",
            "Calle de Jesús Nazareno",
            "Calle de Ginés Martín",
            "Paseo de los Naranjos",
            "Calle del Carmen",
            "Calle de la Marina",
            "Calle de Fernando el Católico",
            "Calle de Palacio",
            "Calle del Sol",
            "Calle de la Luna",
            "Calle Nueva",
            "Calle del Agua",
            "Calle de la Fuente",
            "Calle del Río",
            "Calle de la Iglesia",
            "Calle San Juan",
            "Calle San Pedro",
            "Calle del Pilar"
        ],
        "Lleida": [
            "Rambla de Ferran",
            "Avinguda de Prat de la Riba",
            "Carrer Major",
            "Avinguda de Blondel",
            "Carrer de Sant Antoni",
            "Carrer de la Magdalena",
            "Carrer del Carme",
            "Avinguda de Catalunya",
            "Carrer de Cavallers",
            "Carrer de Ballester",
            "Carrer de l'Alcalde Costa",
            "Carrer de l'Acadèmia",
            "Avinguda del Segre",
            "Carrer de Pi i Margall",
            "Carrer de Lluís Companys",
            "Carrer del Doctor Fleming",
            "Carrer de Sant Martí",
            "Carrer de Maragall",
            "Carrer del Bisbe",
            "Carrer de Comtes d'Urgell",
            "Calle del Sol",
            "Calle de la Luna",
            "Calle Nueva",
            "Calle del Agua",
            "Calle de la Fuente",
            "Calle del Río",
            "Calle de la Iglesia",
            "Calle San Juan",
            "Calle San Pedro",
            "Calle del Pilar"
        ],
        "Tarragona": [
            "Rambla Nova",
            "Carrer Major",
            "Passeig de les Palmeres",
            "Carrer de l'Assalt",
            "Carrer de la Unió",
            "Carrer de Sant Agustí",
            "Via Augusta",
            "Carrer de Gasòmetre",
            "Carrer de Méndez Núñez",
            "Carrer de Fortuny",
            "Carrer de Sant Francesc",
            "Carrer del Comte de Rius",
            "Avinguda de Catalunya",
            "Carrer del Cos del Bou",
            "Carrer de Lleida",
            "Carrer de la Nau",
            "Carrer d'August",
            "Passeig de Sant Antoni",
            "Carrer del Canyelles",
            "Carrer de Cervantes",
            "Calle del Sol",
            "Calle de la Luna",
            "Calle Nueva",
            "Calle del Agua",
            "Calle de la Fuente",
            "Calle del Río",
            "Calle de la Iglesia",
            "Calle San Juan",
            "Calle San Pedro",
            "Calle del Pilar"
        ],
        "León": [
            "Calle Ancha",
            "Avenida de Ordoño II",
            "Calle de Burgo Nuevo",
            "Calle de la Rúa",
            "Calle de Generalísimo Franco",
            "Calle de la Independencia",
            "Avenida de la República Argentina",
            "Calle de Fajeros",
            "Calle del Cid",
            "Calle de Santa Nonia",
            "Avenida de Roma",
            "Calle de Ramiro II",
            "Calle del Alcázar de Toledo",
            "Calle de Padre Isla",
            "Calle de Fernando I",
            "Calle del Cardenal Landázuri",
            "Calle de Villa Benavente",
            "Calle de San Agustín",
            "Calle de Lancia",
            "Calle del Pozo",
            "Calle del Sol",
            "Calle de la Luna",
            "Calle Nueva",
            "Calle del Agua",
            "Calle de la Fuente",
            "Calle del Río",
            "Calle de la Iglesia",
            "Calle San Juan",
            "Calle San Pedro",
            "Calle del Pilar"
        ],
        "Cádiz": [
            "Calle Ancha",
            "Avenida de Andalucía",
            "Calle de San Francisco",
            "Calle de Nueva",
            "Calle de Columela",
            "Paseo Marítimo",
            "Calle de la Rosa",
            "Calle del Sagasta",
            "Campo del Sur",
            "Calle de Antonio López",
            "Calle del Sacramento",
            "Calle del Obispo Calvo y Valero",
            "Calle de la Torre",
            "Calle de San José",
            "Calle del Rosario",
            "Avenida del Puerto",
            "Calle de Enrique de las Marinas",
            "Calle de Plocia",
            "Calle de San Félix",
            "Paseo de Canalejas",
            "Calle del Sol",
            "Calle de la Luna",
            "Calle Nueva",
            "Calle del Agua",
            "Calle de la Fuente",
            "Calle del Río",
            "Calle de la Iglesia",
            "Calle San Juan",
            "Calle San Pedro",
            "Calle del Pilar"
        ],
        "Jaén": [
            "Paseo de la Estación",
            "Calle de Bernabé Soriano",
            "Avenida de Madrid",
            "Calle de Roldán y Marín",
            "Calle de San Clemente",
            "Calle del Arco del Consuelo",
            "Calle de Maestra",
            "Calle de la Virgen de la Capilla",
            "Calle de Bernardo López",
            "Calle del Doctor Sagaz",
            "Calle del Millán de Priego",
            "Avenida de Andalucía",
            "Calle de San Juan",
            "Calle del Cerón",
            "Calle de Muñoz Garnica",
            "Calle de la Carrera de Jesús",
            "Paseo de los Álamos",
            "Calle del Conde",
            "Calle de Martínez Molina",
            "Calle de Santa Úrsula",
            "Calle del Sol",
            "Calle de la Luna",
            "Calle Nueva",
            "Calle del Agua",
            "Calle de la Fuente",
            "Calle del Río",
            "Calle de la Iglesia",
            "Calle San Juan",
            "Calle San Pedro",
            "Calle del Pilar"
        ],
        "Ourense": [
            "Rúa do Paseo",
            "Rúa de Santo Domingo",
            "Calle de Lamas Carvajal",
            "Rúa do Progreso",
            "Calle del Doctor Cabaleiro",
            "Avenida de Zamora",
            "Rúa da Paz",
            "Calle de Juan XXIII",
            "Rúa do Xardín",
            "Calle del Cardenal Quevedo",
            "Alameda do Concello",
            "Rúa de Celso Emilio Ferreiro",
            "Calle de la Valle Inclán",
            "Rúa de Curros Enríquez",
            "Avenida de Pontevedra",
            "Calle del Obispo Cerviño",
            "Rúa das Burgas",
            "Calle de Hernán Cortés",
            "Rúa da Concordia",
            "Calle del Padre Feijoo",
            "Calle del Sol",
            "Calle de la Luna",
            "Calle Nueva",
            "Calle del Agua",
            "Calle de la Fuente",
            "Calle del Río",
            "Calle de la Iglesia",
            "Calle San Juan",
            "Calle San Pedro",
            "Calle del Pilar"
        ],
        "Lugo": [
            "Rúa da Raíña",
            "Praza Maior",
            "Rúa San Pedro",
            "Rúa Nova",
            "Rúa do Progreso",
            "Rúa da Cruz",
            "Avenida de A Coruña",
            "Rúa do Teatro",
            "Rúa de San Marcos",
            "Rúa das Fontiñas",
            "Rúa de Montevideo",
            "Rúa do Doutor Castro",
            "Ronda de la Muralla",
            "Rúa do Carme",
            "Rúa de San Fernando",
            "Rúa do Miño",
            "Avenida de Madrid",
            "Rúa da Tinería",
            "Rúa de Armanyá",
            "Rúa do Campo Castelo",
            "Calle del Sol",
            "Calle de la Luna",
            "Calle Nueva",
            "Calle del Agua",
            "Calle de la Fuente",
            "Calle del Río",
            "Calle de la Iglesia",
            "Calle San Juan",
            "Calle San Pedro",
            "Calle del Pilar"
        ],
        "Girona": [
            "Rambla de la Llibertat",
            "Carrer de Santa Clara",
            "Carrer del Carme",
            "Gran Via de Jaume I",
            "Carrer de la Força",
            "Carrer de les Ballesteries",
            "Carrer del Pont de Pedra",
            "Avinguda de Sant Francesc",
            "Carrer de Nou",
            "Carrer de la Cort Reial",
            "Carrer de Ciutadans",
            "Carrer dels Alemanys",
            "Plaça de Catalunya",
            "Carrer de la Ferreria Vella",
            "Carrer de l'Argenteria",
            "Carrer de Bonaventura Carreras i Peralta",
            "Passeig de la Copa",
            "Carrer de Sant Martí",
            "Carrer del Doctor Puig",
            "Carrer de la Barca",
            "Calle del Sol",
            "Calle de la Luna",
            "Calle Nueva",
            "Calle del Agua",
            "Calle de la Fuente",
            "Calle del Río",
            "Calle de la Iglesia",
            "Calle San Juan",
            "Calle San Pedro",
            "Calle del Pilar"
        ],
        "Cáceres": [
            "Avenida de España",
            "Calle de Pintores",
            "Calle del General Ezponda",
            "Calle de Moret",
            "Calle del Doctor Fleming",
            "Calle de Sergio Sánchez",
            "Calle de San Antón",
            "Calle de Gabriel y Galán",
            "Avenida de Alemania",
            "Calle del Padre Rosalío",
            "Calle de San Juan",
            "Calle de los Fueros",
            "Calle de Sancti Spíritus",
            "Calle del Arco de la Estrella",
            "Calle del Arco del Rey",
            "Paseo de Cánovas",
            "Calle de San Pedro",
            "Calle del Gran Vía",
            "Calle de Cruz de los Caídos",
            "Calle del Nido",
            "Calle del Sol",
            "Calle de la Luna",
            "Calle Nueva",
            "Calle del Agua",
            "Calle de la Fuente",
            "Calle del Río",
            "Calle de la Iglesia",
            "Calle San Juan",
            "Calle San Pedro",
            "Calle del Pilar"
        ],
        "Toledo": [
            "Calle del Comercio",
            "Calle de Santo Tomé",
            "Cuesta de Carlos V",
            "Calle del Hombre de Palo",
            "Calle de la Sillería",
            "Paseo de Merchán",
            "Calle de Santa Úrsula",
            "Calle de Alfonso X el Sabio",
            "Avenida de la Reconquista",
            "Calle de las Tendillas",
            "Calle de la Trinidad",
            "Calle de la Plata",
            "Paseo del Tránsito",
            "Calle de San Juan de Dios",
            "Calle de San Ildefonso",
            "Calle del Ángel",
            "Calle de Alfonso VI",
            "Calle de Núñez de Arce",
            "Calle de San Cipriano",
            "Calle del Cardenal Cisneros",
            "Calle del Sol",
            "Calle de la Luna",
            "Calle Nueva",
            "Calle del Agua",
            "Calle de la Fuente",
            "Calle del Río",
            "Calle de la Iglesia",
            "Calle San Juan",
            "Calle San Pedro",
            "Calle del Pilar"
        ],
        "Segovia": [
            "Calle Real",
            "Calle de Juan Bravo",
            "Calle de Isabel la Católica",
            "Calle de Cervantes",
            "Calle de San Francisco",
            "Avenida del Padre Claret",
            "Calle de Daoíz",
            "Paseo de Ezequiel González",
            "Calle del Doctor Velasco",
            "Calle de la Infanta Isabel",
            "Calle de José Zorrilla",
            "Calle de San Agustín",
            "Calle del Marqués del Arco",
            "Calle de Covarrubias",
            "Calle del Cronista Lecea",
            "Calle de San Juan",
            "Avenida de Fernández Ladreda",
            "Calle de la Trinidad",
            "Calle de la Judería Vieja",
            "Calle de Colón",
            "Calle del Sol",
            "Calle de la Luna",
            "Calle Nueva",
            "Calle del Agua",
            "Calle de la Fuente",
            "Calle del Río",
            "Calle de la Iglesia",
            "Calle San Juan",
            "Calle San Pedro",
            "Calle del Pilar"
        ],
        "Ávila": [
            "Calle de los Reyes Católicos",
            "Paseo del Rastro",
            "Calle de San Segundo",
            "Calle de la Cruz Vieja",
            "Calle del Duque de Alba",
            "Avenida de Portugal",
            "Calle de Tomás Luis de Victoria",
            "Calle de Don Gerónimo",
            "Calle del Tostado",
            "Calle de Vallespín",
            "Calle de San Juan de la Cruz",
            "Avenida de Madrid",
            "Calle del Doctor Fleming",
            "Calle de Isaac Peral",
            "Calle de Santa Teresa",
            "Calle de la Encarnación",
            "Paseo de San Roque",
            "Calle del Marqués de Canales de Chozas",
            "Calle de Esteban Domingo",
            "Calle de Alemania",
            "Calle del Sol",
            "Calle de la Luna",
            "Calle Nueva",
            "Calle del Agua",
            "Calle de la Fuente",
            "Calle del Río",
            "Calle de la Iglesia",
            "Calle San Juan",
            "Calle San Pedro",
            "Calle del Pilar"
        ],
        "Cuenca": [
            "Calle de Carretería",
            "Calle de Fray Luis de León",
            "Avenida de la República Argentina",
            "Calle del Alfonso VIII",
            "Calle de San Pedro",
            "Calle de Julián Romero",
            "Paseo de San Antonio",
            "Calle de las Torres",
            "Calle del Doctor Galíndez",
            "Calle de Colón",
            "Calle de la Calderería",
            "Ronda de Julián Romero",
            "Calle de Pilares",
            "Calle de Santa María",
            "Calle del Trabuco",
            "Paseo del Huécar",
            "Calle de San Juan",
            "Calle de Aguirre",
            "Calle de la Correduría",
            "Avenida de los Alfares",
            "Calle del Sol",
            "Calle de la Luna",
            "Calle Nueva",
            "Calle del Agua",
            "Calle de la Fuente",
            "Calle del Río",
            "Calle de la Iglesia",
            "Calle San Juan",
            "Calle San Pedro",
            "Calle del Pilar"
        ],
        "Santiago de Compostela": [
            "Rúa do Franco",
            "Rúa do Vilar",
            "Rúa Nova",
            "Rúa das Hortas",
            "Avenida de Rosalía de Castro",
            "Rúa do Preguntoiro",
            "Rúa das Orfas",
            "Rúa da Raiña",
            "Rúa do Toural",
            "Rúa de San Pedro",
            "Rúa da Senra",
            "Rúa de Montero Ríos",
            "Praza de Galicia",
            "Rúa da Caldeirería",
            "Rúa do Pombal",
            "Rúa de Xelmírez",
            "Rúa da Algalia de Arriba",
            "Rúa de San Roque",
            "Rúa do Castro",
            "Rúa do Cardenal Payá",
            "Calle del Sol",
            "Calle de la Luna",
            "Calle Nueva",
            "Calle del Agua",
            "Calle de la Fuente",
            "Calle del Río",
            "Calle de la Iglesia",
            "Calle San Juan",
            "Calle San Pedro",
            "Calle del Pilar"
        ],
        "Ibiza": [
            "Passeig de Vara de Rey",
            "Carrer de la Mare de Déu",
            "Carrer d'Aragó",
            "Carrer de Felip II",
            "Avinguda d'Espanya",
            "Carrer d'Antoni Palau",
            "Carrer del Bisbe Cardona",
            "Carrer de Carles III",
            "Carrer del Comte Rosselló",
            "Passeig Marítim",
            "Carrer de Riambau",
            "Carrer de Pere Tur",
            "Carrer de Bartomeu Roselló",
            "Avinguda de la Pau",
            "Carrer de Joan Xicó",
            "Carrer de Balanzat",
            "Carrer del Port",
            "Carrer de Catalunya",
            "Carrer de Madrid",
            "Carrer de Pere de Portugal",
            "Calle del Sol",
            "Calle de la Luna",
            "Calle Nueva",
            "Calle del Agua",
            "Calle de la Fuente",
            "Calle del Río",
            "Calle de la Iglesia",
            "Calle San Juan",
            "Calle San Pedro",
            "Calle del Pilar"
        ],
        "Marbella": [
            "Avenida de Ricardo Soriano",
            "Calle de Ramón y Cajal",
            "Calle del Mar",
            "Avenida del Mar",
            "Paseo Marítimo",
            "Calle de Jacinto Benavente",
            "Calle del Pedraza",
            "Calle de Huerta Chica",
            "Calle de Carmen",
            "Calle del Caballero",
            "Calle de San Juan de Dios",
            "Avenida de Nabeul",
            "Calle del Refugio",
            "Calle de Ancha",
            "Calle de los Alamos",
            "Calle de Nueva",
            "Paseo de la Alameda",
            "Calle de Tetuán",
            "Calle de Gloria",
            "Calle de la Virgen del Pilar",
            "Calle del Sol",
            "Calle de la Luna",
            "Calle Nueva",
            "Calle del Agua",
            "Calle de la Fuente",
            "Calle del Río",
            "Calle de la Iglesia",
            "Calle San Juan",
            "Calle San Pedro",
            "Calle del Pilar"
        ],
        "Ronda": [
            "Calle de la Bola",
            "Calle Espinel",
            "Calle de Virgen de la Paz",
            "Paseo de Blas Infante",
            "Calle Armiñán",
            "Avenida de Málaga",
            "Calle Real",
            "Calle de Nueva",
            "Calle de Jerez",
            "Calle del Marqués de Salvatierra",
            "Calle de los Remedios",
            "Calle de Santo Domingo",
            "Calle del Tenorio",
            "Alameda del Tajo",
            "Calle de San Francisco",
            "Calle del Padre Mariano Soubirón",
            "Calle de Molino",
            "Calle del Río",
            "Carrera de Espinel",
            "Calle de José Aparicio",
            "Calle del Sol",
            "Calle de la Luna",
            "Calle Nueva",
            "Calle del Agua",
            "Calle de la Fuente",
            "Calle de la Iglesia",
            "Calle San Juan",
            "Calle San Pedro",
            "Calle del Pilar"
        ],
        "Soria": [
            "Avenida Mayor",
            "Avenida del Carmen",
            "Avenida del Norte",
            "Calle Mayor",
            "Calle de la Libertad",
            "Camino del Sol",
            "Carrer Mayor",
            "Carrer de la Iglesia",
            "Carrer de los Jardines",
            "Carretera del Hospital",
            "Paseo del Sur",
            "Plaza de la Libertad",
            "Plaza de la Paz",
            "Plaza del Príncipe",
            "Plaza del Rey",
            "Ronda de San Juan",
            "Ronda de la Paz",
            "Rúa Nueva",
            "Rúa de los Jardines",
            "Rúa del Carmen",
            "Calle del Sol",
            "Calle de la Luna",
            "Calle Nueva",
            "Calle del Agua",
            "Calle de la Fuente",
            "Calle del Río",
            "Calle de la Iglesia",
            "Calle San Juan",
            "Calle San Pedro",
            "Calle del Pilar"
        ],
        "Mérida": [
            "Avenida Real",
            "Avenida de Velázquez",
            "Avenida de la Estación",
            "Avenida del Parque",
            "Calle de España",
            "Camino de San Pedro",
            "Camino de Santiago",
            "Camino de la Constitución",
            "Camino de la Estación",
            "Carrer de Goya",
            "Carretera Nueva",
            "Plaza de Cervantes",
            "Plaza de la Libertad",
            "Plaza del Norte",
            "Plaza del Sur",
            "Ronda Nueva",
            "Ronda del General Franco",
            "Ronda del Príncipe",
            "Rúa del Mercado",
            "Travesía de Santa María",
            "Calle del Sol",
            "Calle de la Luna",
            "Calle Nueva",
            "Calle del Agua",
            "Calle de la Fuente",
            "Calle del Río",
            "Calle de la Iglesia",
            "Calle San Juan",
            "Calle San Pedro",
            "Calle del Pilar"
        ],
        "Algeciras": [
            "Avenida de Santiago",
            "Calle de San Juan",
            "Calle del General Franco",
            "Camino de Colón",
            "Camino del Carmen",
            "Camino del Parque",
            "Carrer de Goya",
            "Paseo de Santa María",
            "Plaza de España",
            "Plaza de Velázquez",
            "Plaza de la Constitución",
            "Ronda Nueva",
            "Ronda de España",
            "Ronda de Velázquez",
            "Ronda de la Paz",
            "Ronda del Sur",
            "Rúa de San Juan",
            "Rúa de Santa María",
            "Travesía de la Paz",
            "Travesía del Parque",
            "Calle del Sol",
            "Calle de la Luna",
            "Calle Nueva",
            "Calle del Agua",
            "Calle de la Fuente",
            "Calle del Río",
            "Calle de la Iglesia",
            "Calle San Juan",
            "Calle San Pedro",
            "Calle del Pilar"
        ],
        "Chiclana de la Frontera": [
            "Avenida de la Paz",
            "Avenida del Norte",
            "Avenida del Parque",
            "Calle de Cervantes",
            "Calle de España",
            "Calle del Norte",
            "Camino de San Juan",
            "Camino del Sol",
            "Carrer de los Jardines",
            "Carrer del Parque",
            "Carretera de Santiago",
            "Paseo del General Franco",
            "Paseo del Príncipe",
            "Paseo del Rey",
            "Ronda de Santa María",
            "Ronda de la Libertad",
            "Ronda de los Jardines",
            "Rúa de la Libertad",
            "Travesía Nueva",
            "Travesía del Rey",
            "Calle del Sol",
            "Calle de la Luna",
            "Calle Nueva",
            "Calle del Agua",
            "Calle de la Fuente",
            "Calle del Río",
            "Calle de la Iglesia",
            "Calle San Juan",
            "Calle San Pedro",
            "Calle del Pilar"
        ],
        "Dos Hermanas": [
            "Avenida de Cervantes",
            "Avenida de España",
            "Avenida de la Libertad",
            "Calle de San Juan",
            "Calle de Santiago",
            "Calle del Sol",
            "Camino de Goya",
            "Camino de la Libertad",
            "Camino de la Reina",
            "Carrer Nueva",
            "Paseo de Santa María",
            "Paseo del Rey",
            "Plaza de la Paz",
            "Ronda de Colón",
            "Ronda de San Juan",
            "Ronda del Rey",
            "Rúa de Santiago",
            "Rúa de Velázquez",
            "Rúa de la Libertad",
            "Travesía de Colón",
            "Calle de la Luna",
            "Calle Nueva",
            "Calle del Agua",
            "Calle de la Fuente",
            "Calle del Río",
            "Calle de la Iglesia",
            "Calle San Juan",
            "Calle San Pedro",
            "Calle del Pilar"
        ],
        "Ceuta": [
            "Avenida de Goya",
            "Avenida de San Juan",
            "Avenida del Sur",
            "Calle de San Juan",
            "Camino Mayor",
            "Camino del Príncipe",
            "Carrer de Santa María",
            "Carrer de los Jardines",
            "Paseo de la Iglesia",
            "Paseo de la Paz",
            "Plaza Mayor",
            "Plaza Nueva",
            "Plaza de San Pedro",
            "Plaza de Velázquez",
            "Plaza del Sur",
            "Ronda del Parque",
            "Rúa de Cervantes",
            "Rúa de la Libertad",
            "Rúa del Príncipe",
            "Travesía de Santa María",
            "Calle del Sol",
            "Calle de la Luna",
            "Calle Nueva",
            "Calle del Agua",
            "Calle de la Fuente",
            "Calle del Río",
            "Calle de la Iglesia",
            "Calle San Juan",
            "Calle San Pedro",
            "Calle del Pilar"
        ],
        "Torrelavega": [
            "Avenida Real",
            "Avenida de San Juan",
            "Avenida del Sol",
            "Calle de Cervantes",
            "Calle del Norte",
            "Camino Nueva",
            "Camino del General Franco",
            "Carrer de San Pedro",
            "Carretera de España",
            "Carretera de la Estación",
            "Carretera de los Jardines",
            "Carretera del Carmen",
            "Plaza del Carmen",
            "Ronda del Norte",
            "Rúa de San Juan",
            "Rúa de la Paz",
            "Travesía de Cervantes",
            "Travesía de San Juan",
            "Travesía del Carmen",
            "Travesía del General Franco",
            "Calle del Sol",
            "Calle de la Luna",
            "Calle Nueva",
            "Calle del Agua",
            "Calle de la Fuente",
            "Calle del Río",
            "Calle de la Iglesia",
            "Calle San Juan",
            "Calle San Pedro",
            "Calle del Pilar"
        ],
        "Torrevieja": [
            "Avenida del Príncipe",
            "Calle Nueva",
            "Calle de la Constitución",
            "Calle de la Victoria",
            "Carretera Mayor",
            "Carretera de Goya",
            "Carretera de la Iglesia",
            "Carretera de la Reina",
            "Carretera del Sur",
            "Paseo de la Iglesia",
            "Paseo de los Jardines",
            "Plaza de la Constitución",
            "Rúa de Colón",
            "Rúa del Norte",
            "Rúa del Príncipe",
            "Rúa del Sol",
            "Travesía de San Juan",
            "Travesía de la Paz",
            "Travesía del Carmen",
            "Travesía del Mercado",
            "Calle del Sol",
            "Calle de la Luna",
            "Calle del Agua",
            "Calle de la Fuente",
            "Calle del Río",
            "Calle de la Iglesia",
            "Calle San Juan",
            "Calle San Pedro",
            "Calle del Pilar"
        ],
        "Lorca": [
            "Avenida de Cervantes",
            "Avenida de Goya",
            "Avenida de los Jardines",
            "Calle de San Pedro",
            "Calle de Santiago",
            "Calle del Rey",
            "Camino Real",
            "Carrer Nueva",
            "Carrer de España",
            "Carrer de San Juan",
            "Carrer de San Pedro",
            "Carrer de Santiago",
            "Paseo Nueva",
            "Plaza Real",
            "Plaza del Mercado",
            "Plaza del Parque",
            "Rúa Real",
            "Rúa de la Constitución",
            "Rúa del Hospital",
            "Travesía del Rey",
            "Calle del Sol",
            "Calle de la Luna",
            "Calle Nueva",
            "Calle del Agua",
            "Calle de la Fuente",
            "Calle del Río",
            "Calle de la Iglesia",
            "Calle San Juan",
            "Calle San Pedro",
            "Calle del Pilar"
        ],
        "Zamora": [
            "Avenida Mayor",
            "Avenida de Goya",
            "Avenida de Santa María",
            "Camino de Goya",
            "Camino de San Juan",
            "Camino de Velázquez",
            "Carrer del Sol",
            "Paseo del Norte",
            "Plaza de la Estación",
            "Plaza del Rey",
            "Ronda de Santiago",
            "Ronda de la Constitución",
            "Ronda de la Paz",
            "Ronda del Carmen",
            "Ronda del Parque",
            "Ronda del Príncipe",
            "Rúa Mayor",
            "Rúa del Sur",
            "Travesía de Colón",
            "Travesía de Santiago",
            "Calle del Sol",
            "Calle de la Luna",
            "Calle Nueva",
            "Calle del Agua",
            "Calle de la Fuente",
            "Calle del Río",
            "Calle de la Iglesia",
            "Calle San Juan",
            "Calle San Pedro",
            "Calle del Pilar"
        ],
        "Melilla": [
            "Avenida de España",
            "Avenida de Goya",
            "Calle Nueva",
            "Calle del Hospital",
            "Calle del Sol",
            "Camino del Carmen",
            "Carrer del Carmen",
            "Carretera de Colón",
            "Carretera de Santa María",
            "Paseo de Santa María",
            "Paseo de la Iglesia",
            "Paseo de la Victoria",
            "Ronda Real",
            "Ronda de la Constitución",
            "Ronda del Mercado",
            "Ronda del Rey",
            "Rúa de la Paz",
            "Rúa del Mercado",
            "Travesía de Santa María",
            "Travesía de la Iglesia",
            "Calle de la Luna",
            "Calle del Agua",
            "Calle de la Fuente",
            "Calle del Río",
            "Calle de la Iglesia",
            "Calle San Juan",
            "Calle San Pedro",
            "Calle del Pilar"
        ],
        "Guadalajara": [
            "Avenida de la Estación",
            "Calle de Colón",
            "Calle de Goya",
            "Calle del Mercado",
            "Camino de Goya",
            "Camino de San Pedro",
            "Camino del Carmen",
            "Camino del General Franco",
            "Carretera Mayor",
            "Carretera de Santiago",
            "Carretera de la Paz",
            "Carretera del General Franco",
            "Paseo de España",
            "Paseo de Goya",
            "Paseo de Velázquez",
            "Paseo del General Franco",
            "Plaza de Cervantes",
            "Plaza del Norte",
            "Rúa de Goya",
            "Rúa de la Paz",
            "Calle del Sol",
            "Calle de la Luna",
            "Calle Nueva",
            "Calle del Agua",
            "Calle de la Fuente",
            "Calle del Río",
            "Calle de la Iglesia",
            "Calle San Juan",
            "Calle San Pedro",
            "Calle del Pilar"
        ],
        "Teruel": [
            "Avenida de la Libertad",
            "Avenida del Parque",
            "Calle de Cervantes",
            "Calle del Norte",
            "Calle del Sol",
            "Camino de la Iglesia",
            "Carrer de la Iglesia",
            "Carrer de los Jardines",
            "Paseo del General Franco",
            "Plaza de Colón",
            "Plaza de San Juan",
            "Plaza de la Iglesia",
            "Plaza del Parque",
            "Ronda de Colón",
            "Ronda de la Constitución",
            "Ronda de la Estación",
            "Rúa del Hospital",
            "Rúa del Parque",
            "Travesía de San Juan",
            "Travesía de la Estación",
            "Calle de la Luna",
            "Calle Nueva",
            "Calle del Agua",
            "Calle de la Fuente",
            "Calle del Río",
            "Calle de la Iglesia",
            "Calle San Juan",
            "Calle San Pedro",
            "Calle del Pilar"
        ],
        "Orihuela": [
            "Avenida de España",
            "Avenida del Parque",
            "Camino de España",
            "Camino de Santiago",
            "Camino de los Jardines",
            "Camino del Norte",
            "Carrer del Carmen",
            "Carrer del Rey",
            "Carretera Mayor",
            "Carretera Nueva",
            "Carretera del Hospital",
            "Carretera del Sur",
            "Paseo del Carmen",
            "Plaza de la Estación",
            "Ronda Real",
            "Ronda de Santa María",
            "Ronda del Norte",
            "Ronda del Rey",
            "Rúa de Velázquez",
            "Rúa del Norte",
            "Calle del Sol",
            "Calle de la Luna",
            "Calle Nueva",
            "Calle del Agua",
            "Calle de la Fuente",
            "Calle del Río",
            "Calle de la Iglesia",
            "Calle San Juan",
            "Calle San Pedro",
            "Calle del Pilar"
        ],
        "Reus": [
            "Avenida de Colón",
            "Avenida del Mercado",
            "Calle del Mercado",
            "Camino del Príncipe",
            "Carrer de Santiago",
            "Carrer del Hospital",
            "Carrer del Mercado",
            "Carretera de Santa María",
            "Carretera del General Franco",
            "Carretera del Norte",
            "Paseo de Santiago",
            "Paseo del Norte",
            "Plaza de la Paz",
            "Plaza del Norte",
            "Plaza del Rey",
            "Ronda de San Juan",
            "Ronda del Carmen",
            "Rúa del Norte",
            "Travesía del General Franco",
            "Travesía del Príncipe",
            "Calle del Sol",
            "Calle de la Luna",
            "Calle Nueva",
            "Calle del Agua",
            "Calle de la Fuente",
            "Calle del Río",
            "Calle de la Iglesia",
            "Calle San Juan",
            "Calle San Pedro",
            "Calle del Pilar"
        ],
        "Ciudad Real": [
            "Avenida de la Libertad",
            "Avenida del Príncipe",
            "Calle Real",
            "Calle de Goya",
            "Calle de Santa María",
            "Carrer de Cervantes",
            "Carrer del Carmen",
            "Carrer del Hospital",
            "Carretera de Goya",
            "Carretera de San Juan",
            "Carretera de la Reina",
            "Paseo de la Victoria",
            "Paseo del General Franco",
            "Plaza de Velázquez",
            "Plaza de la Reina",
            "Rúa de Santa María",
            "Rúa de los Jardines",
            "Rúa del Príncipe",
            "Travesía de Santiago",
            "Travesía del Norte",
            "Calle del Sol",
            "Calle de la Luna",
            "Calle Nueva",
            "Calle del Agua",
            "Calle de la Fuente",
            "Calle del Río",
            "Calle de la Iglesia",
            "Calle San Juan",
            "Calle San Pedro",
            "Calle del Pilar"
        ],
        "Torremolinos": [
            "Calle del Carmen",
            "Camino de Goya",
            "Camino de Santa María",
            "Carretera de los Jardines",
            "Paseo de España",
            "Paseo de la Paz",
            "Paseo del Sur",
            "Plaza Nueva",
            "Plaza de Colón",
            "Plaza de la Iglesia",
            "Plaza del Parque",
            "Ronda de San Juan",
            "Ronda de la Libertad",
            "Ronda del Hospital",
            "Rúa Nueva",
            "Rúa de la Reina",
            "Rúa del Príncipe",
            "Travesía Nueva",
            "Travesía de los Jardines",
            "Travesía del Príncipe",
            "Calle del Sol",
            "Calle de la Luna",
            "Calle Nueva",
            "Calle del Agua",
            "Calle de la Fuente",
            "Calle del Río",
            "Calle de la Iglesia",
            "Calle San Juan",
            "Calle San Pedro",
            "Calle del Pilar"
        ],
        "Benidorm": [
            "Calle de Cervantes",
            "Calle del Parque",
            "Camino del Mercado",
            "Camino del Norte",
            "Carrer de Goya",
            "Carrer del Parque",
            "Carrer del Sur",
            "Carretera de Cervantes",
            "Carretera de España",
            "Carretera de Santa María",
            "Carretera de la Reina",
            "Carretera del Parque",
            "Paseo de Colón",
            "Paseo de Santiago",
            "Plaza de la Iglesia",
            "Plaza de la Reina",
            "Rúa Mayor",
            "Rúa del General Franco",
            "Travesía Mayor",
            "Travesía de Velázquez",
            "Calle del Sol",
            "Calle de la Luna",
            "Calle Nueva",
            "Calle del Agua",
            "Calle de la Fuente",
            "Calle del Río",
            "Calle de la Iglesia",
            "Calle San Juan",
            "Calle San Pedro",
            "Calle del Pilar"
        ],
        "Huesca": [
            "Avenida de la Libertad",
            "Avenida de la Reina",
            "Calle Nueva",
            "Calle de España",
            "Calle de San Juan",
            "Calle de Santiago",
            "Calle de la Iglesia",
            "Calle de la Libertad",
            "Camino de San Juan",
            "Camino del Hospital",
            "Carrer del Norte",
            "Carretera de San Pedro",
            "Carretera de la Iglesia",
            "Carretera de la Paz",
            "Carretera del Hospital",
            "Paseo de San Juan",
            "Plaza de Colón",
            "Plaza del Príncipe",
            "Rúa Real",
            "Travesía de la Constitución",
            "Calle del Sol",
            "Calle de la Luna",
            "Calle del Agua",
            "Calle de la Fuente",
            "Calle del Río",
            "Calle San Juan",
            "Calle San Pedro",
            "Calle del Pilar"
        ],
        "San Fernando": [
            "Avenida de San Pedro",
            "Avenida de la Libertad",
            "Avenida del General Franco",
            "Calle de Velázquez",
            "Calle de la Estación",
            "Camino Nueva",
            "Camino de la Constitución",
            "Carrer de Santiago",
            "Carrer del General Franco",
            "Carrer del Sur",
            "Carretera del Parque",
            "Paseo de la Reina",
            "Paseo del Mercado",
            "Plaza Nueva",
            "Plaza del Príncipe",
            "Plaza del Sol",
            "Ronda de Cervantes",
            "Ronda de San Pedro",
            "Ronda de la Libertad",
            "Rúa de los Jardines",
            "Calle del Sol",
            "Calle de la Luna",
            "Calle Nueva",
            "Calle del Agua",
            "Calle de la Fuente",
            "Calle del Río",
            "Calle de la Iglesia",
            "Calle San Juan",
            "Calle San Pedro",
            "Calle del Pilar"
        ],
        "El Puerto de Santa María": [
            "Avenida de la Iglesia",
            "Calle de la Reina",
            "Camino Mayor",
            "Camino de Cervantes",
            "Carrer de la Iglesia",
            "Carrer del Norte",
            "Carretera de Colón",
            "Carretera de la Estación",
            "Carretera del Hospital",
            "Paseo de España",
            "Paseo de los Jardines",
            "Plaza de Colón",
            "Ronda de Santiago",
            "Rúa de la Libertad",
            "Rúa de la Victoria",
            "Travesía de San Juan",
            "Travesía de San Pedro",
            "Travesía del Príncipe",
            "Travesía del Sol",
            "Travesía del Sur",
            "Calle del Sol",
            "Calle de la Luna",
            "Calle Nueva",
            "Calle del Agua",
            "Calle de la Fuente",
            "Calle del Río",
            "Calle de la Iglesia",
            "Calle San Juan",
            "Calle San Pedro",
            "Calle del Pilar"
        ],
        "Pontevedra": [
            "Calle Nueva",
            "Calle del Rey",
            "Camino de la Constitución",
            "Camino del General Franco",
            "Carrer de la Estación",
            "Carrer del Sur",
            "Carretera de la Reina",
            "Carretera del Sur",
            "Plaza Nueva",
            "Plaza de España",
            "Plaza del Mercado",
            "Plaza del Sur",
            "Ronda de Goya",
            "Ronda de San Juan",
            "Ronda de Santa María",
            "Ronda del Hospital",
            "Rúa de la Libertad",
            "Travesía de la Victoria",
            "Travesía del Carmen",
            "Travesía del Príncipe",
            "Calle del Sol",
            "Calle de la Luna",
            "Calle del Agua",
            "Calle de la Fuente",
            "Calle del Río",
            "Calle de la Iglesia",
            "Calle San Juan",
            "Calle San Pedro",
            "Calle del Pilar"
        ],
        "Palencia": [
            "Avenida de España",
            "Calle del Sur",
            "Camino del Sur",
            "Carrer de la Libertad",
            "Carretera de España",
            "Paseo del Carmen",
            "Paseo del Mercado",
            "Plaza de España",
            "Plaza de la Estación",
            "Plaza del Hospital",
            "Plaza del Mercado",
            "Plaza del Sol",
            "Ronda de la Iglesia",
            "Ronda del Sol",
            "Rúa de Santiago",
            "Rúa de la Estación",
            "Rúa de la Libertad",
            "Rúa del Hospital",
            "Travesía de Santa María",
            "Travesía de la Iglesia",
            "Calle del Sol",
            "Calle de la Luna",
            "Calle Nueva",
            "Calle del Agua",
            "Calle de la Fuente",
            "Calle del Río",
            "Calle de la Iglesia",
            "Calle San Juan",
            "Calle San Pedro",
            "Calle del Pilar"
        ],
        "Mataró": [
            "Avenida de San Juan",
            "Avenida de Santa María",
            "Avenida del Parque",
            "Calle de San Pedro",
            "Calle de Santa María",
            "Calle de la Iglesia",
            "Calle de la Paz",
            "Camino de la Constitución",
            "Carrer de la Victoria",
            "Carrer del Mercado",
            "Carretera de Santiago",
            "Paseo de la Victoria",
            "Paseo del General Franco",
            "Ronda Real",
            "Ronda de la Reina",
            "Ronda del Sur",
            "Rúa de la Paz",
            "Travesía Nueva",
            "Travesía del Príncipe",
            "Travesía del Sol",
            "Calle del Sol",
            "Calle de la Luna",
            "Calle Nueva",
            "Calle del Agua",
            "Calle de la Fuente",
            "Calle del Río",
            "Calle San Juan",
            "Calle San Pedro",
            "Calle del Pilar"
        ],
        "Manresa": [
            "Avenida de la Constitución",
            "Avenida de la Libertad",
            "Carrer Real",
            "Carrer de España",
            "Carrer de San Juan",
            "Carrer de la Reina",
            "Carrer de los Jardines",
            "Carrer del General Franco",
            "Carretera del Príncipe",
            "Paseo Mayor",
            "Plaza de la Constitución",
            "Plaza de la Iglesia",
            "Plaza de la Victoria",
            "Plaza del Mercado",
            "Ronda Real",
            "Ronda de San Pedro",
            "Rúa Nueva",
            "Rúa del Parque",
            "Travesía de Velázquez",
            "Travesía del Mercado",
            "Calle del Sol",
            "Calle de la Luna",
            "Calle Nueva",
            "Calle del Agua",
            "Calle de la Fuente",
            "Calle del Río",
            "Calle de la Iglesia",
            "Calle San Juan",
            "Calle San Pedro",
            "Calle del Pilar"
        ],
        "Torrejón de Ardoz": [
            "Avenida de Santa María",
            "Avenida de Santiago",
            "Avenida del Príncipe",
            "Calle de la Constitución",
            "Carrer de Velázquez",
            "Carrer del Norte",
            "Carretera de la Iglesia",
            "Paseo Nueva",
            "Paseo de Velázquez",
            "Plaza de Velázquez",
            "Plaza de la Victoria",
            "Plaza de los Jardines",
            "Ronda de Colón",
            "Ronda de Santiago",
            "Ronda del General Franco",
            "Ronda del Príncipe",
            "Ronda del Sur",
            "Rúa de Santa María",
            "Travesía Nueva",
            "Travesía del Príncipe",
            "Calle del Sol",
            "Calle de la Luna",
            "Calle Nueva",
            "Calle del Agua",
            "Calle de la Fuente",
            "Calle del Río",
            "Calle de la Iglesia",
            "Calle San Juan",
            "Calle San Pedro",
            "Calle del Pilar"
        ],
        "Sant Cugat del Vallès": [
            "Avenida de Cervantes",
            "Avenida de San Juan",
            "Calle de Goya",
            "Calle de la Libertad",
            "Camino de Santiago",
            "Camino del Norte",
            "Carrer de San Pedro",
            "Carrer de los Jardines",
            "Carretera de España",
            "Carretera del Hospital",
            "Carretera del Sur",
            "Paseo de la Reina",
            "Paseo del Hospital",
            "Ronda Mayor",
            "Ronda de San Pedro",
            "Ronda de la Constitución",
            "Rúa de la Victoria",
            "Travesía Nueva",
            "Travesía de Velázquez",
            "Travesía de la Estación",
            "Calle del Sol",
            "Calle de la Luna",
            "Calle Nueva",
            "Calle del Agua",
            "Calle de la Fuente",
            "Calle del Río",
            "Calle de la Iglesia",
            "Calle San Juan",
            "Calle San Pedro",
            "Calle del Pilar"
        ],
        "Parla": [
            "Calle del Carmen",
            "Calle del Norte",
            "Camino de Santiago",
            "Camino de la Iglesia",
            "Camino del Sol",
            "Carretera Real",
            "Carretera de Cervantes",
            "Carretera de Colón",
            "Paseo de Velázquez",
            "Plaza del Rey",
            "Ronda de Santa María",
            "Ronda del Príncipe",
            "Rúa Real",
            "Rúa de Colón",
            "Rúa del Príncipe",
            "Travesía Nueva",
            "Travesía de la Libertad",
            "Travesía de la Victoria",
            "Travesía del Mercado",
            "Travesía del Sol",
            "Calle del Sol",
            "Calle de la Luna",
            "Calle Nueva",
            "Calle del Agua",
            "Calle de la Fuente",
            "Calle del Río",
            "Calle de la Iglesia",
            "Calle San Juan",
            "Calle San Pedro",
            "Calle del Pilar"
        ],
        "Plasencia": [
            "Avenida de San Juan",
            "Avenida de la Iglesia",
            "Avenida de la Victoria",
            "Avenida del Príncipe",
            "Calle de la Victoria",
            "Carrer del General Franco",
            "Carrer del Rey",
            "Carretera del Carmen",
            "Carretera del Hospital",
            "Paseo de Cervantes",
            "Paseo de la Reina",
            "Paseo del Mercado",
            "Plaza del Príncipe",
            "Plaza del Sur",
            "Ronda de los Jardines",
            "Ronda del Rey",
            "Rúa Mayor",
            "Rúa de la Paz",
            "Rúa de los Jardines",
            "Travesía de la Reina",
            "Calle del Sol",
            "Calle de la Luna",
            "Calle Nueva",
            "Calle del Agua",
            "Calle de la Fuente",
            "Calle del Río",
            "Calle de la Iglesia",
            "Calle San Juan",
            "Calle San Pedro",
            "Calle del Pilar"
        ]
    },
    "postcode_format": "#####",
    "address_formats": [
        "{street}, {building_number}, {postcode} {city}, {state}",
        "{street}, {building_number}, {unit}º, {postcode} {city}",
        "{street}, {building_number}, Piso {unit}, {postcode} {city}, {state}"
    ],
    "country": "España",
    "country_code": "ES",
    "phone_area_codes": {
        "Comunidad de Madrid": [
            "91"
        ],
        "Cataluña": [
            "93"
        ],
        "Andalucía": [
            "95",
            "954",
            "955",
            "956",
            "957",
            "958",
            "959"
        ],
        "Comunidad Valenciana": [
            "96"
        ],
        "País Vasco": [
            "94"
        ],
        "Galicia": [
            "98",
            "981",
            "982",
            "986",
            "988"
        ],
        "Castilla y León": [
            "92",
            "920",
            "921",
            "923",
            "924",
            "947",
            "979",
            "980",
            "983",
            "987"
        ],
        "Castilla-La Mancha": [
            "92",
            "925",
            "926",
            "927",
            "949",
            "967",
            "969"
        ],
        "Aragón": [
            "97",
            "974",
            "976",
            "978"
        ],
        "Asturias": [
            "98",
            "984",
            "985"
        ],
        "Islas Baleares": [
            "97",
            "971"
        ],
        "Canarias": [
            "92",
            "922",
            "928"
        ],
        "Cantabria": [
            "94",
            "942"
        ],
        "Extremadura": [
            "92",
            "924",
            "927"
        ],
        "La Rioja": [
            "94",
            "941"
        ],
        "Navarra": [
            "94",
            "948"
        ],
        "Región de Murcia": [
            "96",
            "968"
        ]
    }
}
