{
    "locations": [
        {
            "city": "Zürich",
            "state": "Zürich",
            "state_abbr": "ZH",
            "postcode": "8001",
            "postcode_prefix": "80",
            "lat_min": 47.35,
            "lat_max": 47.42,
            "lon_min": 8.48,
            "lon_max": 8.58
        },
        {
            "city": "Genève",
            "state": "Genève",
            "state_abbr": "GE",
            "postcode": "1201",
            "postcode_prefix": "12",
            "lat_min": 46.18,
            "lat_max": 46.25,
            "lon_min": 6.1,
            "lon_max": 6.18
        },
        {
            "city": "Basel",
            "state": "Basel-Stadt",
            "state_abbr": "BS",
            "postcode": "4001",
            "postcode_prefix": "40",
            "lat_min": 47.53,
            "lat_max": 47.58,
            "lon_min": 7.57,
            "lon_max": 7.62
        },
        {
            "city": "Lausanne",
            "state": "Vaud",
            "state_abbr": "VD",
            "postcode": "1000",
            "postcode_prefix": "10",
            "lat_min": 46.5,
            "lat_max": 46.55,
            "lon_min": 6.6,
            "lon_max": 6.68
        },
        {
            "city": "Bern",
            "state": "Bern",
            "state_abbr": "BE",
            "postcode": "3000",
            "postcode_prefix": "30",
            "lat_min": 46.93,
            "lat_max": 46.98,
            "lon_min": 7.42,
            "lon_max": 7.48
        },
        {
            "city": "Winterthur",
            "state": "Zürich",
            "state_abbr": "ZH",
            "postcode": "8400",
            "postcode_prefix": "84",
            "lat_min": 47.48,
            "lat_max": 47.52,
            "lon_min": 8.7,
            "lon_max": 8.76
        },
        {
            "city": "Luzern",
            "state": "Luzern",
            "state_abbr": "LU",
            "postcode": "6000",
            "postcode_prefix": "60",
            "lat_min": 47.03,
            "lat_max": 47.08,
            "lon_min": 8.28,
            "lon_max": 8.34
        },
        {
            "city": "St. Gallen",
            "state": "St. Gallen",
            "state_abbr": "SG",
            "postcode": "9000",
            "postcode_prefix": "90",
            "lat_min": 47.4,
            "lat_max": 47.45,
            "lon_min": 9.35,
            "lon_max": 9.42
        },
        {
            "city": "Lugano",
            "state": "Ticino",
            "state_abbr": "TI",
            "postcode": "6900",
            "postcode_prefix": "69",
            "lat_min": 45.98,
            "lat_max": 46.02,
            "lon_min": 8.93,
            "lon_max": 8.98
        },
        {
            "city": "Biel/Bienne",
            "state": "Bern",
            "state_abbr": "BE",
            "postcode": "2500",
            "postcode_prefix": "25",
            "lat_min": 47.12,
            "lat_max": 47.16,
            "lon_min": 7.23,
            "lon_max": 7.28
        },
        {
            "city": "Thun",
            "state": "Bern",
            "state_abbr": "BE",
            "postcode": "3600",
            "postcode_prefix": "36",
            "lat_min": 46.75,
            "lat_max": 46.78,
            "lon_min": 7.62,
            "lon_max": 7.66
        },
        {
            "city": "Köniz",
            "state": "Bern",
            "state_abbr": "BE",
            "postcode": "3098",
            "postcode_prefix": "30",
            "lat_min": 46.9,
            "lat_max": 46.94,
            "lon_min": 7.4,
            "lon_max": 7.44
        },
        {
            "city": "La Chaux-de-Fonds",
            "state": "Neuchâtel",
            "state_abbr": "NE",
            "postcode": "2300",
            "postcode_prefix": "23",
            "lat_min": 47.08,
            "lat_max": 47.12,
            "lon_min": 6.8,
            "lon_max": 6.85
        },
        {
            "city": "Fribourg",
            "state": "Fribourg",
            "state_abbr": "FR",
            "postcode": "1700",
            "postcode_prefix": "17",
            "lat_min": 46.78,
            "lat_max": 46.82,
            "lon_min": 7.14,
            "lon_max": 7.18
        },
        {
            "city": "Schaffhausen",
            "state": "Schaffhausen",
            "state_abbr": "SH",
            "postcode": "8200",
            "postcode_prefix": "82",
            "lat_min": 47.68,
            "lat_max": 47.72,
            "lon_min": 8.62,
            "lon_max": 8.66
        },
        {
            "city": "Chur",
            "state": "Graubünden",
            "state_abbr": "GR",
            "postcode": "7000",
            "postcode_prefix": "70",
            "lat_min": 46.84,
            "lat_max": 46.88,
            "lon_min": 9.52,
            "lon_max": 9.56
        },
        {
            "city": "Vernier",
            "state": "Genève",
            "state_abbr": "GE",
            "postcode": "1214",
            "postcode_prefix": "12",
            "lat_min": 46.2,
            "lat_max": 46.23,
            "lon_min": 6.08,
            "lon_max": 6.12
        },
        {
            "city": "Uster",
            "state": "Zürich",
            "state_abbr": "ZH",
            "postcode": "8610",
            "postcode_prefix": "86",
            "lat_min": 47.34,
            "lat_max": 47.37,
            "lon_min": 8.7,
            "lon_max": 8.74
        },
        {
            "city": "Sion",
            "state": "Valais",
            "state_abbr": "VS",
            "postcode": "1950",
            "postcode_prefix": "19",
            "lat_min": 46.22,
            "lat_max": 46.25,
            "lon_min": 7.35,
            "lon_max": 7.38
        },
        {
            "city": "Neuchâtel",
            "state": "Neuchâtel",
            "state_abbr": "NE",
            "postcode": "2000",
            "postcode_prefix": "20",
            "lat_min": 46.98,
            "lat_max": 47.02,
            "lon_min": 6.92,
            "lon_max": 6.96
        },
        {
            "city": "Emmen",
            "state": "Luzern",
            "state_abbr": "LU",
            "postcode": "6020",
            "postcode_prefix": "60",
            "lat_min": 47.07,
            "lat_max": 47.1,
            "lon_min": 8.26,
            "lon_max": 8.3
        },
        {
            "city": "Zug",
            "state": "Zug",
            "state_abbr": "ZG",
            "postcode": "6300",
            "postcode_prefix": "63",
            "lat_min": 47.16,
            "lat_max": 47.19,
            "lon_min": 8.5,
            "lon_max": 8.54
        },
        {
            "city": "Yverdon-les-Bains",
            "state": "Vaud",
            "state_abbr": "VD",
            "postcode": "1400",
            "postcode_prefix": "14",
            "lat_min": 46.76,
            "lat_max": 46.79,
            "lon_min": 6.63,
            "lon_max": 6.67
        },
        {
            "city": "Dübendorf",
            "state": "Zürich",
            "state_abbr": "ZH",
            "postcode": "8600",
            "postcode_prefix": "86",
            "lat_min": 47.38,
            "lat_max": 47.41,
            "lon_min": 8.6,
            "lon_max": 8.64
        },
        {
            "city": "Kriens",
            "state": "Luzern",
            "state_abbr": "LU",
            "postcode": "6010",
            "postcode_prefix": "60",
            "lat_min": 47.02,
            "lat_max": 47.05,
            "lon_min": 8.26,
            "lon_max": 8.3
        },
        {
            "city": "Rapperswil-Jona",
            "state": "St. Gallen",
            "state_abbr": "SG",
            "postcode": "8640",
            "postcode_prefix": "86",
            "lat_min": 47.22,
            "lat_max": 47.25,
            "lon_min": 8.82,
            "lon_max": 8.86
        },
        {
            "city": "Montreux",
            "state": "Vaud",
            "state_abbr": "VD",
            "postcode": "1820",
            "postcode_prefix": "18",
            "lat_min": 46.42,
            "lat_max": 46.45,
            "lon_min": 6.9,
            "lon_max": 6.94
        },
        {
            "city": "Dietikon",
            "state": "Zürich",
            "state_abbr": "ZH",
            "postcode": "8953",
            "postcode_prefix": "89",
            "lat_min": 47.4,
            "lat_max": 47.43,
            "lon_min": 8.38,
            "lon_max": 8.42
        },
        {
            "city": "Baar",
            "state": "Zug",
            "state_abbr": "ZG",
            "postcode": "6340",
            "postcode_prefix": "63",
            "lat_min": 47.18,
            "lat_max": 47.21,
            "lon_min": 8.52,
            "lon_max": 8.56
        },
        {
            "city": "Frauenfeld",
            "state": "Thurgau",
            "state_abbr": "TG",
            "postcode": "8500",
            "postcode_prefix": "85",
            "lat_min": 47.55,
            "lat_max": 47.58,
            "lon_min": 8.88,
            "lon_max": 8.92
        },
        {
            "city": "Wädenswil",
            "state": "Zürich",
            "state_abbr": "ZH",
            "postcode": "8820",
            "postcode_prefix": "88",
            "lat_min": 47.22,
            "lat_max": 47.25,
            "lon_min": 8.66,
            "lon_max": 8.7
        },
        {
            "city": "Riehen",
            "state": "Basel-Stadt",
            "state_abbr": "BS",
            "postcode": "4125",
            "postcode_prefix": "41",
            "lat_min": 47.57,
            "lat_max": 47.6,
            "lon_min": 7.63,
            "lon_max": 7.67
        },
        {
            "city": "Wettingen",
            "state": "Aargau",
            "state_abbr": "AG",
            "postcode": "5430",
            "postcode_prefix": "54",
            "lat_min": 47.45,
            "lat_max": 47.48,
            "lon_min": 8.3,
            "lon_max": 8.34
        },
        {
            "city": "Meyrin",
            "state": "Genève",
            "state_abbr": "GE",
            "postcode": "1217",
            "postcode_prefix": "12",
            "lat_min": 46.22,
            "lat_max": 46.25,
            "lon_min": 6.06,
            "lon_max": 6.1
        },
        {
            "city": "Carouge",
            "state": "Genève",
            "state_abbr": "GE",
            "postcode": "1227",
            "postcode_prefix": "12",
            "lat_min": 46.18,
            "lat_max": 46.2,
            "lon_min": 6.13,
            "lon_max": 6.16
        },
        {
            "city": "Allschwil",
            "state": "Basel-Landschaft",
            "state_abbr": "BL",
            "postcode": "4123",
            "postcode_prefix": "41",
            "lat_min": 47.54,
            "lat_max": 47.56,
            "lon_min": 7.52,
            "lon_max": 7.55
        },
        {
            "city": "Renens",
            "state": "Vaud",
            "state_abbr": "VD",
            "postcode": "1020",
            "postcode_prefix": "10",
            "lat_min": 46.53,
            "lat_max": 46.55,
            "lon_min": 6.58,
            "lon_max": 6.61
        },
        {
            "city": "Horgen",
            "state": "Zürich",
            "state_abbr": "ZH",
            "postcode": "8810",
            "postcode_prefix": "88",
            "lat_min": 47.25,
            "lat_max": 47.28,
            "lon_min": 8.58,
            "lon_max": 8.62
        },
        {
            "city": "Kreuzlingen",
            "state": "Thurgau",
            "state_abbr": "TG",
            "postcode": "8280",
            "postcode_prefix": "82",
            "lat_min": 47.64,
            "lat_max": 47.67,
            "lon_min": 9.16,
            "lon_max": 9.2
        },
        {
            "city": "Baden",
            "state": "Aargau",
            "state_abbr": "AG",
            "postcode": "5400",
            "postcode_prefix": "54",
            "lat_min": 47.46,
            "lat_max": 47.49,
            "lon_min": 8.3,
            "lon_max": 8.34
        },
        {
            "city": "Wil",
            "state": "St. Gallen",
            "state_abbr": "SG",
            "postcode": "9500",
            "postcode_prefix": "95",
            "lat_min": 47.45,
            "lat_max": 47.48,
            "lon_min": 9.03,
            "lon_max": 9.07
        },
        {
            "city": "Bellinzona",
            "state": "Ticino",
            "state_abbr": "TI",
            "postcode": "6500",
            "postcode_prefix": "65",
            "lat_min": 46.18,
            "lat_max": 46.21,
            "lon_min": 9.01,
            "lon_max": 9.05
        },
        {
            "city": "Locarno",
            "state": "Ticino",
            "state_abbr": "TI",
            "postcode": "6600",
            "postcode_prefix": "66",
            "lat_min": 46.16,
            "lat_max": 46.18,
            "lon_min": 8.78,
            "lon_max": 8.82
        },
        {
            "city": "Solothurn",
            "state": "Solothurn",
            "state_abbr": "SO",
            "postcode": "4500",
            "postcode_prefix": "45",
            "lat_min": 47.2,
            "lat_max": 47.23,
            "lon_min": 7.52,
            "lon_max": 7.56
        },
        {
            "city": "Olten",
            "state": "Solothurn",
            "state_abbr": "SO",
            "postcode": "4600",
            "postcode_prefix": "46",
            "lat_min": 47.34,
            "lat_max": 47.37,
            "lon_min": 7.9,
            "lon_max": 7.94
        },
        {
            "city": "Aarau",
            "state": "Aargau",
            "state_abbr": "AG",
            "postcode": "5000",
            "postcode_prefix": "50",
            "lat_min": 47.38,
            "lat_max": 47.41,
            "lon_min": 8.03,
            "lon_max": 8.07
        },
        {
            "city": "Bulle",
            "state": "Fribourg",
            "state_abbr": "FR",
            "postcode": "1630",
            "postcode_prefix": "16",
            "lat_min": 46.61,
            "lat_max": 46.64,
            "lon_min": 7.05,
            "lon_max": 7.08
        },
        {
            "city": "Sierre",
            "state": "Valais",
            "state_abbr": "VS",
            "postcode": "3960",
            "postcode_prefix": "39",
            "lat_min": 46.28,
            "lat_max": 46.31,
            "lon_min": 7.52,
            "lon_max": 7.56
        },
        {
            "city": "Nyon",
            "state": "Vaud",
            "state_abbr": "VD",
            "postcode": "1260",
            "postcode_prefix": "12",
            "lat_min": 46.38,
            "lat_max": 46.4,
            "lon_min": 6.23,
            "lon_max": 6.26
        },
        {
            "city": "Vevey",
            "state": "Vaud",
            "state_abbr": "VD",
            "postcode": "1800",
            "postcode_prefix": "18",
            "lat_min": 46.45,
            "lat_max": 46.48,
            "lon_min": 6.83,
            "lon_max": 6.86
        },
        {
            "city": "Martigny",
            "state": "Valais",
            "state_abbr": "VS",
            "postcode": "1920",
            "postcode_prefix": "19",
            "lat_min": 46.09,
            "lat_max": 46.12,
            "lon_min": 7.07,
            "lon_max": 7.1
        },
        {
            "city": "Langenthal",
            "state": "Bern",
            "state_abbr": "BE",
            "postcode": "4900",
            "postcode_prefix": "49",
            "lat_min": 47.2,
            "lat_max": 47.23,
            "lon_min": 7.77,
            "lon_max": 7.8
        },
        {
            "city": "Burgdorf",
            "state": "Bern",
            "state_abbr": "BE",
            "postcode": "3400",
            "postcode_prefix": "34",
            "lat_min": 47.05,
            "lat_max": 47.08,
            "lon_min": 7.62,
            "lon_max": 7.66
        },
        {
            "city": "Mendrisio",
            "state": "Ticino",
            "state_abbr": "TI",
            "postcode": "6850",
            "postcode_prefix": "68",
            "lat_min": 45.86,
            "lat_max": 45.89,
            "lon_min": 8.98,
            "lon_max": 9.02
        },
        {
            "city": "Grenchen",
            "state": "Solothurn",
            "state_abbr": "SO",
            "postcode": "2540",
            "postcode_prefix": "25",
            "lat_min": 47.18,
            "lat_max": 47.21,
            "lon_min": 7.38,
            "lon_max": 7.42
        },
        {
            "city": "Morges",
            "state": "Vaud",
            "state_abbr": "VD",
            "postcode": "1110",
            "postcode_prefix": "11",
            "lat_min": 46.5,
            "lat_max": 46.52,
            "lon_min": 6.48,
            "lon_max": 6.52
        },
        {
            "city": "Wohlen",
            "state": "Aargau",
            "state_abbr": "AG",
            "postcode": "5610",
            "postcode_prefix": "56",
            "lat_min": 47.34,
            "lat_max": 47.37,
            "lon_min": 8.27,
            "lon_max": 8.3
        },
        {
            "city": "Herisau",
            "state": "Appenzell Ausserrhoden",
            "state_abbr": "AR",
            "postcode": "9100",
            "postcode_prefix": "91",
            "lat_min": 47.38,
            "lat_max": 47.41,
            "lon_min": 9.26,
            "lon_max": 9.3
        },
        {
            "city": "Liestal",
            "state": "Basel-Landschaft",
            "state_abbr": "BL",
            "postcode": "4410",
            "postcode_prefix": "44",
            "lat_min": 47.48,
            "lat_max": 47.51,
            "lon_min": 7.72,
            "lon_max": 7.76
        },
        {
            "city": "Arbon",
            "state": "Thurgau",
            "state_abbr": "TG",
            "postcode": "9320",
            "postcode_prefix": "93",
            "lat_min": 47.51,
            "lat_max": 47.53,
            "lon_min": 9.42,
            "lon_max": 9.45
        },
        {
            "city": "Schwyz",
            "state": "Schwyz",
            "state_abbr": "SZ",
            "postcode": "6430",
            "postcode_prefix": "64",
            "lat_min": 47.02,
            "lat_max": 47.05,
            "lon_min": 8.64,
            "lon_max": 8.68
        },
        {
            "city": "Davos",
            "state": "Graubünden",
            "state_abbr": "GR",
            "postcode": "7270",
            "postcode_prefix": "72",
            "lat_min": 46.78,
            "lat_max": 46.82,
            "lon_min": 9.82,
            "lon_max": 9.86
        },
        {
            "city": "Zermatt",
            "state": "Valais",
            "state_abbr": "VS",
            "postcode": "3920",
            "postcode_prefix": "39",
            "lat_min": 46.02,
            "lat_max": 46.05,
            "lon_min": 7.74,
            "lon_max": 7.78
        },
        {
            "city": "Interlaken",
            "state": "Bern",
            "state_abbr": "BE",
            "postcode": "3800",
            "postcode_prefix": "38",
            "lat_min": 46.68,
            "lat_max": 46.7,
            "lon_min": 7.85,
            "lon_max": 7.88
        },
        {
            "city": "Ascona",
            "state": "Ticino",
            "state_abbr": "TI",
            "postcode": "6612",
            "postcode_prefix": "66",
            "lat_min": 46.15,
            "lat_max": 46.17,
            "lon_min": 8.76,
            "lon_max": 8.79
        },
        {
            "city": "Appenzell",
            "state": "Appenzell Innerrhoden",
            "state_abbr": "AI",
            "postcode": "9050",
            "postcode_prefix": "90",
            "lat_min": 47.32,
            "lat_max": 47.35,
            "lon_min": 9.4,
            "lon_max": 9.44
        },
        {
            "city": "Glarus",
            "state": "Glarus",
            "state_abbr": "GL",
            "postcode": "8750",
            "postcode_prefix": "87",
            "lat_min": 47.03,
            "lat_max": 47.06,
            "lon_min": 9.06,
            "lon_max": 9.1
        },
        {
            "city": "Sarnen",
            "state": "Obwalden",
            "state_abbr": "OW",
            "postcode": "6060",
            "postcode_prefix": "60",
            "lat_min": 46.89,
            "lat_max": 46.92,
            "lon_min": 8.24,
            "lon_max": 8.28
        },
        {
            "city": "Stans",
            "state": "Nidwalden",
            "state_abbr": "NW",
            "postcode": "6370",
            "postcode_prefix": "63",
            "lat_min": 46.95,
            "lat_max": 46.98,
            "lon_min": 8.36,
            "lon_max": 8.4
        },
        {
            "city": "Altdorf",
            "state": "Uri",
            "state_abbr": "UR",
            "postcode": "6460",
            "postcode_prefix": "64",
            "lat_min": 46.88,
            "lat_max": 46.9,
            "lon_min": 8.64,
            "lon_max": 8.68
        },
        {
            "city": "Delémont",
            "state": "Jura",
            "state_abbr": "JU",
            "postcode": "2800",
            "postcode_prefix": "28",
            "lat_min": 47.36,
            "lat_max": 47.38,
            "lon_min": 7.34,
            "lon_max": 7.37
        }
    ],
    "streets_by_city": {
        "Zürich": [
            "Bahnhofstrasse",
            "Limmatquai",
            "Niederdorfstrasse",
            "Rämistrasse",
            "Seefeldstrasse",
            "Langstrasse",
            "Europaallee",
            "Uraniastrasse",
            "Talstrasse",
            "Bleicherweg",
            "Pelikanstrasse",
            "Augustinergasse",
            "Rennweg",
            "Storchengasse",
            "Münstergasse",
            "Strehlgasse",
            "Kuttelgasse",
            "Wühre",
            "Weinplatz",
            "Schipfe",
            "Rindermarkt",
            "Hirschengraben",
            "Universitätstrasse",
            "Gloriastrasse",
            "Plattenstrasse",
            "Bellevueplatz",
            "Fraumünsterstrasse",
            "Münsterhof",
            "Napfgasse",
            "Spiegelgasse"
        ],
        "Genève": [
            "Rue du Rhône",
            "Rue du Mont-Blanc",
            "Rue de la Croix-d'Or",
            "Quai du Général-Guisan",
            "Boulevard des Philosophes",
            "Rue de Rive",
            "Rue du Marché",
            "Rue de Lausanne",
            "Rue de la Corraterie",
            "Rue de Carouge",
            "Avenue de Champel",
            "Route de Chêne",
            "Rue des Pâquis",
            "Quai Wilson",
            "Rue de Berne",
            "Rue de Zurich",
            "Boulevard Carl-Vogt",
            "Avenue du Mail",
            "Rue de Candolle",
            "Rue des Alpes",
            "Place du Molard",
            "Place Bel-Air",
            "Cours de Rive",
            "Boulevard Helvétique",
            "Rue Verdaine",
            "Rue de la Confédération",
            "Rue Diday",
            "Rue du Stand",
            "Rue Kléberg",
            "Rue de la Fontaine"
        ],
        "Basel": [
            "Freie Strasse",
            "Marktplatz",
            "Spalenberg",
            "Barfüsserplatz",
            "Steinenvorstadt",
            "Clarastrasse",
            "Gerbergasse",
            "Schneidergasse",
            "Heuberg",
            "Nadelberg",
            "Rheinsprung",
            "Rittergasse",
            "Augustinergasse",
            "Martinsgasse",
            "St. Alban-Vorstadt",
            "Aeschenvorstadt",
            "Leonhardsstrasse",
            "Petersgraben",
            "Spalenvorstadt",
            "Unterer Rheinweg",
            "Oberer Rheinweg",
            "Mittlere Brücke",
            "Wettsteinplatz",
            "Messeplatz",
            "Viaduktstrasse",
            "Elisabethenstrasse",
            "Kohlenberg",
            "Münsterplatz",
            "Schifflände",
            "Totentanz"
        ],
        "Lausanne": [
            "Place de la Palud",
            "Rue de Bourg",
            "Rue du Petit-Chêne",
            "Avenue de la Gare",
            "Rue Centrale",
            "Rue Saint-François",
            "Place Saint-François",
            "Avenue de Rumine",
            "Rue du Grand-Pont",
            "Avenue du Théâtre",
            "Rue de la Louve",
            "Rue Caroline",
            "Avenue Mon-Repos",
            "Avenue de Montchoisi",
            "Avenue d'Ouchy",
            "Rue du Maupas",
            "Avenue de Cour",
            "Rue de Genève",
            "Chemin de Montelly",
            "Avenue de Provence",
            "Rue Pépinet",
            "Rue du Lion-d'Or",
            "Place de la Riponne",
            "Rue Haldimand",
            "Rue Enning",
            "Avenue Benjamin-Constant",
            "Rue de la Mercerie",
            "Rue Marterey",
            "Rue Pichard",
            "Rue de l'Ale"
        ],
        "Bern": [
            "Kramgasse",
            "Marktgasse",
            "Spitalgasse",
            "Gerechtigkeitsgasse",
            "Bundesplatz",
            "Bärenplatz",
            "Waisenhausplatz",
            "Kornhausplatz",
            "Münstergasse",
            "Herrengasse",
            "Amthausgasse",
            "Schauplatzgasse",
            "Neuengasse",
            "Rathausgasse",
            "Postgasse",
            "Zeughausgasse",
            "Aarbergergasse",
            "Bundesgasse",
            "Kochergasse",
            "Nägeligasse",
            "Theaterplatz",
            "Casinoplatz",
            "Bollwerk",
            "Hodlerstrasse",
            "Effingerstrasse",
            "Belpstrasse",
            "Dalmazi",
            "Laupenstrasse",
            "Monbijoustrasse",
            "Sulgeneckstrasse"
        ],
        "Winterthur": [
            "Marktgasse",
            "Steinberggasse",
            "Untertor",
            "Stadthausstrasse",
            "Technikumstrasse",
            "Bahnhofplatz",
            "Neumarkt",
            "Oberer Graben",
            "Unterer Graben",
            "Bankstrasse",
            "Lagerhausstrasse",
            "Tösstalstrasse",
            "Schaffhauserstrasse",
            "Zürcherstrasse",
            "St. Gallerstrasse",
            "Theaterstrasse",
            "Rychenbergstrasse",
            "Rosenaustrasse",
            "Frauenfelderstrasse",
            "Pflanzschulstrasse",
            "Archstrasse",
            "Wartstrasse",
            "Turmhaldenstrasse",
            "General-Guisan-Strasse",
            "Wülflingerstrasse",
            "Brühlbergstrasse",
            "Grüzenstrasse",
            "Haldengutstrasse",
            "Industriestrasse",
            "Lindstrasse"
        ],
        "Luzern": [
            "Kapellgasse",
            "Hertensteinstrasse",
            "Weggisgasse",
            "Mühlenplatz",
            "Hirschenplatz",
            "Kornmarkt",
            "Weinmarkt",
            "Schwanenplatz",
            "Grendel",
            "Rössligasse",
            "Unter der Egg",
            "Bahnhofstrasse",
            "Pilatusstrasse",
            "Bundesstrasse",
            "Frankenstrasse",
            "Alpenstrasse",
            "Haldenstrasse",
            "Seidenhofstrasse",
            "Murbacherstrasse",
            "Zentralstrasse",
            "Löwenplatz",
            "Sempacherstrasse",
            "Bundesplatz",
            "Waldstätterstrasse",
            "Obergrundstrasse",
            "Bruchstrasse",
            "Geissensteinring",
            "Hirschmattstrasse",
            "Kellerstrasse",
            "Reusssteg"
        ],
        "St. Gallen": [
            "Marktgasse",
            "Multergasse",
            "Neugasse",
            "Spisergasse",
            "Webergasse",
            "Schmiedgasse",
            "Gallusstrasse",
            "Bankgasse",
            "Kugelgasse",
            "Hinterlauben",
            "Vordere Lauben",
            "Klosterhof",
            "Goliathgasse",
            "Engelgasse",
            "Brühlgasse",
            "Rosenbergstrasse",
            "Poststrasse",
            "Oberer Graben",
            "Vadianstrasse",
            "St. Leonhardstrasse",
            "Davidstrasse",
            "Frongartenstrasse",
            "Rorschacher Strasse",
            "Langgasse",
            "Zürcherstrasse",
            "Bahnhofplatz",
            "Blumenbergplatz",
            "Burggraben",
            "Kornhausstrasse",
            "Moosbruggstrasse"
        ],
        "Lugano": [
            "Via Nassa",
            "Via Pessina",
            "Piazza della Riforma",
            "Riva Albertolli",
            "Riva Caccia",
            "Via Canova",
            "Via Pretorio",
            "Via Soave",
            "Corso Pestalozzi",
            "Via Peri",
            "Via Magatti",
            "Via Luvini",
            "Via Pioda",
            "Piazza Manzoni",
            "Via Cattedrale",
            "Via Vegezzi",
            "Contrada di Verla",
            "Via Trevano",
            "Via Castausio",
            "Salita Chiattone",
            "Via Massagno",
            "Via Serafino Balestra",
            "Via Giuseppe Cattori",
            "Lungolago Riva",
            "Corso Elvezia",
            "Via Zurigo",
            "Via Besso",
            "Via Maraini",
            "Via Monte Boglia",
            "Piazza Indipendenza"
        ],
        "Biel/Bienne": [
            "Nidaugasse",
            "Bahnhofstrasse",
            "Zentralplatz",
            "Aarbergstrasse",
            "Mühlebrücke",
            "Obergasse",
            "Untergasse",
            "Burgergasse",
            "Ring",
            "Neumarktstrasse",
            "Gurzelegasse",
            "Dufourstrasse",
            "Silbergasse",
            "Spitalstrasse",
            "General-Dufour-Strasse",
            "Rue de la Gare",
            "Rue Centrale",
            "Faubourg du Lac",
            "Rue du Canal",
            "Quai du Bas",
            "Bözingenstrasse",
            "Florastrasse",
            "Gottstattstrasse",
            "Industriestrasse",
            "Kontrollstrasse",
            "Längfeldweg",
            "Madretschstrasse",
            "Orpundstrasse",
            "Pianostrasse",
            "Salzhausstrasse"
        ],
        "Thun": [
            "Obere Hauptgasse",
            "Bälliz",
            "Sinnebrückplatz",
            "Rathausplatz",
            "Untere Hauptgasse",
            "Freienhofgasse",
            "Kuhbrückstrasse",
            "Marktgasse",
            "Schlossberg",
            "Allmendstrasse",
            "Seestrasse",
            "Frutigenstrasse",
            "Bernstrasse",
            "Gwattstrasse",
            "Länggasse",
            "Hofstettenstrasse",
            "Mönchstrasse",
            "Scheibenstrasse",
            "Talackerstrasse",
            "Mattenstrasse",
            "Aarestrasse",
            "Bürgistrasse",
            "Dürrenaststrasse",
            "Gartenstrasse",
            "Jungfraustrasse",
            "Kirchstrasse",
            "Munzingerstrasse",
            "Pestalozzistrasse",
            "Ringstrasse",
            "Stockhornstrasse"
        ],
        "Köniz": [
            "Schwarzenburgstrasse",
            "Freiburgstrasse",
            "Stapfenstrasse",
            "Liebewilstrasse",
            "Landorfstrasse",
            "Gurtendorfstrasse",
            "Schlossstrasse",
            "Könizstrasse",
            "Sonnenweg",
            "Morillonstrasse",
            "Papillonweg",
            "Falkenweg",
            "Spiegel",
            "Wabersacker",
            "Mittelhäusern",
            "Thunstrasse",
            "Kirchenfeld",
            "Schliern",
            "Niederwangen",
            "Oberwangen",
            "Bläuackerstrasse",
            "Buchseeweg",
            "Dorfstrasse",
            "Gartenstrasse",
            "Hessgutweg",
            "Jurastrasse",
            "Kirchstrasse",
            "Lerbermattstrasse",
            "Muhlernstrasse",
            "Niederbottigen"
        ],
        "La Chaux-de-Fonds": [
            "Avenue Léopold-Robert",
            "Rue du Parc",
            "Rue du Commerce",
            "Rue de la Balance",
            "Rue Jaquet-Droz",
            "Rue du Progrès",
            "Rue de l'Industrie",
            "Rue Daniel-JeanRichard",
            "Boulevard des Eplatures",
            "Rue de la Serre",
            "Rue du Puits",
            "Rue Fritz-Courvoisier",
            "Rue du Marché",
            "Rue de l'Hôtel-de-Ville",
            "Rue du Stand",
            "Place de l'Hôtel-de-Ville",
            "Rue du Coq",
            "Rue du Grenier",
            "Rue de la Ronde",
            "Rue des Armes-Réunies",
            "Rue du Doubs",
            "Rue de la Charrière",
            "Rue de l'Envers",
            "Rue du Collège",
            "Rue du Temple-Allemand",
            "Avenue du Bois-du-Petit-Château",
            "Rue des Crêtets",
            "Rue de la Promenade",
            "Rue Alexis-Marie-Piaget",
            "Place du Marché"
        ],
        "Fribourg": [
            "Rue de Lausanne",
            "Rue de Romont",
            "Rue de l'Hôpital",
            "Boulevard de Pérolles",
            "Rue Saint-Pierre",
            "Place Georges-Python",
            "Rue de la Grand-Fontaine",
            "Rue du Pont-Muré",
            "Place Notre-Dame",
            "Rue des Bouchers",
            "Rue du Criblet",
            "Rue des Chanoines",
            "Rue de Morat",
            "Rue des Alpes",
            "Avenue de la Gare",
            "Rue Pierre-Aeby",
            "Rue de la Samaritaine",
            "Rue du Pont-Suspendu",
            "Grand-Rue",
            "Rue de l'Or",
            "Rue de la Neuveville",
            "Rue Jacques-de-Diesbach",
            "Rue de la Lenda",
            "Rue du Stalden",
            "Rue Grimoux",
            "Place du Petit-Saint-Jean",
            "Rue de la Planche-Supérieure",
            "Avenue du Jura",
            "Rue du Château",
            "Rue Wilhelm-Kaiser"
        ],
        "Schaffhausen": [
            "Vordergasse",
            "Fronwagplatz",
            "Unterstadt",
            "Oberstadt",
            "Münsterplatz",
            "Herrenacker",
            "Bachstrasse",
            "Rheinstrasse",
            "Stadthausgasse",
            "Safrangasse",
            "Webergasse",
            "Vorstadt",
            "Rosengasse",
            "Sporrengasse",
            "Repfergasse",
            "Neustadt",
            "Krummgasse",
            "Goldsteinstrasse",
            "Schwertstrasse",
            "Mühlenstrasse",
            "Beckenstube",
            "Baumgartenstrasse",
            "Fäsenstauberstrasse",
            "Hochstrasse",
            "Kirchhofplatz",
            "Mühlentalstrasse",
            "Pfrundhausgasse",
            "Rathausbogen",
            "Schützengraben",
            "Steingutstrasse"
        ],
        "Chur": [
            "Bahnhofstrasse",
            "Grabenstrasse",
            "Poststrasse",
            "Reichsgasse",
            "Obere Gasse",
            "Untere Gasse",
            "Arcas",
            "Kornplatz",
            "Martinsplatz",
            "Kirchgasse",
            "Süsswinkelgasse",
            "Ochsenplatz",
            "Kasernenstrasse",
            "Masanserstrasse",
            "Ringstrasse",
            "Quaderstrasse",
            "Comercialstrasse",
            "Alexanderstrasse",
            "Engadinstrasse",
            "Steinbockstrasse",
            "Ackermanngasse",
            "Bärenloch",
            "Domleschgerstrasse",
            "Gürtelstrasse",
            "Hofstrasse",
            "Loestrasse",
            "Malixerstrasse",
            "Ottostrasse",
            "Pulvermühlestrasse",
            "Rheinfeldstrasse"
        ],
        "Vernier": [
            "Route de Vernier",
            "Chemin de l'Étang",
            "Avenue de Châtelaine",
            "Route du Nant-d'Avril",
            "Rue de Montfleury",
            "Avenue des Communes-Réunies",
            "Chemin du Grand-Puits",
            "Rue des Libellules",
            "Avenue du Lignon",
            "Chemin de la Golette",
            "Route de Meyrin",
            "Chemin des Batailles",
            "Route de Peney",
            "Chemin de Blandonnet",
            "Rue Eugène-Lance",
            "Chemin du Pont-du-Centenaire",
            "Rue de la Confédération",
            "Avenue de l'Ain",
            "Chemin de la Bistoquette",
            "Rue des Peupliers",
            "Avenue du Grand-Lancy",
            "Route des Acacias",
            "Chemin du Petit-Lancy",
            "Rue du Temple",
            "Avenue de la Paix",
            "Place Albert-Golay",
            "Chemin des Vignes",
            "Rue François-Dussaud",
            "Chemin de l'Écu",
            "Avenue de Balexert"
        ],
        "Uster": [
            "Gerichtsstrasse",
            "Poststrasse",
            "Webernstrasse",
            "Berchtoldstrasse",
            "Bahnhofstrasse",
            "Winikerstrasse",
            "Freiestrasse",
            "Zürichstrasse",
            "Florastrasse",
            "Schulhausstrasse",
            "Krämerackerstrasse",
            "Seefeldstrasse",
            "Pfäffikerstrasse",
            "Amtsstrasse",
            "Brunnenstrasse",
            "Zentralstrasse",
            "Bankstrasse",
            "Fallackerstrasse",
            "Seestrasse",
            "Oberuster",
            "Ahornstrasse",
            "Bergstrasse",
            "Dammstrasse",
            "Gartenstrasse",
            "Industriestrasse",
            "Kirchstrasse",
            "Lindenstrasse",
            "Oberlandstrasse",
            "Ringstrasse",
            "Sonnenbergstrasse"
        ],
        "Sion": [
            "Avenue de la Gare",
            "Rue du Grand-Pont",
            "Rue de Lausanne",
            "Rue de Conthey",
            "Place du Midi",
            "Rue des Remparts",
            "Rue de la Porte-Neuve",
            "Avenue du Midi",
            "Rue du Rhône",
            "Rue de l'Industrie",
            "Rue des Cèdres",
            "Avenue de France",
            "Rue des Creusets",
            "Avenue de Tourbillon",
            "Rue de la Dent-Blanche",
            "Rue de Condémines",
            "Rue de Pratifori",
            "Rue du Scex",
            "Rue de Savièse",
            "Place de la Planta",
            "Rue des Tanneries",
            "Rue de la Dixence",
            "Rue du Tunnel",
            "Avenue de Pratifori",
            "Rue du Petit-Chasseur",
            "Avenue Ritz",
            "Rue des Vergers",
            "Rue de la Cathédrale",
            "Rue de Loèche",
            "Chemin Saint-Hubert"
        ],
        "Neuchâtel": [
            "Rue du Seyon",
            "Rue de l'Hôpital",
            "Place Pury",
            "Rue des Moulins",
            "Rue du Temple-Neuf",
            "Rue de l'Écluse",
            "Rue du Château",
            "Faubourg de l'Hôpital",
            "Rue du Coq-d'Inde",
            "Rue des Terreaux",
            "Avenue du Premier-Mars",
            "Rue de la Treille",
            "Rue de la Collégiale",
            "Croix-du-Marché",
            "Rue du Pommier",
            "Rue des Chavannes",
            "Rue de la Balance",
            "Rue de l'Évole",
            "Rue Saint-Honoré",
            "Rue Fleury",
            "Rue du Bassin",
            "Rue de l'Orangerie",
            "Rue des Fausses-Brayes",
            "Rue du Concert",
            "Rue de la Place-d'Armes",
            "Avenue de la Gare",
            "Rue du Progrès",
            "Faubourg du Lac",
            "Rue du Musée",
            "Rue de la Promenade"
        ],
        "Emmen": [
            "Gerliswilstrasse",
            "Seetalstrasse",
            "Sprengi",
            "Emmenweidstrasse",
            "Gersagstrasse",
            "Rüeggisingerstrasse",
            "Centralstrasse",
            "Bahnhofstrasse",
            "Seetalstrasse",
            "Emmenfeldstrasse",
            "Moosstrasse",
            "Waldibrücke",
            "Hochdorferstrasse",
            "Kapf",
            "Feldbreitestrasse",
            "Erlenstrasse",
            "Rothenring",
            "Sonnenplatz",
            "Kirchfeldstrasse",
            "Herdschwand",
            "Allmendstrasse",
            "Baumgartenstrasse",
            "Dorfstrasse",
            "Flurweg",
            "Gartenstrasse",
            "Hasliring",
            "Industriestrasse",
            "Lindenstrasse",
            "Neuenkirchstrasse",
            "Poststrasse",
            "Rossweid"
        ],
        "Zug": [
            "Vorstadt",
            "Neugasse",
            "Zeughausgasse",
            "Bundesplatz",
            "Poststrasse",
            "Alpenstrasse",
            "Kolinplatz",
            "Kirchenstrasse",
            "Baarerstrasse",
            "Gotthardstrasse",
            "Aegeristrasse",
            "Artherstrasse",
            "Industriestrasse",
            "Metallstrasse",
            "Grafenaustrasse",
            "Dammstrasse",
            "Unter Altstadt",
            "Ober Altstadt",
            "Fischmarkt",
            "Landsgemeindeplatz",
            "Ägeristrasse",
            "Bahnhofstrasse",
            "Chamerstrasse",
            "Feldstrasse",
            "Gartenstrasse",
            "Gubelstrasse",
            "Hofstrasse",
            "Lindenstrasse",
            "Oberwilerstrasse",
            "Rigistrasse"
        ],
        "Yverdon-les-Bains": [
            "Rue du Lac",
            "Rue du Casino",
            "Place Pestalozzi",
            "Rue de la Plaine",
            "Rue du Collège",
            "Avenue des Bains",
            "Rue de Neuchâtel",
            "Rue du Milieu",
            "Rue des Moulins",
            "Rue du Four",
            "Rue du Temple",
            "Rue de la Maison-Rouge",
            "Rue Haldimand",
            "Place d'Armes",
            "Avenue de Grandson",
            "Rue de la Combe",
            "Rue des Philosophes",
            "Rue du Parc",
            "Rue Galilée",
            "Rue de l'Industrie",
            "Rue de la Prairie",
            "Rue du Valentin",
            "Rue de l'Ancien-Stand",
            "Avenue des Sports",
            "Rue de la Source",
            "Rue des Remparts",
            "Rue du Pré-du-Marché",
            "Place de la Gare",
            "Chemin des Rosiers",
            "Rue du Curtil"
        ],
        "Dübendorf": [
            "Bahnhofstrasse",
            "Usterstrasse",
            "Sonnentalstrasse",
            "Zürichstrasse",
            "Hochbordstrasse",
            "Neugutstrasse",
            "Glatttalstrasse",
            "Bahnhofplatz",
            "Wangenstrasse",
            "Birchstrasse",
            "Leepüntstrasse",
            "Lindenbüelstrasse",
            "Adlerstrasse",
            "Baumackerstrasse",
            "Ringwiesenstrasse",
            "Gockhauserstrasse",
            "Wildbachstrasse",
            "Überlandstrasse",
            "Stadtgrenze",
            "Neuhofstrasse",
            "Brunnenwiese",
            "Dammstrasse",
            "Feldhofstrasse",
            "Gartenstrasse",
            "Industriestrasse",
            "Kirchstrasse",
            "Pilotstrasse",
            "Riedenhaldenstrasse",
            "Schützenstrasse",
            "Stadtstrasse"
        ],
        "Kriens": [
            "Luzernerstrasse",
            "Obernauerstrasse",
            "Horwerstrasse",
            "Amlehnstrasse",
            "Ringstrasse",
            "Schadrütisstrasse",
            "Hofmattstrasse",
            "Feldmühlestrasse",
            "Pilatusstrasse",
            "Sternmattstrasse",
            "Arsenalstrasse",
            "Kuonimattstrasse",
            "Grossmatte",
            "Nidfeldstrasse",
            "Siedlungsstrasse",
            "Brunaustrasse",
            "Hergiswaldweg",
            "Galgenacher",
            "Heideweg",
            "Waldhofstrasse",
            "Bahnhofstrasse",
            "Bergstrasse",
            "Dorfstrasse",
            "Flühmattstrasse",
            "Gartenstrasse",
            "Kirchstrasse",
            "Lindenstrasse",
            "Mattenhofstrasse",
            "Neustrasse",
            "Oststrasse"
        ],
        "Rapperswil-Jona": [
            "Hauptplatz",
            "Marktgasse",
            "Hintergasse",
            "Engelplatz",
            "Fischmarktplatz",
            "Obere Bahnhofstrasse",
            "Untere Bahnhofstrasse",
            "Neue Jonastrasse",
            "Alte Jonastrasse",
            "Stampfstrasse",
            "Rathausstrasse",
            "Güterstrasse",
            "Kempraten",
            "Allmeindstrasse",
            "Rütistrasse",
            "Meienbergstrasse",
            "Berglistrasse",
            "Grünfels",
            "Seequai",
            "Schiedhaldenstrasse",
            "Bachstrasse",
            "Blumenaustrasse",
            "Centrumsplatz",
            "Gartenstrasse",
            "Holzbrücke",
            "Industriestrasse",
            "Kirchstrasse",
            "Lindenstrasse",
            "Oberseestrasse",
            "Poststrasse"
        ],
        "Montreux": [
            "Avenue du Casino",
            "Grand-Rue",
            "Rue du Marché",
            "Place du Marché",
            "Rue du Pont",
            "Avenue des Alpes",
            "Quai de la Rouvenaz",
            "Rue de la Gare",
            "Avenue de Belmont",
            "Rue du Lac",
            "Avenue de Chillon",
            "Route de Blonay",
            "Avenue du Midi",
            "Rue Industrielle",
            "Avenue Claude-Nobs",
            "Rue du Temple",
            "Rue de la Corsaz",
            "Avenue de la Riviera",
            "Rue du Théâtre",
            "Avenue de Collonge",
            "Rue du Quai",
            "Rue du Clos-de-Bourg",
            "Chemin de la Braye",
            "Avenue de la Paix",
            "Rue Igor-Stravinsky",
            "Avenue des Planches",
            "Rue du Commerce",
            "Avenue de Gilamont",
            "Rue des Terreaux",
            "Chemin de Sonzier"
        ],
        "Dietikon": [
            "Bremgartnerstrasse",
            "Badenerstrasse",
            "Kirchplatz",
            "Bahnhofplatz",
            "Zürcherstrasse",
            "Hofackerstrasse",
            "Schöneggstrasse",
            "Industriestrasse",
            "Silbernstrasse",
            "Überlandstrasse",
            "Fondlistrasse",
            "Riedstrasse",
            "Limmatfeldstrasse",
            "Steinmürlistrasse",
            "Lägernstrasse",
            "Florastrasse",
            "Altbergstrasse",
            "Heimstrasse",
            "Brunaustrasse",
            "Feldstrasse",
            "Birmensdorferstrasse",
            "Centralstrasse",
            "Eggstrasse",
            "Gartenstrasse",
            "Grünaustrasse",
            "Marktplatz",
            "Poststrasse",
            "Ravellenstrasse",
            "Ringstrasse",
            "Spitalstrasse"
        ],
        "Baar": [
            "Zugerstrasse",
            "Bahnhofstrasse",
            "Dorfstrasse",
            "Neugasse",
            "Landhausstrasse",
            "Industriestrasse",
            "Luzernerstrasse",
            "Rigistrasse",
            "Sennweidstrasse",
            "Inwilerstrasse",
            "Albisstrasse",
            "Haldenstrasse",
            "Lättich",
            "Sternenmatte",
            "Rathausstrasse",
            "Schulhausstrasse",
            "Birkenstrasse",
            "Hinterbergstrasse",
            "Feldpark",
            "Unterägeristrasse",
            "Aabachstrasse",
            "Blickensdorferstrasse",
            "Flurstrasse",
            "Gartenstrasse",
            "Jöchlerweg",
            "Kirchstrasse",
            "Lindenstrasse",
            "Obstgartenstrasse",
            "Poststrasse",
            "Talstrasse"
        ],
        "Frauenfeld": [
            "Zürcherstrasse",
            "Bahnhofstrasse",
            "Promenade",
            "Grabenstrasse",
            "Rheinstrasse",
            "Freiestrasse",
            "Rathausplatz",
            "Marktplatz",
            "Schlossmühlestrasse",
            "Ringstrasse",
            "Altstadt",
            "Bankplatz",
            "Murgstrasse",
            "Gaswerkstrasse",
            "St. Gallerstrasse",
            "Lindenstrasse",
            "Thundorferstrasse",
            "Kastelstrasse",
            "Erchinger Strasse",
            "Schaffhauserstrasse",
            "Allmendstrasse",
            "Bären",
            "Dorfstrasse",
            "Eisenwerkstrasse",
            "Falkenstein",
            "Hügelstrasse",
            "Kreuzlingerstrasse",
            "Oberstadtstrasse",
            "Parkplatz",
            "Seebackstrasse"
        ],
        "Wädenswil": [
            "Seestrasse",
            "Zugerstrasse",
            "Florhofstrasse",
            "Einsiedlerstrasse",
            "Schönenbergstrasse",
            "Gerbestrasse",
            "Rotweg",
            "Etzelstrasse",
            "Seeplatz",
            "Türgass",
            "Rosenbergstrasse",
            "Oberdorfstrasse",
            "Schlossberg",
            "Leihgasse",
            "Untermosen",
            "Fuhrstrasse",
            "Industriestrasse",
            "Steinacherstrasse",
            "Buchenstrasse",
            "Reidholzstrasse",
            "Ahornstrasse",
            "Bergstrasse",
            "Dammstrasse",
            "Engelstrasse",
            "Freiestrasse",
            "Gartenstrasse",
            "Kirchstrasse",
            "Lindenstrasse",
            "Mitteldorfstrasse",
            "Neuhofstrasse"
        ],
        "Riehen": [
            "Baselstrasse",
            "Rössligasse",
            "Schmiedgasse",
            "Bahnhofstrasse",
            "Oberdorfstrasse",
            "Wettsteinstrasse",
            "Lörracherstrasse",
            "Burgstrasse",
            "Rauracherstrasse",
            "Mohrhaldenstrasse",
            "Bettingerstrasse",
            "Inzlingerstrasse",
            "Gerstenweg",
            "Schützenmattstrasse",
            "Aeussere Baselstrasse",
            "Haselrain",
            "Hörnliallee",
            "Hirtenweg",
            "Lachenweg",
            "Immenbachstrasse",
            "Aeussere Grundstrasse",
            "Birkenstrasse",
            "Chrischonastrasse",
            "Erlenstrasse",
            "Gartenstrasse",
            "Häuserstrasse",
            "Kilchgrundstrasse",
            "Leutschenbachweg",
            "Pfaffenlohweg",
            "Rankstrasse"
        ],
        "Wettingen": [
            "Landstrasse",
            "Bahnhofstrasse",
            "Bifangstrasse",
            "Klosterstrasse",
            "Seminarstrasse",
            "Altenburgstrasse",
            "Schartenstrasse",
            "Römerstrasse",
            "Rebbergstrasse",
            "Lägernstrasse",
            "Dorfstrasse",
            "Gartenstrasse",
            "Sandstrasse",
            "Hardstrasse",
            "Wasserstrasse",
            "Ländliweg",
            "Tägerhard",
            "Furtbachstrasse",
            "Rebhaldenstrasse",
            "Scheibenstrasse",
            "Bruggerstrasse",
            "Etzelstrasse",
            "Feldstrasse",
            "Grenzstrasse",
            "Jurastrasse",
            "Kappelerhof",
            "Lindenstrasse",
            "Neufeldstrasse",
            "Poststrasse",
            "Staffelstrasse"
        ],
        "Meyrin": [
            "Route de Meyrin",
            "Avenue de Vaudagne",
            "Rue des Boudines",
            "Chemin de la Golette",
            "Rue De-Livron",
            "Avenue Voltaire",
            "Rue Lect",
            "Avenue de Mategnin",
            "Chemin du Grand-Puits",
            "Avenue des Libellules",
            "Rue des Bossons",
            "Rue du Grand-Bay",
            "Place des Cinq-Continents",
            "Rue de la Prulay",
            "Chemin des Ailes",
            "Avenue Picot",
            "Rue Ernest-Renck",
            "Chemin Riantbosson",
            "Rue François-Jacquier",
            "Avenue Wendt",
            "Rue du CERN",
            "Avenue Louis-Bentivegna",
            "Rue de la Prusse",
            "Chemin du Château",
            "Rue des Ormeaux",
            "Avenue des Tilleuls",
            "Chemin du Pré-Gentil",
            "Chemin des Papillons",
            "Rue de la Maladière",
            "Avenue de Feuillasse"
        ],
        "Carouge": [
            "Rue Ancienne",
            "Place du Marché",
            "Rue Saint-Joseph",
            "Rue de la Filature",
            "Rue du Tunnel",
            "Rue Jacques-Dalphin",
            "Rue de la Fontenette",
            "Rue Vautier",
            "Place du Temple",
            "Rue Caroline",
            "Rue des Moraines",
            "Rue de Carouge",
            "Avenue Cardinal-Mermillod",
            "Rue du Marché",
            "Place de l'Octroi",
            "Rue de la Tambourine",
            "Rue Baylon",
            "Rue du Stand",
            "Boulevard des Promenades",
            "Rue des Allobroges",
            "Rue de la Tour",
            "Rue de l'Industrie",
            "Rue du Collège",
            "Avenue de Bentivoglio",
            "Rue des Noirettes",
            "Place de Sardaigne",
            "Rue du Pré-Babel",
            "Rue Vieille",
            "Rue de Pinchat",
            "Place du Rondeau"
        ],
        "Allschwil": [
            "Baslerstrasse",
            "Dornacherstrasse",
            "Grabenstrasse",
            "Mühlebachstrasse",
            "Schönenbuchstrasse",
            "Langegasse",
            "Neuweilerstrasse",
            "Lettenweg",
            "Binningerstrasse",
            "Parkallee",
            "Bachmatten",
            "Wegmattstrasse",
            "Lindenstrasse",
            "Hertensteinstrasse",
            "Bifangweg",
            "Spitzwaldstrasse",
            "Lohag",
            "Feldhofstrasse",
            "Witterswilerweg",
            "Oberwilerstrasse",
            "Ahornstrasse",
            "Birkenstrasse",
            "Bruderholzstrasse",
            "Erlenstrasse",
            "Flühstrasse",
            "Gartenstrasse",
            "Hegenheimermattweg",
            "Jurastrasse",
            "Kirschgartenstrasse",
            "Mühlemattstrasse"
        ],
        "Renens": [
            "Rue de Lausanne",
            "Rue du Midi",
            "Place du Marché",
            "Avenue du Censuy",
            "Avenue de Florissant",
            "Rue de la Mèbre",
            "Chemin de Florissant",
            "Avenue du Silo",
            "Avenue de Longemalle",
            "Rue de la Gare",
            "Avenue du 14-Avril",
            "Rue du Bugnon",
            "Chemin de la Praz",
            "Rue de l'Industrie",
            "Avenue du Tir-Fédéral",
            "Rue du Village",
            "Avenue de Gilamont",
            "Chemin de Budron",
            "Rue de Crissier",
            "Avenue de Préfaully",
            "Rue du Jura",
            "Chemin du Bois-de-Vaux",
            "Rue de Prilly",
            "Avenue de Morges",
            "Rue de la Manufacture",
            "Place du Marché-Neuf",
            "Chemin de Renens",
            "Rue des Vignerons",
            "Rue de Villars",
            "Chemin du Closel"
        ],
        "Horgen": [
            "Bahnhofstrasse",
            "Seestrasse",
            "Zürichstrasse",
            "Dorfplatz",
            "Bergstrasse",
            "Waldeggstrasse",
            "Alte Landstrasse",
            "Bergli",
            "Baumgärtlistrasse",
            "Schifflibach",
            "Hinterdorfstrasse",
            "Stockerstrasse",
            "Oberdorfstrasse",
            "Einsiedlerstrasse",
            "Gartenstrasse",
            "Allmendstrasse",
            "Dammstrasse",
            "Bachstrasse",
            "Bühlstrasse",
            "Schiffländeweg",
            "Kirchstrasse",
            "Löwenplatz",
            "Maltenserstrasse",
            "Neuhofstrasse",
            "Parkstrasse",
            "Rainstrasse",
            "Schulhausstrasse",
            "Sonnenblickstrasse",
            "Tannenstrasse",
            "Weinbergstrasse"
        ],
        "Kreuzlingen": [
            "Hauptstrasse",
            "Bahnhofstrasse",
            "Nationalstrasse",
            "Löwenstrasse",
            "Kirchstrasse",
            "Gaissbergstrasse",
            "Hafenstrasse",
            "Konstanzerstrasse",
            "Bärenstrasse",
            "Egelseestrasse",
            "Pestalozzistrasse",
            "Seetalstrasse",
            "Bottighoferstrasse",
            "Schwertstrasse",
            "Seeburgstrasse",
            "Romanshornerstrasse",
            "Lindenstrasse",
            "Lengwilerstrasse",
            "Schützenstrasse",
            "Parkstrasse",
            "Alleestrasse",
            "Bergstrasse",
            "Dorfstrasse",
            "Emmishoferstrasse",
            "Feldbachstrasse",
            "Gartenstrasse",
            "Industriestrasse",
            "Marktstrasse",
            "Poststrasse",
            "Seeblickstrasse"
        ],
        "Baden": [
            "Bahnhofstrasse",
            "Weite Gasse",
            "Rathausgasse",
            "Bäderstrasse",
            "Bruggerstrasse",
            "Haselstrasse",
            "Römerstrasse",
            "Mellingerstrasse",
            "Zürcherstrasse",
            "Obere Halde",
            "Untere Halde",
            "Parkstrasse",
            "Schulthess-Allee",
            "Limmatpromenade",
            "Kurplatz",
            "Bäderquartier",
            "Theaterplatz",
            "Schlossbergplatz",
            "Kirchplatz",
            "Cordulaplatz",
            "Badstrasse",
            "Belvédère",
            "Gartenstrasse",
            "Langhaus",
            "Löwenplatz",
            "Martinsbergstrasse",
            "Seminarstrasse",
            "Stadtturmstrasse",
            "Trafoplatz",
            "Ländlistrasse"
        ],
        "Wil": [
            "Obere Bahnhofstrasse",
            "Marktgasse",
            "Toggenburgerstrasse",
            "Stadtweier",
            "Hofplatz",
            "Kreuzplatz",
            "Konstanzerstrasse",
            "Untere Bahnhofstrasse",
            "Glärnischstrasse",
            "Thuraustrasse",
            "Bronschhoferstrasse",
            "Churchillstrasse",
            "Industriestrasse",
            "Zürcherstrasse",
            "Tonhallestrasse",
            "Hubstrasse",
            "Poststrasse",
            "Schmidrütistrasse",
            "Rossrütistrasse",
            "Felsenstrasse",
            "Birkenstrasse",
            "Dammstrasse",
            "Flawilerstrasse",
            "Gartenstrasse",
            "Herisauerstrasse",
            "Kirchgasse",
            "Lindenstrasse",
            "Mühlestrasse",
            "Neustrasse",
            "Oberdorfstrasse"
        ],
        "Bellinzona": [
            "Viale Stazione",
            "Via Lugano",
            "Via Camminata",
            "Piazza Collegiata",
            "Via Teatro",
            "Via Orico",
            "Piazza Nosetto",
            "Via della Chiesa",
            "Via Dogana",
            "Piazza Indipendenza",
            "Via Murate",
            "Via Ghiringhelli",
            "Piazza Governo",
            "Via Magoria",
            "Viale Franscini",
            "Via Nocca",
            "Via San Gottardo",
            "Piazza del Sole",
            "Via Guisan",
            "Via Tatti",
            "Via Pretorio",
            "Via Lavizzari",
            "Via Industria",
            "Piazza San Rocco",
            "Via Portone",
            "Via Breganzona",
            "Via Olgiati",
            "Via Carrale",
            "Piazza Molinazzo",
            "Via Zorzi"
        ],
        "Locarno": [
            "Piazza Grande",
            "Via Ramogna",
            "Via della Stazione",
            "Lungolago Giuseppe Motta",
            "Via Sempione",
            "Via della Motta",
            "Via Cittadella",
            "Via al Lido",
            "Via Rusca",
            "Via San Francesco",
            "Via Gioacchino Respini",
            "Via Vallemaggia",
            "Via alla Riva",
            "Piazza Muraccio",
            "Via Borghese",
            "Via della Posta",
            "Via al Ponte",
            "Via Bernardino Luini",
            "Piazzetta Corporazione",
            "Via Manzoni",
            "Via al Parco",
            "Via Pretorio",
            "Via alla Morettina",
            "Piazza San Antonio",
            "Via Francesca",
            "Via Varenna",
            "Via della Pace",
            "Via San Jorio",
            "Via Ballerini",
            "Via al Sasso"
        ],
        "Solothurn": [
            "Hauptgasse",
            "Marktplatz",
            "Friedhofplatz",
            "Gurzelngasse",
            "Schaalgasse",
            "Stalden",
            "Landhausquai",
            "Rossmarktplatz",
            "Kreuzackerstrasse",
            "Bielstrasse",
            "Wengistrasse",
            "Berntorstrasse",
            "Werkhofstrasse",
            "Kronengasse",
            "Riedholzplatz",
            "Dammstrasse",
            "Rötistrasse",
            "Zuchwilerstrasse",
            "Franziskanerplatz",
            "Klosterplatz",
            "Amthausplatz",
            "Baselstrasse",
            "Dornacherstrasse",
            "Feldstrasse",
            "Gartenstrasse",
            "Hermesbühlstrasse",
            "Judengasse",
            "Klosterstrasse",
            "Löwengasse",
            "Obere Steingrubenstrasse"
        ],
        "Olten": [
            "Hauptgasse",
            "Baslerstrasse",
            "Bahnhofstrasse",
            "Kirchgasse",
            "Klosterplatz",
            "Hübelistrasse",
            "Solothurnerstrasse",
            "Ringstrasse",
            "Aarburgerstrasse",
            "Amthausquai",
            "Bifangstrasse",
            "Dammstrasse",
            "Leberngasse",
            "Frohburgstrasse",
            "Sälistrasse",
            "Gösgerstrasse",
            "Zunftgasse",
            "Stadtgraben",
            "Mühlegasse",
            "Engelbergstrasse",
            "Aarauerstrasse",
            "Balmerstrasse",
            "Bornfeldstrasse",
            "Florastrasse",
            "Gartenstrasse",
            "Industriestrasse",
            "Luzernerstrasse",
            "Parkstrasse",
            "Schützenmattstrasse",
            "Tannwald"
        ],
        "Aarau": [
            "Rathausgasse",
            "Bahnhofstrasse",
            "Pelzgasse",
            "Laurenzenvorstadt",
            "Igelweid",
            "Graben",
            "Kronengasse",
            "Metzgergasse",
            "Färbergasse",
            "Golattenmattgasse",
            "Vordere Vorstadt",
            "Hintere Vorstadt",
            "Schlossplatz",
            "Kasinostrasse",
            "Telli",
            "Rohr",
            "Buchs",
            "Entfelderstrasse",
            "Tellistrasse",
            "Rohrerstrasse",
            "Herbstgasse",
            "Kirchgasse",
            "Mühlegasse",
            "Neumarkt",
            "Pestalozzistrasse",
            "Schachenallee",
            "Tannerstrasse",
            "Vorstadt",
            "Weihermattstrasse",
            "Zelglistrasse"
        ],
        "Bulle": [
            "Grand-Rue",
            "Rue du Marché",
            "Place des Alpes",
            "Rue de la Condémine",
            "Rue de Vevey",
            "Rue de la Sionge",
            "Rue de Gruyères",
            "Avenue de la Gare",
            "Rue du Moléson",
            "Rue de la Léchère",
            "Rue Pierre-Bentivegna",
            "Rue de la Lécheretta",
            "Place du Tilleul",
            "Rue Nicolas-Glasson",
            "Rue Saint-Denis",
            "Rue de la Poterne",
            "Rue du Closillon",
            "Rue de la Promenade",
            "Rue des Alpes",
            "Rue de Bouleyres",
            "Rue de la Chapelle",
            "Rue du Cabalet",
            "Rue de l'Étang",
            "Rue du Château",
            "Rue de la Tour-de-Trême",
            "Rue du Verdel",
            "Place de la Gare",
            "Rue du Carroz",
            "Avenue de la Promenade",
            "Rue de Riaz"
        ],
        "Sierre": [
            "Avenue du Général-Guisan",
            "Rue du Bourg",
            "Avenue du Rothorn",
            "Rue de la Monderèche",
            "Rue du Marché",
            "Place de l'Hôtel-de-Ville",
            "Rue de la Gare",
            "Rue du Temple",
            "Avenue des Alpes",
            "Route de Sion",
            "Rue de la Gemmi",
            "Rue de Glarey",
            "Avenue de France",
            "Rue du Simplon",
            "Rue de Plantzette",
            "Rue du Manoir",
            "Rue du Paradis",
            "Avenue du Château",
            "Rue de Condémines",
            "Rue de Muraz",
            "Rue du Bourg-de-Sierre",
            "Rue du Rawil",
            "Avenue de Pradegg",
            "Rue des Bernunes",
            "Rue du Creux",
            "Avenue Max-Huber",
            "Avenue de Tourbillon",
            "Rue des Collines",
            "Chemin du Bisse",
            "Rue du Pont"
        ],
        "Nyon": [
            "Rue de la Gare",
            "Place du Marché",
            "Grand-Rue",
            "Rue de la Porcelaine",
            "Rue du Vieux-Marché",
            "Avenue Viollier",
            "Rue de Rive",
            "Place du Château",
            "Rue Juste-Olivier",
            "Rue de la Colombière",
            "Rue Delafléchère",
            "Route de Divonne",
            "Chemin de la Redoute",
            "Rue de la Morâche",
            "Rue Saint-Jean",
            "Rue du Collège",
            "Rue Marchand",
            "Avenue Alfred-Cortot",
            "Rue du Temple",
            "Chemin de Changins",
            "Rue de la Combe",
            "Rue des Jardins",
            "Chemin de la Levratte",
            "Rue du Vieux-Port",
            "Avenue de la Promenade",
            "Rue du Bourg-de-Rive",
            "Place Bel-Air",
            "Rue du Prieuré",
            "Chemin des Champs-Courbes",
            "Avenue de Bois-Bougy"
        ],
        "Vevey": [
            "Grand-Place",
            "Rue du Simplon",
            "Avenue de la Gare",
            "Rue du Lac",
            "Rue du Théâtre",
            "Quai Perdonnet",
            "Place de la Gare",
            "Rue du Conseil",
            "Rue des Deux-Marchés",
            "Rue du Torrent",
            "Avenue Nestlé",
            "Avenue du Général-Guisan",
            "Rue de Lausanne",
            "Rue d'Italie",
            "Rue du Centre",
            "Rue des Communaux",
            "Avenue Paul-Cérésole",
            "Rue du Clos",
            "Rue de la Madeleine",
            "Place de l'Ancien-Port",
            "Rue du Château",
            "Rue de Fribourg",
            "Rue des Bosquets",
            "Avenue de Corsier",
            "Rue de l'Ancien-Port",
            "Rue du Clos-de-Bourg",
            "Chemin des Vignerons",
            "Rue Louis-Meyer",
            "Avenue Reller",
            "Rue de la Clergère"
        ],
        "Martigny": [
            "Avenue de la Gare",
            "Rue du Grand-Saint-Bernard",
            "Place Centrale",
            "Rue du Rhône",
            "Rue du Simplon",
            "Rue d'Octodure",
            "Avenue du Grand-Saint-Bernard",
            "Rue du Levant",
            "Rue de la Délèze",
            "Rue des Alpes",
            "Rue de la Poste",
            "Rue Marc-Morand",
            "Rue du Forum",
            "Rue du Manoir",
            "Avenue de la Fusion",
            "Rue du Bourg",
            "Rue de l'Hôpital",
            "Rue des Morasses",
            "Rue des Finettes",
            "Chemin du Milieu",
            "Rue du Château",
            "Rue de la Dranse",
            "Rue du Collège",
            "Chemin des Barrières",
            "Avenue du Léman",
            "Rue de la Promenade",
            "Rue du Mont-Chemin",
            "Rue des Vignes",
            "Chemin des Peupliers",
            "Rue de l'Industrie"
        ],
        "Langenthal": [
            "Marktgasse",
            "Bahnhofstrasse",
            "Bärenplatz",
            "Jurastrasse",
            "St. Urbanstrasse",
            "Aarwangenstrasse",
            "Ringstrasse",
            "Wiesenstrasse",
            "Schützenmatte",
            "Bleichestrasse",
            "Industrie",
            "Käsereistrasse",
            "Lotzwilstrasse",
            "Thunstettenstrasse",
            "Murgenthalstrasse",
            "Poststrasse",
            "Spitalgasse",
            "Sägestrasse",
            "Melchnaustrasse",
            "Geissbergstrasse",
            "Ahornstrasse",
            "Bleienbachstrasse",
            "Centralstrasse",
            "Eichenstrasse",
            "Gartenstrasse",
            "Hardernstrasse",
            "Kirchbergstrasse",
            "Murgenthal",
            "Nordring",
            "Parkstrasse"
        ],
        "Burgdorf": [
            "Bahnhofstrasse",
            "Kirchbergstrasse",
            "Poststrasse",
            "Hohengasse",
            "Metzgergasse",
            "Schmiedengasse",
            "Wynigenstrasse",
            "Lyssachstrasse",
            "Oberburgstrasse",
            "Emmentalstrasse",
            "Steinhofstrasse",
            "Hofstetten",
            "Lorraine",
            "Neumarkt",
            "Pestalozzistrasse",
            "Bernstrasse",
            "Käsereistrasse",
            "Mattstetten",
            "Pleerweg",
            "Schlossgässli",
            "Buchmattstrasse",
            "Dammstrasse",
            "Felsenstrasse",
            "Gartenstrasse",
            "Hallwylstrasse",
            "Industriestrasse",
            "Kornhausplatz",
            "Lauenenstrasse",
            "Ringstrasse",
            "Schachenstrasse"
        ],
        "Mendrisio": [
            "Via Stella",
            "Corso San Gottardo",
            "Piazza del Ponte",
            "Via Maspoli",
            "Via Giuseppe Busca",
            "Via Lavizzari",
            "Via Municipio",
            "Piazza del Municipio",
            "Via al Bernascone",
            "Via Giacomo Bentivoglio",
            "Via Alfonso Bentivoglio",
            "Via Nosedo",
            "Via Vela",
            "Via Borromini",
            "Via Croce",
            "Via Pretorio",
            "Via San Nicolao",
            "Via al Convento",
            "Via Francesco Chiesa",
            "Via Roncone",
            "Via Industria",
            "Via Penate",
            "Via Vignalunga",
            "Piazza San Giovanni",
            "Via al Ponte",
            "Via Canton",
            "Via Campagna",
            "Via Serta",
            "Via Boscarina",
            "Via delle Cantine"
        ],
        "Grenchen": [
            "Marktplatz",
            "Bahnhofstrasse",
            "Centralstrasse",
            "Bettlachstrasse",
            "Solothurnstrasse",
            "Bielstrasse",
            "Lindenstrasse",
            "Gartenstrasse",
            "Kapellstrasse",
            "Staadstrasse",
            "Kreuzstrasse",
            "Sportstrasse",
            "Schmelzistrasse",
            "Kastelsstrasse",
            "Absyteweg",
            "Allmendstrasse",
            "Europastrasse",
            "Industriestrasse",
            "Jurastrasse",
            "Leimgrubenweg",
            "Absyte",
            "Birkenstrasse",
            "Dammstrasse",
            "Eichenstrasse",
            "Friedhofstrasse",
            "Gibelinstrasse",
            "Hafnerstrasse",
            "Kirchstrasse",
            "Nordstrasse",
            "Poststrasse"
        ],
        "Morges": [
            "Grand-Rue",
            "Rue Louis-de-Savoie",
            "Place du Casino",
            "Quai du Mont-Blanc",
            "Rue Centrale",
            "Rue du Sablon",
            "Rue de la Gare",
            "Quai Lochmann",
            "Rue du Chablais",
            "Rue de Couvaloup",
            "Avenue de la Gottaz",
            "Avenue de Marcelin",
            "Rue des Fossés",
            "Rue du Lac",
            "Chemin de la Grosse-Pierre",
            "Route de Saint-Prex",
            "Avenue de Lonay",
            "Rue Saint-Louis",
            "Chemin de la Chocolatière",
            "Avenue Paderewski",
            "Rue du Temple",
            "Avenue de Riond-Bosson",
            "Rue des Vignerons",
            "Chemin du Pré-de-la-Dîme",
            "Rue de la Combe",
            "Rue de l'Avenir",
            "Place du Port",
            "Rue du Manoir",
            "Avenue de Vertou",
            "Rue de Lausanne"
        ],
        "Wohlen": [
            "Zentralstrasse",
            "Bahnhofstrasse",
            "Bremgartenstrasse",
            "Kapellenstrasse",
            "Friedhofstrasse",
            "Obere Bahnhofstrasse",
            "Untere Bahnhofstrasse",
            "Nordstrasse",
            "Südstrasse",
            "Bünzstrasse",
            "Haldenstrasse",
            "Jurastrasse",
            "Villmergerstrasse",
            "Angliker Strasse",
            "Steingasse",
            "Badstrasse",
            "Bleichmattstrasse",
            "Bifangstrasse",
            "Fischbacherstrasse",
            "Rosengarten",
            "Aargauerstrasse",
            "Bünzfeldstrasse",
            "Dorfstrasse",
            "Eichenstrasse",
            "Gartenstrasse",
            "Hinterdorfstrasse",
            "Kirchstrasse",
            "Lindenstrasse",
            "Mühleweg",
            "Postplatz"
        ],
        "Herisau": [
            "Bahnhofstrasse",
            "Oberdorfstrasse",
            "Kasernenstrasse",
            "Gossauerstrasse",
            "Poststrasse",
            "St. Gallerstrasse",
            "Mühlestrasse",
            "Schwellbrunnerstrasse",
            "Kirchplatz",
            "Platz",
            "Obstmarkt",
            "Buchenstrasse",
            "Alpsteinstrasse",
            "Cilanderstrasse",
            "Erlenstrasse",
            "Bachstrasse",
            "Waisenhausstrasse",
            "Bahnweg",
            "Degersheimer Strasse",
            "Ebnetstrasse",
            "Blumenstrasse",
            "Dorfstrasse",
            "Gartenstrasse",
            "Industriestrasse",
            "Kirchstrasse",
            "Lerchenstrasse",
            "Mühlehaldenstrasse",
            "Nieschbergstrasse",
            "Rebhalde",
            "Sonnenhügelstrasse"
        ],
        "Liestal": [
            "Rathausstrasse",
            "Bahnhofstrasse",
            "Rheinstrasse",
            "Kasernenstrasse",
            "Rosenstrasse",
            "Seestrasse",
            "Gestadeck",
            "Fischmarkt",
            "Marktgasse",
            "Zeughausplatz",
            "Fraumattstrasse",
            "Oristalstrasse",
            "Rebgasse",
            "Poststrasse",
            "Mühlegasse",
            "Schützenstrasse",
            "Wasserturmplatz",
            "Büchelistrasse",
            "Rotackerstrasse",
            "Kanonengasse",
            "Aurorastrasse",
            "Burghaldenstrasse",
            "Frenkenstrasse",
            "Grammetstrasse",
            "Hersberg",
            "Industrie",
            "Kirchstrasse",
            "Lindenstrasse",
            "Mühlackerstrasse",
            "Parkstrasse"
        ],
        "Arbon": [
            "Bahnhofstrasse",
            "Hafenstrasse",
            "Promenadenstrasse",
            "Hauptstrasse",
            "St. Gallerstrasse",
            "Romanshornerstrasse",
            "Seestrasse",
            "Grabenstrasse",
            "Weinstrasse",
            "Rebenstrasse",
            "Lindenhofstrasse",
            "Seemoosstrasse",
            "Stachen",
            "Rietlistrasse",
            "Erlenstrasse",
            "Industriestrasse",
            "Kirchstrasse",
            "Hubstrasse",
            "Tübach",
            "Egnach",
            "Amriswilerstrasse",
            "Bleichestrasse",
            "Dammstrasse",
            "Feldstrasse",
            "Gartenstrasse",
            "Marktstrasse",
            "Obstgartenstrasse",
            "Poststrasse",
            "Steinacherstrasse",
            "Waldstrasse"
        ],
        "Schwyz": [
            "Herrengasse",
            "Bahnhofstrasse",
            "Reichsstrasse",
            "Gotthardstrasse",
            "Postplatz",
            "Schmiedgasse",
            "Oberer Steisteg",
            "Unterer Steisteg",
            "Archivgasse",
            "Schlagstrasse",
            "Hofmatt",
            "Zeughausstrasse",
            "Mythenfeldstrasse",
            "Oberdorfstrasse",
            "Rickenbach",
            "Talstrasse",
            "Grundstrasse",
            "Brüölstrasse",
            "Haggenstrasse",
            "Badstrasse",
            "Austrasse",
            "Feldstrasse",
            "Grossmattstrasse",
            "Ibergereggstrasse",
            "Kirchstrasse",
            "Lagerstrasse",
            "Muotastrasse",
            "Oberseestrasse",
            "Pfistergasse",
            "Rathausstrasse"
        ],
        "Davos": [
            "Promenade",
            "Talstrasse",
            "Bahnhofstrasse",
            "Dischmastrasse",
            "Mattastrasse",
            "Kurgartenstrasse",
            "Tobelmühlestrasse",
            "Scalettastrasse",
            "Hohe Promenade",
            "Spitalstrasse",
            "Albertistrasse",
            "Flüelastrasse",
            "Poststrasse",
            "Sertigstrasse",
            "Landwasserstrasse",
            "Berglistutz",
            "Jakobshorn",
            "Parsenn",
            "Schatzalp",
            "Wolfgang",
            "Arosastrasse",
            "Buolstrasse",
            "Clavadelerstrasse",
            "Davoserstrasse",
            "Gemeindestrasse",
            "Guggerbachstrasse",
            "Klosters Strasse",
            "Lärchenwaldstrasse",
            "Ortstrasse",
            "Platzweg"
        ],
        "Zermatt": [
            "Bahnhofstrasse",
            "Bahnhofplatz",
            "Kirchstrasse",
            "Hofmattstrasse",
            "Steinmattstrasse",
            "Schluhmattstrasse",
            "Riedweg",
            "Obere Matten",
            "Untere Matten",
            "Winkelmatten",
            "Staldenweg",
            "Getwingstrasse",
            "Matterstrasse",
            "Spissstrasse",
            "Triftweg",
            "Schweigmatten",
            "Blatten",
            "Zum Steg",
            "Findeln",
            "Furi",
            "Alte Gasse",
            "Breitmattenstrasse",
            "Dorfstrasse",
            "Gletscherstrasse",
            "Gornergratstrasse",
            "Hinterdorfstrasse",
            "Kirchplatz",
            "Matterhornstrasse",
            "Rottenstrasse",
            "Schwiggüferweg"
        ],
        "Interlaken": [
            "Höheweg",
            "Bahnhofstrasse",
            "Jungfraustrasse",
            "Marktgasse",
            "Rosenstrasse",
            "Postgasse",
            "Centralstrasse",
            "General-Guisan-Strasse",
            "Spielmatte",
            "Rugenparkstrasse",
            "Waldeggstrasse",
            "Seestrasse",
            "Harderstrasse",
            "Alpenstrasse",
            "Aarmühlestrasse",
            "Brienzstrasse",
            "Matten",
            "Unterseen",
            "Beatenbergstrasse",
            "Fabrikstrasse",
            "Aaremühle",
            "Berghausstrasse",
            "Dorfstrasse",
            "Gartenstrasse",
            "Goldswilerstrasse",
            "Kirchgasse",
            "Ländtestrasse",
            "Neuhaus",
            "Obere Goldey",
            "Parkstrasse"
        ],
        "Ascona": [
            "Piazza Giuseppe Motta",
            "Via Borgo",
            "Viale Monte Verità",
            "Via Papio",
            "Via Collegio",
            "Via Muraccio",
            "Via Carrà",
            "Via Losone",
            "Via Delta",
            "Lungolago",
            "Via Buonamano",
            "Via Medere",
            "Via San Materno",
            "Piazza San Pietro",
            "Via Albarelle",
            "Via Lido",
            "Via Brere",
            "Via Signor in Croce",
            "Via al Torchio",
            "Passeggiata",
            "Via Fondaccio",
            "Via di Mezzo",
            "Via alla Posta",
            "Via delle Vigne",
            "Via al Giardino",
            "Via Arbostora",
            "Via Muraccio Superiore",
            "Via al Pascolo",
            "Piazzetta San Sebastiano",
            "Via Monte Bré"
        ],
        "Appenzell": [
            "Hauptgasse",
            "Marktgasse",
            "Poststrasse",
            "Landsgemeindeplatz",
            "Hirschenplatz",
            "Schmiedgasse",
            "Engelgasse",
            "Gartenstrasse",
            "Weissbadstrasse",
            "Gaiserstrasse",
            "Zielstrasse",
            "Schlossweg",
            "Brauereiplatz",
            "Bühlerstrasse",
            "Schwende",
            "Steinegg",
            "Kau",
            "Rinkenbach",
            "Meistersrüte",
            "Hirschberg",
            "Bankgasse",
            "Braunauplatz",
            "Eggerstanden",
            "Gontenbadstrasse",
            "Hofstrasse",
            "Jakobsbadstrasse",
            "Kirchplatz",
            "Lehnstrasse",
            "Nebenstrasse",
            "Obere Gasse"
        ],
        "Glarus": [
            "Hauptstrasse",
            "Bahnhofstrasse",
            "Kirchstrasse",
            "Spielhofstrasse",
            "Gerichtshausstrasse",
            "Zwinglistrasse",
            "Gerbestrasse",
            "Rathausplatz",
            "Postgasse",
            "Volksgarten",
            "Sernfttalstrasse",
            "Asylstrasse",
            "Burgstrasse",
            "Schützenstrasse",
            "Hinterdorfstrasse",
            "Industriestrasse",
            "Erlenstrasse",
            "Wiesenstrasse",
            "Ennenda",
            "Netstal",
            "Allmeindstrasse",
            "Bankstrasse",
            "Dorfstrasse",
            "Feldstrasse",
            "Gartenstrasse",
            "Lötscher",
            "Molliserstrasse",
            "Oberfeldstrasse",
            "Rathausstrasse",
            "Schweizerstrasse"
        ],
        "Sarnen": [
            "Bahnhofstrasse",
            "Brünigstrasse",
            "Dorfplatz",
            "Hofstrasse",
            "Seestrasse",
            "Marktstrasse",
            "Rütistrasse",
            "Guido-Meyer-Strasse",
            "Feldstrasse",
            "Industriestrasse",
            "Kirchhoferstrasse",
            "Stanserstrasse",
            "Kägiswilerstrasse",
            "Wilerstrasse",
            "Grundstrasse",
            "Eyhofweg",
            "Dossen",
            "Allmend",
            "Schwendi",
            "Schlössli",
            "Ahornstrasse",
            "Brückenstrasse",
            "Chilegässli",
            "Dorfstrasse",
            "Gemeindestrasse",
            "Kirchstrasse",
            "Lindenstrasse",
            "Moosstrasse",
            "Neustrasse",
            "Oberwilerstrasse"
        ],
        "Stans": [
            "Bahnhofstrasse",
            "Stansstaderstrasse",
            "Dorfplatz",
            "Alter Postplatz",
            "Engelbergstrasse",
            "Buochserstrasse",
            "Robert-Durrerstrasse",
            "Tellenmatt",
            "Mürgstrasse",
            "Kniristrasse",
            "Nägeligasse",
            "Schmiedgasse",
            "Knirigasse",
            "Hofmattstrasse",
            "Bitzistrasse",
            "Stanserhorn",
            "Wil",
            "Oberdorf",
            "Niederdorf",
            "Ennetbürgen",
            "Ahornstrasse",
            "Breitenstrasse",
            "Dallenwilerstrasse",
            "Feldstrasse",
            "Gartenstrasse",
            "Herrenrain",
            "Kirchplatz",
            "Lindenstrasse",
            "Mühleplatz",
            "Neustrasse"
        ],
        "Altdorf": [
            "Bahnhofstrasse",
            "Hellgasse",
            "Dätwylerstrasse",
            "Gotthardstrasse",
            "Tellsgasse",
            "Hofmattgasse",
            "Rathausplatz",
            "Lehnplatz",
            "Schützengasse",
            "Schmiedgasse",
            "Attinghauserstrasse",
            "Seedorferstrasse",
            "Flüelerstrasse",
            "Bürglen",
            "Schattdorf",
            "Erstfeld",
            "Spiringen",
            "Klausenpassstrasse",
            "Reussbrücke",
            "Kapuzinerkloster",
            "Aabachstrasse",
            "Burgstrasse",
            "Feldstrasse",
            "Industriestrasse",
            "Jauchstrasse",
            "Kirchstrasse",
            "Langgasse",
            "Neustrasse",
            "Postplatz",
            "Rosenbergstrasse"
        ],
        "Delémont": [
            "Rue du 23-Juin",
            "Avenue de la Gare",
            "Rue de la Préfecture",
            "Place de la Gare",
            "Rue de l'Hôpital",
            "Rue du Marché",
            "Rue du Vieux-Bourg",
            "Route de Bâle",
            "Route de Porrentruy",
            "Rue de la Maltière",
            "Avenue de la Liberté",
            "Rue du Champ-de-Foire",
            "Faubourg des Capucins",
            "Place Roland-Béguelin",
            "Rue du Temple",
            "Rue de Fer",
            "Rue du Nord",
            "Rue de la Constitution",
            "Rue Emile-Boéchat",
            "Place de la Poste",
            "Rue de la Jeunesse",
            "Rue du Jura",
            "Avenue de la Paix",
            "Rue de l'Avenir",
            "Rue du Pré-du-Prince",
            "Rue des Granges",
            "Rue du Pont",
            "Place de la Liberté",
            "Rue de la Fonderie",
            "Rue des Jardins"
        ]
    },
    "postcode_format": "####",
    "address_formats": [
        "{street} {building_number}, {postcode} {city}",
        "{street} {building_number}, CH-{postcode} {city}",
        "{street} {building_number}, {postcode} {city} ({state})"
    ],
    "country": "Schweiz",
    "country_code": "CH",
    "phone_area_codes": {
        "Zürich": [
            "044",
            "043"
        ],
        "Genève": [
            "022"
        ],
        "Basel-Stadt": [
            "061"
        ],
        "Basel-Landschaft": [
            "061"
        ],
        "Vaud": [
            "021",
            "024"
        ],
        "Bern": [
            "031",
            "033",
            "034"
        ],
        "Luzern": [
            "041"
        ],
        "St. Gallen": [
            "071"
        ],
        "Ticino": [
            "091"
        ],
        "Aargau": [
            "062",
            "056"
        ],
        "Thurgau": [
            "071",
            "052"
        ],
        "Solothurn": [
            "032"
        ],
        "Fribourg": [
            "026"
        ],
        "Valais": [
            "027"
        ],
        "Neuchâtel": [
            "032"
        ],
        "Graubünden": [
            "081"
        ],
        "Zug": [
            "041"
        ],
        "Schaffhausen": [
            "052"
        ],
        "Jura": [
            "032"
        ],
        "Appenzell Ausserrhoden": [
            "071"
        ],
        "Appenzell Innerrhoden": [
            "071"
        ],
        "Glarus": [
            "055"
        ],
        "Obwalden": [
            "041"
        ],
        "Nidwalden": [
            "041"
        ],
        "Uri": [
            "041"
        ],
        "Schwyz": [
            "041",
            "055"
        ]
    },
    "phone_format": "({area_code}) ### ## ##"
}
